id,address,lat,lng,house_no,city,state_code,zip_code
376,"401 W Evergreen Ave, Palmer, AK 99645 USA",61.59941,-149.114,401,Palmer,AK,99645
1901,"214 Kirkland St, Abbeville, AL 36310 USA",31.56762,-85.2512,214,Abbeville,AL,36310
644,"2517 County Road 36, Akron, AL 35441 USA",32.87059,-87.7213,2517,Akron,AL,35441
1419,"7959 US Highway 431, Albertville, AL 35950 USA",34.28,-86.217,7959,Albertville,AL,35950
37,"118 Shelby St, Andalusia, AL 36421 USA",31.32004,-86.4623,118,Andalusia,AL,36421
431,"28513 US Highway 29, Andalusia, AL 36421 USA",31.39823,-86.4784,28513,Andalusia,AL,36421
1386,"1143 N Brindlee Mountain Pkwy, Arab, AL 35016 USA",34.33605,-86.5041,1143,Arab,AL,35016
465,"73 N Broadway St, Ashford, AL 36312 USA",31.1773,-85.2386,73,Ashford,AL,36312
1268,"1033 US Highway 72 E, Athens, AL 35611 USA",34.786,-86.9546,1033,Athens,AL,35611
1278,"15412 Greenfield Dr, Athens, AL 35613 USA",34.78039,-86.9273,15412,Athens,AL,35613
1686,"1515 S Main St, Atmore, AL 36502 USA",31.00442,-87.4928,1515,Atmore,AL,36502
1312,"17719 Highway 18 E, Berry, AL 35546 USA",33.66007,-87.6041,17719,Berry,AL,35546
1950,"3459 Warrior River Rd, Bessemer, AL 35023 USA",33.46351,-87.0253,3459,Bessemer,AL,35023
813,"2285 US Highway 431, Boaz, AL 35957 USA",34.21856,-86.1592,2285,Boaz,AL,35957
1021,"10438 Highway 5, Brent, AL 35034 USA",32.95901,-87.1699,10438,Brent,AL,35034
1363,"414 Sa Graham Blvd, Brundidge, AL 36010 USA",31.72084,-85.8282,414,Brundidge,AL,36010
1182,"2612 S Jackson St, Castleberry, AL 36432 USA",31.2958,-87.0215,2612,Castleberry,AL,36432
445,"8565 US Highway 411 N, Centre, AL 35960 USA",34.10677,-85.553,8565,Centre,AL,35960
1772,"880 Chesnut Byp, Centre, AL 35960 USA",34.1632,-85.6898,880,Centre,AL,35960
1462,"10961 Highway 45, Chunchula, AL 36521 USA",30.9193,-88.2,10961,Chunchula,AL,36521
1387,"2109 7th St N, Clanton, AL 35045 USA",32.80258,-86.5845,2109,Clanton,AL,35045
1587,"30161 Woodrow Ln, Daphne, AL 36527 USA",30.66745,-87.8527,30161,Daphne,AL,36527
1465,"1404 US Highway 80 W, Demopolis, AL 36732 USA",32.49441,-87.8551,1404,Demopolis,AL,36732
573,"2375 Sharon Blvd, Dora, AL 35062 USA",33.72962,-87.0896,2375,Dora,AL,35062
1721,"5950 Highway 45, Eight Mile, AL 36613 USA",30.81477,-88.1565,5950,Eight Mile,AL,36613
229,"Swc Alabama 27 &County Rd 636, Enterprise, AL 36330 USA",31.25476,-85.9644,Swc,Enterprise,AL,36330
258,"908 Rucker Blvd, Enterprise, AL 36330 USA",31.3231,-85.8288,908,Enterprise,AL,36330
586,"707 Boll Weevil Cir, Enterprise, AL 36330 USA",31.32577,-85.8341,707,Enterprise,AL,36330
717,"26500 Highway 134, Enterprise, AL 36330 USA",31.29733,-85.7916,26500,Enterprise,AL,36330
1099,"701 Boll Weevil Cir, Enterprise, AL 36330 USA",31.32383,-85.8324,701,Enterprise,AL,36330
1250,"900 Rucker Blvd, Enterprise, AL 36330 USA",31.32252,-85.8303,900,Enterprise,AL,36330
1994,"6 Highway 95, Eufaula, AL 36027 USA",31.91917,-85.1528,6,Eufaula,AL,36027
1889,"1010 Liberty Hill Dr, Evergreen, AL 36401 USA",31.45479,-86.9635,1010,Evergreen,AL,36401
811,"1426 Temple Ave N, Fayette, AL 35555 USA",33.70371,-87.8258,1426,Fayette,AL,35555
338,"1510 N Wood Ave, Florence, AL 35630 USA",34.82135,-87.6812,1510,Florence,AL,35630
280,"3165 S McKenzie St, Foley, AL 36535 USA",30.36719,-87.6801,3165,Foley,AL,36535
405,"7976 State Highway 59, Foley, AL 36535 USA",30.34044,-87.6805,7976,Foley,AL,36535
730,"1327 S McKenzie St, Foley, AL 36535 USA",30.3909,-87.6829,1327,Foley,AL,36535
1223,"230 E Fern Ave, Foley, AL 36535 USA",30.42093,-87.6808,230,Foley,AL,36535
1746,"2550 S McKenzie St, Foley, AL 36535 USA",30.38007,-87.6858,2550,Foley,AL,36535
1407,"1644 Forestdale Blvd, Forestdale, AL 35214 USA",33.56918,-86.8997,1644,Forestdale,AL,35214
602,"104 19th St NW, Fort Payne, AL 35967 USA",34.45927,-85.7075,104,Fort Payne,AL,35967
1836,"1824 Glenn Blvd SW, Fort Payne, AL 35968 USA",34.43788,-85.7586,1824,Fort Payne,AL,35968
775,"714 Enterprise Rd, Geneva, AL 36340 USA",31.05011,-85.8588,714,Geneva,AL,36340
1405,"41102 AL Highway 75, Geraldine, AL 35974 USA",34.36569,-86.0035,41102,Geraldine,AL,35974
34,"25149 Highway 82, Gordo, AL 35466 USA",33.32257,-87.9095,25149,Gordo,AL,35466
1078,"1505 State St, Greensboro, AL 36744 USA",32.69964,-87.5982,1505,Greensboro,AL,36744
1247,"915 Fort Dale Rd, Greenville, AL 36037 USA",31.84723,-86.6403,915,Greenville,AL,36037
490,"1551 Gulf Shores Pkwy, Gulf Shores, AL 36542 USA",30.26662,-87.689,1551,Gulf Shores,AL,36542
937,"1844 Gunter Ave, Guntersville, AL 35976 USA",34.34006,-86.3109,1844,Guntersville,AL,35976
54,"110 S State Highway 167, Hartford, AL 36344 USA",31.096,-85.7089,110,Hartford,AL,36344
254,"1505 Main St E, Hartselle, AL 35640 USA",34.44997,-86.9078,1505,Hartselle,AL,35640
786,"9120 Wall Triana Hwy, Harvest, AL 35749 USA",34.85789,-86.7494,9120,Harvest,AL,35749
210,"506 E Tuskeena St, Hayneville, AL 36040 USA",32.18442,-86.5721,506,Hayneville,AL,36040
1404,"156 County Road 22, Headland, AL 36345 USA",31.33425,-85.3343,156,Headland,AL,36345
1412,"731 Ross St, Heflin, AL 36264 USA",33.64694,-85.5887,731,Heflin,AL,36264
676,"1061 Jd and L Dr SW, Jacksonville, AL 36265 USA",33.81371,-85.7614,1061,Jacksonville,AL,36265
881,"80 Highway 195, Jasper, AL 35503 USA",33.84971,-87.2865,80,Jasper,AL,35503
961,"24 Hollis Crump Dr, Jasper, AL 35501 USA",33.83085,-87.2126,24,Jasper,AL,35501
1532,"3687 Sipsey Rd, Jasper, AL 35504 USA",33.82626,-87.0908,3687,Jasper,AL,35504
1411,"2837 S Phillips Rd, Lanett, AL 36863 USA",32.83524,-85.2296,2837,Lanett,AL,36863
1264,"33880 US Highway 98, Lillian, AL 36549 USA",30.41373,-87.4493,33880,Lillian,AL,36549
1457,"75905 AL Highway 77, Lincoln, AL 35096 USA",33.59597,-86.1215,75905,Lincoln,AL,35096
1171,"103 Miller Ave, Linden, AL 36748 USA",32.29691,-87.7971,103,Linden,AL,36748
1883,"8996 AL Highway 22, Maplesville, AL 36750 USA",32.7829,-86.8729,8996,Maplesville,AL,36750
337,"110 Fikes Ferry Rd, Marion, AL 36756 USA",32.61991,-87.317,110,Marion,AL,36756
1307,"4780 Eastern Valley Rd, Mc Calla, AL 35111 USA",33.32922,-87.0006,4780,Mc Calla,AL,35111
774,"12301 Highway 231 431 N, Meridianville, AL 35759 USA",34.87122,-86.572,12301,Meridianville,AL,35759
916,"12275 Highway 231, Meridianville, AL 35759 USA",34.87035,-86.5722,12275,Meridianville,AL,35759
583,"7790 Moffett Rd, Mobile, AL 36618 USA",30.76247,-88.2251,7790,Mobile,AL,36618
223,"2511 Moody Pkwy, Moody, AL 35004 USA",33.5821,-86.5068,2511,Moody,AL,35004
951,"40278 AL Highway 69, Moundville, AL 35474 USA",32.99774,-87.6224,40278,Moundville,AL,35474
635,"19644 Highway # 43, Mount Vernon, AL 36560 USA",31.1002,-88.0101,19644,Mount Vernon,AL,36560
731,"2000 Trade Center Drive, Northport, AL 35476 USA",33.23286,-87.6151,2000,Northport,AL,35476
882,"3205 Hunter Creek Rd, Northport, AL 35473 USA",33.2381,-87.5642,3205,Northport,AL,35473
1413,"2465 2nd Ave E, Oneonta, AL 35121 USA",33.97294,-86.4476,2465,Oneonta,AL,35121
1536,"20 Lee Road 621, Opelika, AL 36804 USA",32.70971,-85.2323,20,Opelika,AL,36804
768,"902 Florala Hwy # 331, Opp, AL 36467 USA",31.27162,-86.2493,902,Opp,AL,36467
375,"14344 Main St, Orrville, AL 36767 USA",32.30777,-87.242,14344,Orrville,AL,36767
529,"2674 Dr. J.T. Moore Street South, Orrville, AL 36767 USA",32.30693,-87.2417,2674,Orrville,AL,36767
569,"1106 Caffey Dr, Oxford, AL 36203 USA",33.59721,-85.8697,1106,Oxford,AL,36203
1780,"1720 AL Highway 21 S, Oxford, AL 36203 USA",33.60161,-85.8359,1720,Oxford,AL,36203
313,"828 Highway 33, Pelham, AL 35124 USA",34.30923,-87.3419,828,Pelham,AL,35124
1289,"3318 Pelham Pkwy, Pelham, AL 35124 USA",33.27706,-86.8124,3318,Pelham,AL,35124
1184,"4514 US Highway 80 W, Phenix City, AL 36870 USA",32.4571,-85.194,4514,Phenix City,AL,36870
1583,"5 Ashwood Dr, Phenix City, AL 36867 USA",32.50605,-85.0518,5,Phenix City,AL,36867
1712,"615 US Highway 278 Byp E, Piedmont, AL 36272 USA",33.93299,-85.6228,615,Piedmont,AL,36272
975,"389 McCurdy Ave N, Rainsville, AL 35986 USA",34.49893,-85.8448,389,Rainsville,AL,35986
320,"5676 County Road 203, Rehobeth, AL 36301 USA",31.12598,-85.4489,5676,Rehobeth,AL,36301
384,"22111 State Highway 59 S, Robertsdale, AL 36567 USA",30.54719,-87.7088,22111,Robertsdale,AL,36567
447,"904 Ravenwood Dr, Selma, AL 36701 USA",32.42411,-87.0414,904,Selma,AL,36701
601,"6865 Spanish Fort Blvd, Spanish Fort, AL 36527 USA",30.67128,-87.9046,6865,Spanish Fort,AL,36527
1588,"30161 Woodrow Ln, Spanish Fort, AL 36527 USA",30.66745,-87.8527,30161,Spanish Fort,AL,36527
1885,"34690 US Highway 31, Stapleton, AL 36578 USA",30.73032,-87.7931,34690,Stapleton,AL,36578
1071,"19 Main Street, Sycamore, AL 35149 USA",33.25543,-86.212,19,Sycamore,AL,35149
1946,"58 WW Averitte Dr, Sylacauga, AL 35151 USA",33.14378,-86.4092,58,Sylacauga,AL,35151
1414,"20070 Swanner Blvd, Tanner, AL 35671 USA",34.73071,-86.9649,20070,Tanner,AL,35671
1802,"10148 Old Pascagoula Rd, Theodore, AL 36582 USA",30.53585,-88.2825,10148,Theodore,AL,36582
1343,"15 Summit St, Thorsby, AL 35171 USA",32.91618,-86.7148,15,Thorsby,AL,35171
1690,"9868 Pulaski Pike, Toney, AL 35773 USA",34.90097,-86.6712,9868,Toney,AL,35773
266,"1329 S Brundidge St, Troy, AL 36081 USA",31.78789,-85.9647,1329,Troy,AL,36081
267,"1327 S Brundidge St, Troy, AL 36081 USA",31.78739,-85.9655,1327,Troy,AL,36081
1876,"1117 Highway 231 S, Troy, AL 36081 USA",31.78294,-85.9569,1117,Troy,AL,36081
1056,"108 Baskin St N, Union Springs, AL 36089 USA",32.14436,-85.7181,108,Union Springs,AL,36089
987,"301 US Highway 29 # A, Valley, AL 36854 USA",32.79756,-85.1845,301,Valley,AL,36854
1779,"603 US Highway 29, Valley, AL 36854 USA",32.80437,-85.1801,603,Valley,AL,36854
186,"219 Louisa St, Warrior, AL 35180 USA",33.81173,-86.8105,219,Warrior,AL,35180
47,"60 Redland Rd, Wetumpka, AL 36093 USA",32.46012,-86.1944,60,Wetumpka,AL,36093
638,"795 Wilson St, Wetumpka, AL 36092 USA",32.52646,-86.2056,795,Wetumpka,AL,36092
960,"4784 US Highway 231, Wetumpka, AL 36092 USA",32.51092,-86.2129,4784,Wetumpka,AL,36092
1550,"1686 Wilmer Rd, Wilmer, AL 36587 USA",30.72414,-88.3649,1686,Wilmer,AL,36587
1609,"13281 Moffett Rd, Wilmer, AL 36587 USA",30.82285,-88.3582,13281,Wilmer,AL,36587
733,"1575 US Highway 43, Winfield, AL 35594 USA",33.92943,-87.8257,1575,Winfield,AL,35594
340,"700 4th Ave, York, AL 36925 USA",32.48882,-88.2968,700,York,AL,36925
1640,"1520 Pine St, Arkadelphia, AR 71923 USA",34.12337,-93.0671,1520,Arkadelphia,AR,71923
1651,"3003 Twin Rivers Dr, Arkadelphia, AR 71923 USA",34.12349,-93.0866,3003,Arkadelphia,AR,71923
1733,"1201 N 10th St, Arkadelphia, AR 71923 USA",34.14162,-93.0615,1201,Arkadelphia,AR,71923
390,"603 N Church St, Atkins, AR 72823 USA",35.24768,-92.9381,603,Atkins,AR,72823
21,"2104 Highway 367 N, Bald Knob, AR 72010 USA",35.30416,-91.5776,2104,Bald Knob,AR,72010
795,"1425 S Saint Louis St, Batesville, AR 72501 USA",35.76534,-91.6408,1425,Batesville,AR,72501
1646,"858 N Central Ave, Batesville, AR 72501 USA",35.77616,-91.659,858,Batesville,AR,72501
1559,"3600 Highway 63, Black Rock, AR 72415 USA",36.10711,-91.1136,3600,Black Rock,AR,72415
749,"1166 W Washington St, Camden, AR 71701 USA",33.5853,-92.8508,1166,Camden,AR,71701
1725,"634 N Main St, Cave City, AR 72521 USA",35.94776,-91.5483,634,Cave City,AR,72521
509,"5684 Highway 9, Center Ridge, AR 72027 USA",35.36707,-92.5641,5684,Center Ridge,AR,72027
853,"6720 Heber Springs Rd N, Drasco, AR 72530 USA",35.63376,-91.9464,6720,Drasco,AR,72530
364,"701 E Hillsboro St, El Dorado, AR 71730 USA",33.20689,-92.6566,701,El Dorado,AR,71730
534,"2740 N West Ave, El Dorado, AR 71730 USA",33.2422,-92.666,2740,El Dorado,AR,71730
1200,"3464 W Hillsboro St, El Dorado, AR 71730 USA",33.20862,-92.7153,3464,El Dorado,AR,71730
1249,"1720 N West Ave, El Dorado, AR 71730 USA",33.23006,-92.666,1720,El Dorado,AR,71730
32,"905 E Fordyce St, England, AR 72046 USA",34.54675,-91.96,905,England,AR,72046
1311,"821 E Main St, Flippin, AR 72634 USA",36.27683,-92.5841,821,Flippin,AR,72634
195,"2110 N Washington St, Forrest City, AR 72335 USA",35.02964,-90.7889,2110,Forrest City,AR,72335
485,"101 S Broadview St, Greenbrier, AR 72058 USA",35.2224,-92.389,101,Greenbrier,AR,72058
305,"109 S Lee St, Hampton, AR 71744 USA",33.53726,-92.4692,109,Hampton,AR,71744
1837,"214 S Lee St, Hampton, AR 71744 USA",33.53595,-92.4703,214,Hampton,AR,71744
4,"701 N Main St, Harrison, AR 72601 USA",36.23694,-93.1068,701,Harrison,AR,72601
27,"1413 N 65 Hwy, Harrison, AR 72601 USA",36.18826,-93.0231,1413,Harrison,AR,72601
1305,"917 N 65 Hwy, Harrison, AR 72601 USA",36.25544,-93.1225,917,Harrison,AR,72601
234,"1623 Highway 25B, Heber Springs, AR 72543 USA",35.50868,-92.029,1623,Heber Springs,AR,72543
871,"2 Parkwood Dr, Holiday Island, AR 72631 USA",36.45452,-93.7246,2,Holiday Island,AR,72631
361,"1501 N Hervey St, Hope, AR 71801 USA",33.68013,-93.6048,1501,Hope,AR,71801
785,"815 S Main St, Hope, AR 71801 USA",33.66168,-93.5894,815,Hope,AR,71801
209,"3242 Albert Pike Rd, Hot Springs, AR 71913 USA",34.50663,-93.1292,3242,Hot Springs,AR,71913
664,"136 Thornton Ferry Rd, Hot Springs, AR 71913 USA",34.50229,-93.1259,136,Hot Springs,AR,71913
1046,"1100 Albert Pike Rd, Hot Springs, AR 71913 USA",34.49394,-93.0811,1100,Hot Springs,AR,71913
1783,"4326 Central Ave, Hot Springs, AR 71913 USA",34.45267,-93.0738,4326,Hot Springs,AR,71913
12,"200 Main St, Leola, AR 72084 USA",34.17615,-92.5917,200,Leola,AR,72084
854,"20290 Arch St, Little Rock, AR 72206 USA",34.56453,-92.3361,20290,Little Rock,AR,72206
152,"373 Highway # 49, Marvell, AR 72366 USA",34.55781,-90.9077,373,Marvell,AR,72366
867,"708 Holly St, McGehee, AR 71654 USA",33.62958,-91.4033,708,McGehee,AR,71654
968,"1123 Highway 62 E, Mountain Home, AR 72653 USA",36.35063,-92.3677,1123,Mountain Home,AR,72653
1420,"330 Highway 62 E, Mountain Home, AR 72653 USA",36.34161,-92.3821,330,Mountain Home,AR,72653
1656,"1124 Highway 62 E, Mountain Home, AR 72653 USA",36.35034,-92.3663,1124,Mountain Home,AR,72653
108,"566 Thomas Creek Dr, Newark, AR 72562 USA",35.70272,-91.4536,566,Newark,AR,72562
818,"3220 Springhill Dr, North Little Rock, AR 72117 USA",34.78403,-92.2176,3220,North Little Rock,AR,72117
962,"5001 Warden Rd, North Little Rock, AR 72116 USA",34.79799,-92.2197,5001,North Little Rock,AR,72116
1605,"7610 Northshore Pl, North Little Rock, AR 72118 USA",34.80368,-92.3464,7610,North Little Rock,AR,72118
1032,"2625 W Kingshighway, Paragould, AR 72450 USA",36.06018,-90.5206,2625,Paragould,AR,72450
696,"1609 N Thomasville Ave, Pocahontas, AR 72455 USA",36.27236,-90.9757,1609,Pocahontas,AR,72455
328,"7720 Highway 62, Pollard, AR 72456 USA",36.42895,-90.2743,7720,Pollard,AR,72456
1642,"107 N Elmira Ave, Russellville, AR 72802 USA",35.27855,-93.1036,107,Russellville,AR,72802
155,"17809 Batesville Pike, Sherwood, AR 72120 USA",34.88352,-92.2365,17809,Sherwood,AR,72120
900,"7600 Warden Rd, Sherwood, AR 72120 USA",34.82793,-92.1923,7600,Sherwood,AR,72120
1267,"3921 E Kiehl Ave, Sherwood, AR 72120 USA",34.83252,-92.1892,3921,Sherwood,AR,72120
741,"2307 Highway 63 N, Stuttgart, AR 72160 USA",34.53157,-91.5583,2307,Stuttgart,AR,72160
1209,"512 W 22nd St, Stuttgart, AR 72160 USA",34.47973,-91.5583,512,Stuttgart,AR,72160
145,"1408 Hwy 67, Tuckerman, AR 72473 USA",35.71405,-91.2102,1408,Tuckerman,AR,72473
1515,"229 W Central St, Warren, AR 71671 USA",33.60954,-92.0711,229,Warren,AR,71671
1907,"401 N Martin St, Warren, AR 71671 USA",33.61776,-92.0723,401,Warren,AR,71671
343,"233 N Sebastian, West Helena, AR 72390 USA",34.54729,-90.6458,233,West Helena,AR,72390
1601,"208 S Service Rd, West Memphis, AR 72301 USA",35.16847,-90.1867,208,West Memphis,AR,72301
1782,"909 N Missouri St, West Memphis, AR 72301 USA",35.15684,-90.1843,909,West Memphis,AR,72301
1427,"27607 US 65 Hwy, Western Grove, AR 72685 USA",36.09433,-92.9548,27607,Western Grove,AR,72685
1995,"8605 Dollarway Rd, White Hall, AR 71602 USA",34.27774,-92.0919,8605,White Hall,AR,71602
425,"1610 Falls Blvd N, Wynne, AR 72396 USA",35.23768,-90.7831,1610,Wynne,AR,72396
542,"1100 N San Antonio Ave, Douglas, AZ 85607 USA",31.34627,-109.533,1100,Douglas,AZ,85607
1710,"101 E 11th St, Douglas, AZ 85607 USA",31.34531,-109.558,101,Douglas,AZ,85607
1664,"4275 US Highway 68, Golden Valley, AZ 86413 USA",35.22196,-114.216,4275,Golden Valley,AZ,86413
121,"5020 Whelan Dr, Lake Havasu City, AZ 86404 USA",34.55521,-114.35,5020,Lake Havasu City,AZ,86404
406,"8920 S Highway 95, Mohave Valley, AZ 86440 USA",35.00774,-114.598,8920,Mohave Valley,AZ,86440
1364,"453 E White Mountain Blvd, Pinetop, AZ 85935 USA",34.13395,-109.95,453,Pinetop,AZ,85935
149,"2500 W Magnolia Blvd, Burbank, CA 91505 USA",34.17189,-118.335,2500,Burbank,CA,91505
1124,"2398 Jamacha Rd # A, El Cajon, CA 92019 USA",32.74721,-116.929,2398,El Cajon,CA,92019
1125,"2398 Jamacha Rd, El Cajon, CA 92019 USA",32.74721,-116.929,2398,El Cajon,CA,92019
1399,"16427 Sierra Lakes Pkwy, Fontana, CA 92336 USA",34.13688,-117.447,16427,Fontana,CA,92336
925,"4254 Old Sonoma Rd, Napa, CA 94559 USA",38.27188,-122.328,4254,Napa,CA,94559
1663,"1645 W Cameron Ave, Visalia, CA 93277 USA",36.29455,-119.309,1645,Visalia,CA,93277
621,"412 Denver Ave, Alamosa, CO 81101 USA",37.46836,-105.862,412,Alamosa,CO,81101
1486,"20811 E Smoky Hill Rd, Aurora, CO 80015 USA",39.60856,-104.747,20811,Aurora,CO,80015
1867,"130 Harrison St, Buena Vista, CO 81211 USA",38.85093,-106.14,130,Buena Vista,CO,81211
1104,"545 Bald Eagle Way, Carbondale, CO 81623 USA",39.43545,-107.258,545,Carbondale,CO,81623
1485,"20811 E Smoky Hill Rd, Centennial, CO 80015 USA",39.60856,-104.747,20811,Centennial,CO,80015
1514,"921 E Main St, Florence, CO 81226 USA",38.3878,-105.102,921,Florence,CO,81226
1482,"700 4 Ave, Fort Garland, CO 81133 USA",37.42717,-105.432,700,Fort Garland,CO,81133
1533,"130 S Denver Ave, Fort Lupton, CO 80621 USA",40.07954,-104.81,130,Fort Lupton,CO,80621
110,"1597 Cipolla Rd, Fruita, CO 81521 USA",39.16356,-108.758,1597,Fruita,CO,81521
1055,"1589 Cipolla Rd, Fruita, CO 81521 USA",39.16344,-108.759,1589,Fruita,CO,81521
486,"2510 Gilstrap Ct, Glenwood Springs, CO 81601 USA",39.5598,-107.362,2510,Glenwood Springs,CO,81601
759,"14504 E I25 Frontage Rd, Mead, CO 80504 USA",40.21354,-104.979,14504,Mead,CO,80504
834,"1331 Grande Ave, Monte Vista, CO 81144 USA",37.57974,-106.141,1331,Monte Vista,CO,81144
1085,"2351 S Townsend Ave, Montrose, CO 81401 USA",38.46047,-107.865,2351,Montrose,CO,81401
1711,"337 W 1st St, Salida, CO 81201 USA",38.53781,-105.994,337,Salida,CO,81201
1136,"332 Main St, Silt, CO 81652 USA",39.54754,-107.66,332,Silt,CO,81652
1870,"35 E Main St, Silver Cliff, CO 81252 USA",38.13641,-105.457,35,Silver Cliff,CO,81252
1634,"33 Pompey Hollow Rd, Ashford, CT 06278 USA",41.86269,-72.1633,33,Ashford,CT,06278
1608,"465 Providence Rd, Brooklyn, CT 06234 USA",41.79686,-71.9104,465,Brooklyn,CT,06234
1530,"207 S Main St, Torrington, CT 06790 USA",41.79611,-73.12,207,Torrington,CT,06790
628,"1896 Georgia St, Alford, FL 32420 USA",30.70206,-85.3909,1896,Alford,FL,32420
883,"6919 E State Route 70, Bradenton, FL 32403 USA",27.20907,-81.4509,6919,Bradenton,FL,32403
1086,"9326 W C 476, Bushnell, FL 33513 USA",28.6577,-82.1279,9326,Bushnell,FL,33513
545,"2301 W Highway 390, Lynn Haven, FL 32444 USA",30.23321,-85.6281,2301,Lynn Haven,FL,32444
1501,"14140 W Highway 40, Ocala, FL 34481 USA",29.05818,-82.5312,14140,Ocala,FL,34481
315,"4900 Clyde Morris Blvd, Port Orange, FL 32129 USA",29.11798,-81.0239,4900,Port Orange,FL,32129
1898,"5364 Stadium Pkwy, Rockledge, FL 32955 USA",28.2687,-80.7374,5364,Rockledge,FL,32955
723,"4905 Commercial Way, Spring Hill, FL 34606 USA",28.50152,-82.591,4905,Spring Hill,FL,34606
1979,"1 Executive Park Dr NE, Atlanta, GA 30329 USA",33.83,-84.3332,1,Atlanta,GA,30329
90,"695 Furys Ferry Rd, Augusta, GA 30907 USA",33.55052,-82.0895,695,Augusta,GA,30907
787,"403 S Belair Rd, Augusta, GA 30907 USA",33.48585,-82.1342,403,Augusta,GA,30907
773,"956 W Parker St, Baxley, GA 31513 USA",31.7841,-82.3636,956,Baxley,GA,31513
1675,"5391 County Farm Rd, Blackshear, GA 31516 USA",31.3214,-82.2193,5391,Blackshear,GA,31516
1569,"342 Blue Ridge St, Blairsville, GA 30512 USA",34.8698,-83.9629,342,Blairsville,GA,30512
719,"12178 Columbia St, Blakely, GA 39823 USA",31.37492,-84.9389,12178,Blakely,GA,39823
750,"164 Altama Connector, Brunswick, GA 31525 USA",31.21331,-81.4878,164,Brunswick,GA,31525
946,"165 Juniper Cir, Brunswick, GA 31520 USA",31.21611,-81.4946,165,Brunswick,GA,31520
1123,"125 Altama Connector, Brunswick, GA 31525 USA",31.21576,-81.4835,125,Brunswick,GA,31525
1382,"114 Golden Isles Plz, Brunswick, GA 31520 USA",31.2131,-81.4916,114,Brunswick,GA,31520
1953,"2360 Perry Lane Rd, Brunswick, GA 31525 USA",31.24605,-81.5079,2360,Brunswick,GA,31525
240,"114 S Broad St, Buena Vista, GA 31803 USA",32.3164,-84.518,114,Buena Vista,GA,31803
235,"340 8th Ave NE, Cairo, GA 39828 USA",30.88597,-84.2048,340,Cairo,GA,39828
1328,"399 US Highway 84 E, Cairo, GA 39828 USA",30.88479,-84.2029,399,Cairo,GA,39828
274,"3237 Sixes Rd, Canton, GA 30114 USA",34.17159,-84.5477,3237,Canton,GA,30114
838,"3120 Highway 52A, Chatsworth, GA 30705 USA",34.76167,-84.8225,3120,Chatsworth,GA,30705
1440,"209 Lee Ave, Chickamauga, GA 30707 USA",34.87319,-85.2918,209,Chickamauga,GA,30707
1197,"3600 Naturally Fresh Blvd, College Park, GA 30349 USA",33.61177,-84.5045,3600,College Park,GA,30349
1590,"225 S Main St, Collins, GA 30421 USA",32.17953,-82.1096,225,Collins,GA,30421
411,"511 N Glenwood Ave, Dalton, GA 30721 USA",34.77881,-84.9653,511,Dalton,GA,30721
809,"2200 Cleveland Hwy, Dalton, GA 30721 USA",34.81311,-84.9469,2200,Dalton,GA,30721
1537,"3608 Chatsworth Rd SE, Dalton, GA 30721 USA",34.7808,-84.8889,3608,Dalton,GA,30721
617,"418 S Main St, Dawson, GA 39842 USA",31.76945,-84.4464,418,Dawson,GA,39842
238,"2151 Clary Connector, Eastanollee, GA 30538 USA",34.54045,-83.2698,2151,Eastanollee,GA,30538
922,"18 Madison Way, Ellerslie, GA 31807 USA",32.63775,-84.7897,18,Ellerslie,GA,31807
598,"520 N Belair Rd, Evans, GA 30809 USA",33.53649,-82.132,520,Evans,GA,30809
845,"4689 Hardy McManus Rd, Evans, GA 30809 USA",33.57881,-82.1492,4689,Evans,GA,30809
1258,"5131 Washington Rd, Evans, GA 30809 USA",33.57252,-82.1948,5131,Evans,GA,30809
1451,"545 Mullins Colony Dr, Evans, GA 30809 USA",33.5278,-82.1214,545,Evans,GA,30809
1516,"4389 Washington Rd, Evans, GA 30809 USA",33.54305,-82.137,4389,Evans,GA,30809
1674,"526 N Belair Rd, Evans, GA 30809 USA",33.53755,-82.131,526,Evans,GA,30809
1108,"831 Battlefield Pkwy, Fort Oglethorpe, GA 30742 USA",34.95423,-85.2508,831,Fort Oglethorpe,GA,30742
131,"100 N Camellia Blvd, Fort Valley, GA 31030 USA",32.55423,-83.8851,100,Fort Valley,GA,31030
91,"4030 Gateway Blvd, Grovetown, GA 30813 USA",33.47941,-82.1958,4030,Grovetown,GA,30813
622,"440 Lewiston Rd, Grovetown, GA 30813 USA",33.48741,-82.199,440,Grovetown,GA,30813
1911,"10 Cochran Hwy, Hawkinsville, GA 31036 USA",32.28272,-83.451,10,Hawkinsville,GA,31036
1436,"116 S Tallahassee St, Hazlehurst, GA 31539 USA",31.8606,-82.6051,116,Hazlehurst,GA,31539
888,"811 E 3rd St, Jackson, GA 30233 USA",33.29484,-83.9568,811,Jackson,GA,30233
1244,"561 E 3rd St, Jackson, GA 30233 USA",33.29478,-83.9606,561,Jackson,GA,30233
1655,"760 E King Ave, Kingsland, GA 31548 USA",30.80059,-81.6819,760,Kingsland,GA,31548
1129,"112 E Cypress St, Ludowici, GA 31316 USA",31.71374,-81.7436,112,Ludowici,GA,31316
760,"6190 Highway 114, Lyerly, GA 30730 USA",34.40438,-85.4071,6190,Lyerly,GA,30730
89,"695 Furys Ferry Rd, Martinez, GA 30907 USA",33.55052,-82.0895,695,Martinez,GA,30907
788,"403 S Belair Rd, Martinez, GA 30907 USA",33.48585,-82.1342,403,Martinez,GA,30907
641,"201 King Mill Ct, McDonough, GA 30253 USA",33.3999,-84.1464,201,McDonough,GA,30253
362,"125 Butler St, Midway, GA 31320 USA",31.8014,-81.4182,125,Midway,GA,31320
285,"1884 N Columbia St, Milledgeville, GA 31061 USA",33.10484,-83.2517,1884,Milledgeville,GA,31061
396,"103 Log Cabin Rd NE, Milledgeville, GA 31061 USA",33.14892,-83.2726,103,Milledgeville,GA,31061
648,"516 E Winthrope Ave, Millen, GA 30442 USA",32.80349,-81.941,516,Millen,GA,30442
325,"209 E Greene St, Monticello, GA 31064 USA",33.30446,-83.6819,209,Monticello,GA,31064
1224,"509 E McPherson Ave, Nashville, GA 31639 USA",31.20428,-83.2437,509,Nashville,GA,31639
981,"200 N Liberty St, Nicholls, GA 31554 USA",31.51707,-82.6345,200,Nicholls,GA,31554
1983,"108 W Harris St, Pine Mountain, GA 31822 USA",32.86516,-84.8551,108,Pine Mountain,GA,31822
1036,"1304 W Screven St, Quitman, GA 31643 USA",30.78502,-83.5717,1304,Quitman,GA,31643
562,"4257 Cloud Springs Rd, Ringgold, GA 30736 USA",34.96566,-85.1942,4257,Ringgold,GA,30736
1079,"1464 Chattahoochee Dr, Rockmart, GA 30153 USA",34.00883,-85.0334,1464,Rockmart,GA,30153
1483,"2602 Chattanooga Rd, Rocky Face, GA 30740 USA",34.80444,-85.0248,2602,Rocky Face,GA,30740
329,"2203 Demere Rd, Saint Simons Island, GA 31522 USA",31.15958,-81.3897,2203,Saint Simons Island,GA,31522
631,"717 Piedmont Loop, Statesboro, GA 30458 USA",32.43253,-81.7594,717,Statesboro,GA,30458
1908,"556 Northside Dr E, Statesboro, GA 30458 USA",32.44,-81.7637,556,Statesboro,GA,30458
335,"1910 Jodeco Rd, Stockbridge, GA 30281 USA",33.48338,-84.2301,1910,Stockbridge,GA,30281
1385,"10805 Commerce St, Summerville, GA 30747 USA",34.49007,-85.3417,10805,Summerville,GA,30747
1409,"51 Eaves Dr, Temple, GA 30179 USA",33.82578,-85.0427,51,Temple,GA,30179
303,"1749 Highway 19 N, Thomaston, GA 30286 USA",32.94274,-84.335,1749,Thomaston,GA,30286
1111,"2826 E Pinetree Blvd, Thomasville, GA 31792 USA",30.85364,-83.9506,2826,Thomasville,GA,31792
1696,"15096 US Highway 19 S, Thomasville, GA 31757 USA",30.85561,-83.9454,15096,Thomasville,GA,31757
1916,"2004 Smith Ave, Thomasville, GA 31792 USA",30.83448,-83.949,2004,Thomasville,GA,31792
219,"1868 Washington Rd, Thomson, GA 30824 USA",33.50702,-82.5023,1868,Thomson,GA,30824
1401,"101 Hill St, Thomson, GA 30824 USA",33.46272,-82.5006,101,Thomson,GA,30824
506,"614 S 1st St Apt 618, Uvalda, GA 30473 USA",32.03574,-82.5082,614,Uvalda,GA,30473
18,"15140 Post Rd N, Waynesville, GA 31566 USA",31.23295,-81.7609,15140,Waynesville,GA,31566
414,"268 N Broad St, Winder, GA 30680 USA",34.00275,-83.708,268,Winder,GA,30680
876,"3051 Parkbrooke Cir, Woodstock, GA 30189 USA",34.11037,-84.5565,3051,Woodstock,GA,30189
1173,"4355 Towne Lake Pkwy, Woodstock, GA 30189 USA",34.12792,-84.5711,4355,Woodstock,GA,30189
769,"205 N Main St, Wrens, GA 30833 USA",33.2099,-82.3877,205,Wrens,GA,30833
1143,"66-031 Kamehameha Hwy, Haleiwa, HI 96712 USA",21.59249,-158.104,66-031,Haleiwa,HI,96712
367,"444 Kele St, Kahului, HI 96732 USA",20.88653,-156.453,444,Kahului,HI,96732
516,"153 Oneawa St, Kailua, HI 96734 USA",21.39665,-157.746,153,Kailua,HI,96734
333,"986 Kipuni Way, Kapaa, HI 96746 USA",22.06605,-159.32,986,Kapaa,HI,96746
504,"3011 Aukele St, Lihue, HI 96766 USA",21.96663,-159.357,3011,Lihue,HI,96766
860,"87-890 Farrington Hwy, Waianae, HI 96792 USA",21.40562,-158.177,87-890,Waianae,HI,96792
940,"109 5th St, Adair, IA 50002 USA",41.49575,-94.644,109,Adair,IA,50002
78,"3317 Agency St, Burlington, IA 52601 USA",40.81445,-91.1436,3317,Burlington,IA,52601
604,"3435 Agency St, Burlington, IA 52601 USA",40.81203,-91.1489,3435,Burlington,IA,52601
261,"219 Brandilynn Blvd, Cedar Falls, IA 50613 USA",42.4867,-92.4437,219,Cedar Falls,IA,50613
779,"2921 Center St, Cedar Falls, IA 50613 USA",42.56254,-92.4553,2921,Cedar Falls,IA,50613
30,"1212 N 24th St, Clear Lake, IA 50428 USA",43.14654,-93.3589,1212,Clear Lake,IA,50428
1033,"2835 NW Arterial, Dubuque, IA 52002 USA",42.52469,-90.7385,2835,Dubuque,IA,52002
1835,"1700 Central Ave, Estherville, IA 51334 USA",43.40166,-94.8214,1700,Estherville,IA,51334
87,"105 Williams Blvd, Fairfax, IA 52228 USA",41.92538,-91.7844,105,Fairfax,IA,52228
371,"1601 W Burlington Ave, Fairfield, IA 52556 USA",41.00678,-91.9818,1601,Fairfield,IA,52556
1682,"1431 Avenue H, Fort Madison, IA 52627 USA",40.63049,-91.3242,1431,Fort Madison,IA,52627
637,"245 Iowa Ave, Iowa City, IA 52240 USA",41.6611,-91.5321,245,Iowa City,IA,52240
1502,"731 S Riverside Dr, Iowa City, IA 52246 USA",41.6506,-91.5406,731,Iowa City,IA,52246
125,"5440 NW 86th St, Johnston, IA 50131 USA",41.65935,-93.7365,5440,Johnston,IA,50131
999,"942 9th St, Lake View, IA 51450 USA",42.31194,-95.0451,942,Lake View,IA,51450
1303,"3101 S Center St, Marshalltown, IA 50158 USA",42.0083,-92.9133,3101,Marshalltown,IA,50158
780,"719 N Grand Ave, Mount Pleasant, IA 52641 USA",40.97574,-91.5388,719,Mount Pleasant,IA,52641
1505,"1429 Park Ave, Muscatine, IA 52761 USA",41.44161,-91.0299,1429,Muscatine,IA,52761
434,"40 Amherst Blvd, Nashua, IA 50658 USA",42.95538,-92.5477,40,Nashua,IA,50658
1362,"1480 Main St, New Hartford, IA 50660 USA",39.97791,-86.1556,1480,New Hartford,IA,50660
355,"327 W 4th St, Ottumwa, IA 52501 USA",41.02204,-92.4132,327,Ottumwa,IA,52501
1854,"11911 Hickman Rd, Urbandale, IA 50323 USA",41.61724,-93.7818,11911,Urbandale,IA,50323
590,"2535 Crossroads Blvd, Waterloo, IA 50702 USA",42.45829,-92.3237,2535,Waterloo,IA,50702
332,"950 SE Brick Dr, Waukee, IA 50263 USA",41.60312,-93.8507,950,Waukee,IA,50263
475,"400 Prairie Bluff Dr, Waukee, IA 50263 USA",41.56518,-93.8802,400,Waukee,IA,50263
1251,"620 S Downey St, West Branch, IA 52358 USA",41.66162,-91.3474,620,West Branch,IA,52358
1861,"101 Council St, West Branch, IA 52358 USA",41.65251,-91.3439,101,West Branch,IA,52358
1703,"960 W Bridge St, Blackfoot, ID 83221 USA",43.1926,-112.357,960,Blackfoot,ID,83221
678,"4752 Yellowstone Ave, Chubbuck, ID 83202 USA",42.92002,-112.466,4752,Chubbuck,ID,83202
651,"330 W Idaho Ave, Homedale, ID 83628 USA",43.61799,-116.94,330,Homedale,ID,83628
1574,"1541 Main St N, Kimberly, ID 83341 USA",42.54171,-114.365,1541,Kimberly,ID,83341
446,"15 W Main St, Marsing, ID 83639 USA",43.54657,-116.804,15,Marsing,ID,83639
419,"120 W Main St, Albion, IL 62806 USA",38.3774,-88.0608,120,Albion,IL,62806
512,"215 E Vienna St, Anna, IL 62906 USA",37.459,-89.2399,215,Anna,IL,62906
1442,"601 W Knauer St, Ava, IL 62907 USA",37.892,-89.5023,601,Ava,IL,62907
1255,"1052 Belvidere Rd, Belvidere, IL 61008 USA",42.24893,-88.8213,1052,Belvidere,IL,61008
1035,"950 E Main St, Carbondale, IL 62901 USA",37.72896,-89.2019,950,Carbondale,IL,62901
93,"12825 Catlin Tilton Rd, Catlin, IL 61817 USA",40.07224,-87.6979,12825,Catlin,IL,61817
1054,"501 W Blue Ave, Creal Springs, IL 62922 USA",37.61899,-88.8418,501,Creal Springs,IL,62922
248,"3689 N Vermilion St, Danville, IL 61832 USA",40.18908,-87.6275,3689,Danville,IL,61832
1314,"16019 N US Highway 51, De Soto, IL 62924 USA",37.82194,-89.2293,16019,De Soto,IL,62924
836,"208 River Rd, East Peoria, IL 61611 USA",40.68169,-89.5867,208,East Peoria,IL,61611
1784,"800 Riverside Dr, East Peoria, IL 61611 USA",40.68254,-89.5823,800,East Peoria,IL,61611
738,"2419 State St, East Saint Louis, IL 62205 USA",38.61692,-90.1275,2419,East Saint Louis,IL,62205
1877,"11N250 Gale St, Elgin, IL 60123 USA",42.03245,-88.3342,11N250,Elgin,IL,60123
469,"10785 Lincoln Trl, Fairview Heights, IL 62208 USA",38.59476,-89.9914,10785,Fairview Heights,IL,62208
1353,"5811 N Illinois St, Fairview Heights, IL 62208 USA",38.5852,-89.9854,5811,Fairview Heights,IL,62208
1718,"1110 E Main St, Galesburg, IL 61401 USA",40.94704,-90.3531,1110,Galesburg,IL,61401
1874,"1281 Engineer Rd, Granite City, IL 62040 USA",38.75082,-90.0713,1281,Granite City,IL,62040
1417,"610 S Commercial St, Harrisburg, IL 62946 USA",37.7434,-88.5251,610,Harrisburg,IL,62946
778,"1037 University Ave, Henry, IL 61537 USA",41.11733,-89.3704,1037,Henry,IL,61537
1424,"8096 Forest Hills Rd, Loves Park, IL 61111 USA",42.34076,-89.0182,8096,Loves Park,IL,61111
468,"10114 N 2nd St, Machesney Park, IL 61115 USA",42.3676,-89.0359,10114,Machesney Park,IL,61115
1072,"602 S Prairieview Rd, Mahomet, IL 61853 USA",40.19121,-88.3646,602,Mahomet,IL,61853
347,"320 S Adams St, Manito, IL 61546 USA",40.42296,-89.7838,320,Manito,IL,61546
138,"1118 N Carbon St, Marion, IL 62959 USA",37.73944,-88.9485,1118,Marion,IL,62959
196,"2712 W Deyoung St, Marion, IL 62959 USA",37.74346,-88.9683,2712,Marion,IL,62959
383,"2900 W Deyoung St, Marion, IL 62959 USA",37.7454,-88.9753,2900,Marion,IL,62959
1742,"3107 Civic Circle Blvd, Marion, IL 62959 USA",37.75075,-88.9788,3107,Marion,IL,62959
1023,"561 S Wood St, Maroa, IL 61756 USA",40.02964,-88.9579,561,Maroa,IL,61756
626,"2727 Maryville Rd, Maryville, IL 62062 USA",38.71103,-89.9572,2727,Maryville,IL,62062
970,"6607 State Route 162, Maryville, IL 62062 USA",38.73871,-89.956,6607,Maryville,IL,62062
230,"1000 Charleston Ave, Mattoon, IL 61938 USA",39.48182,-88.3661,1000,Mattoon,IL,61938
708,"2509 Hurst Dr, Mattoon, IL 61938 USA",39.48177,-88.3059,2509,Mattoon,IL,61938
1738,"616 W 10th St, Metropolis, IL 62960 USA",37.15913,-88.7354,616,Metropolis,IL,62960
1959,"895 4th St W, Milan, IL 61264 USA",41.44402,-90.5718,895,Milan,IL,61264
1196,"675 N Chestnut St, Minonk, IL 61760 USA",40.90411,-89.0335,675,Minonk,IL,61760
669,"2250 41st St, Moline, IL 61265 USA",41.49061,-90.479,2250,Moline,IL,61265
1967,"214 W 3rd St, Mount Carmel, IL 62863 USA",38.40761,-87.7628,214,Mount Carmel,IL,62863
587,"103 Potomac Blvd, Mount Vernon, IL 62864 USA",38.31381,-88.9571,103,Mount Vernon,IL,62864
1923,"900 N State Route 121, Mt Zion, IL 62549 USA",39.79061,-88.8704,900,Mt Zion,IL,62549
947,"309 W Ogden Ave, Naperville, IL 60563 USA",41.78578,-88.1516,309,Naperville,IL,60563
1999,"1124 Edgewater Dr, North Pekin, IL 61554 USA",40.60248,-89.6295,1124,North Pekin,IL,61554
880,"15840 Cicero Ave, Oak Forest, IL 60452 USA",41.60463,-87.7366,15840,Oak Forest,IL,60452
977,"910 E Stevenson Rd, Ottawa, IL 61350 USA",41.38055,-88.819,910,Ottawa,IL,61350
1087,"102 W Etna Rd, Ottawa, IL 61350 USA",41.37334,-88.8368,102,Ottawa,IL,61350
1041,"910 Court St, Pekin, IL 61554 USA",40.56551,-89.6383,910,Pekin,IL,61554
1786,"1001 Court St, Pekin, IL 61554 USA",40.56721,-89.637,1001,Pekin,IL,61554
1626,"906 S Bosch Rd, Peoria, IL 61607 USA",40.67809,-89.677,906,Peoria,IL,61607
819,"1530 May Rd, Peru, IL 61354 USA",41.36773,-89.1264,1530,Peru,IL,61354
1968,"1508 W Front St, Roanoke, IL 61561 USA",40.79404,-89.2202,1508,Roanoke,IL,61561
508,"1414 E Main St, Robinson, IL 62454 USA",39.00651,-87.7217,1414,Robinson,IL,62454
70,"2904 11th St, Rock Island, IL 61201 USA",41.48145,-90.5834,2904,Rock Island,IL,61201
352,"1600 38th St, Rock Island, IL 61201 USA",41.49444,-90.548,1600,Rock Island,IL,61201
722,"2206 Barnes Blvd, Rockford, IL 61112 USA",42.243,-88.9767,2206,Rockford,IL,61112
1918,"1840 W Main St, Salem, IL 62881 USA",38.62382,-88.9806,1840,Salem,IL,62881
1557,"107 S 4th St, Savanna, IL 61074 USA",42.08972,-90.1515,107,Savanna,IL,61074
1972,"900 E Higgins Rd, Schaumburg, IL 60173 USA",42.05018,-88.1015,900,Schaumburg,IL,60173
697,"2500 S Koke Mill Rd, Springfield, IL 62711 USA",39.77044,-89.7147,2500,Springfield,IL,62711
866,"3141 Mercantile Dr, Springfield, IL 62711 USA",39.75465,-89.7273,3141,Springfield,IL,62711
1747,"3820 Wabash Ave, Springfield, IL 62711 USA",39.75604,-89.726,3820,Springfield,IL,62711
1593,"4580 N Illinois St, Swansea, IL 62226 USA",38.56991,-89.9843,4580,Swansea,IL,62226
1594,"2624 N Illinois St, Swansea, IL 62226 USA",38.54221,-89.9832,2624,Swansea,IL,62226
1221,"260 N Union St, Toulon, IL 61483 USA",41.09515,-89.8589,260,Toulon,IL,61483
934,"640 Edwardsville Rd, Troy, IL 62294 USA",38.73166,-89.9027,640,Troy,IL,62294
967,"1112 E Southline Rd, Tuscola, IL 61953 USA",39.79216,-88.2677,1112,Tuscola,IL,61953
1672,"311 S Springfield St, Virden, IL 62690 USA",39.49773,-89.7691,311,Virden,IL,62690
1667,"3405 State Highway 104, Waverly, IL 62692 USA",39.59019,-89.9638,3405,Waverly,IL,62692
1336,"11105 W Roosevelt Rd, Westchester, IL 60154 USA",41.865,-87.8042,11105,Westchester,IL,60154
1339,"415 E Pat Rady Way, Bainbridge, IN 46105 USA",39.76227,-86.8067,415,Bainbridge,IN,46105
607,"254 W Water St, Borden, IN 47106 USA",38.46802,-85.9511,254,Borden,IN,47106
1518,"2001 E National Ave, Brazil, IN 47834 USA",39.52889,-87.1024,2001,Brazil,IN,47834
1455,"19224 County Road 8, Bristol, IN 46507 USA",41.72255,-85.8347,19224,Bristol,IN,46507
1228,"100 S Prairie St, Brookston, IN 47923 USA",40.60423,-86.8681,100,Brookston,IN,47923
740,"610 W Northfield Dr, Brownsburg, IN 46112 USA",39.85932,-86.4081,610,Brownsburg,IN,46112
260,"1798 E State Road 163, Clinton, IN 47842 USA",39.65704,-87.4292,1798,Clinton,IN,47842
1859,"67 Johnson Blvd, Columbus, IN 47201 USA",39.19914,-85.9509,67,Columbus,IN,47201
1929,"200 Pacer Dr NW, Corydon, IN 47112 USA",38.23767,-86.1314,200,Corydon,IN,47112
1489,"1631 S US Highway 231, Crawfordsville, IN 47933 USA",40.01645,-86.9043,1631,Crawfordsville,IN,47933
7,"609 N 13th St, Decatur, IN 46733 USA",40.83456,-84.9382,609,Decatur,IN,46733
1394,"639 N 13th St, Decatur, IN 46733 USA",40.83541,-84.9382,639,Decatur,IN,46733
872,"1050 Randolph St, Elkhart, IN 46514 USA",41.69786,-85.9877,1050,Elkhart,IN,46514
846,"850 Lafollette Sta N, Floyds Knobs, IN 47119 USA",38.3161,-85.8974,850,Floyds Knobs,IN,47119
117,"2101 E Wabash St, Frankfort, IN 46041 USA",40.27868,-86.4866,2101,Frankfort,IN,46041
891,"11 N Morton St, Franklin, IN 46131 USA",39.48053,-86.0635,11,Franklin,IN,46131
407,"1901 E State Road 240, Greencastle, IN 46135 USA",39.64758,-86.814,1901,Greencastle,IN,46135
1745,"1012 Mill Pond Dr, Greencastle, IN 46135 USA",39.64103,-86.8382,1012,Greencastle,IN,46135
1206,"204 S Michigan Ave, Greensburg, IN 47240 USA",39.33522,-85.4794,204,Greensburg,IN,47240
1531,"790 Greensburg Commons Shopping Ctr, Greensburg, IN 47240 USA",39.35973,-85.4751,790,Greensburg,IN,47240
126,"1906 N Walnut St, Hartford City, IN 47348 USA",40.46738,-85.3696,1906,Hartford City,IN,47348
605,"4625 S State Road 162, Huntingburg, IN 47542 USA",38.30931,-86.8721,4625,Huntingburg,IN,47542
579,"1601 W Lincoln Rd, Kokomo, IN 46902 USA",40.45426,-86.1538,1601,Kokomo,IN,46902
1724,"2360 E North St, Kokomo, IN 46901 USA",40.49938,-86.0963,2360,Kokomo,IN,46901
1137,"525 E Lincolnway, La Porte, IN 46350 USA",41.61772,-86.7085,525,La Porte,IN,46350
372,"8641 N 300 W, Lake Village, IN 46349 USA",41.12498,-87.4497,8641,Lake Village,IN,46349
1662,"1174 W Eads Pkwy, Lawrenceburg, IN 47025 USA",39.07938,-84.8856,1174,Lawrenceburg,IN,47025
1365,"3322 E Market St, Logansport, IN 46947 USA",40.7576,-86.323,3322,Logansport,IN,46947
1478,"500 W Clinton St, Logansport, IN 46947 USA",40.73682,-86.3827,500,Logansport,IN,46947
658,"11280 W US Highway 36, Losantville, IN 47354 USA",40.02542,-85.1881,11280,Losantville,IN,47354
374,"602 N Baldwin Ave, Marion, IN 46952 USA",40.56563,-85.6756,602,Marion,IN,46952
582,"1400 N Baldwin Ave, Marion, IN 46952 USA",40.57778,-85.6697,1400,Marion,IN,46952
1551,"2204 W 9th St, Marion, IN 46953 USA",40.55286,-85.6934,2204,Marion,IN,46953
1644,"403 S US Highway 421, Medaryville, IN 47957 USA",41.07789,-86.8927,403,Medaryville,IN,47957
177,"11356 County Road 2, Middlebury, IN 46540 USA",41.7545,-85.6865,11356,Middlebury,IN,46540
188,"11550 Harter Dr, Middlebury, IN 46540 USA",41.74351,-85.6902,11550,Middlebury,IN,46540
68,"1107 W Broadway St, Monticello, IN 47960 USA",40.74455,-86.7818,1107,Monticello,IN,47960
1330,"831 N Main St, Monticello, IN 47960 USA",40.75488,-86.7633,831,Monticello,IN,47960
360,"6500 S State Road 67, Muncie, IN 47302 USA",39.99725,-85.7376,6500,Muncie,IN,47302
424,"2119 State St, New Albany, IN 47150 USA",38.30351,-85.8389,2119,New Albany,IN,47150
808,"1201 Vincennes St, New Albany, IN 47150 USA",38.3001,-85.8143,1201,New Albany,IN,47150
821,"3706 Charlestown Rd, New Albany, IN 47150 USA",38.33523,-85.7981,3706,New Albany,IN,47150
1812,"174 W Jackson St, Parker City, IN 47368 USA",40.19325,-85.2056,174,Parker City,IN,47368
1005,"5 Arnolt Dr, Pierceton, IN 46562 USA",41.20385,-85.7139,5,Pierceton,IN,46562
1007,"1827 N Michigan St, Plymouth, IN 46563 USA",41.3568,-86.3122,1827,Plymouth,IN,46563
1219,"1502 N Meridian St, Portland, IN 47371 USA",40.44694,-84.9785,1502,Portland,IN,47371
334,"610 N 5th St, Rockport, IN 47635 USA",37.89059,-87.05,610,Rockport,IN,47635
956,"821 N Lincoln Rd, Rockville, IN 47872 USA",39.77137,-87.2355,821,Rockville,IN,47872
1540,"11020 US Highway 231 S, Romney, IN 47981 USA",40.25787,-86.9045,11020,Romney,IN,47981
491,"132 S Main St, Rushville, IN 46173 USA",39.60659,-85.4446,132,Rushville,IN,46173
1373,"4971 E State Road 56, Salem, IN 47167 USA",38.65251,-85.9899,4971,Salem,IN,47167
26,"48 North Garner St, Scottsburg, IN 47170 USA",38.68561,-85.7702,48,Scottsburg,IN,47170
1140,"1532 W McClain Ave, Scottsburg, IN 47170 USA",38.68538,-85.793,1532,Scottsburg,IN,47170
1449,"7409 Highway 311, Sellersburg, IN 47172 USA",38.37874,-85.7697,7409,Sellersburg,IN,47172
1737,"4190 State Road 54 W, Springville, IN 47462 USA",38.93191,-86.6198,4190,Springville,IN,47462
654,"516 S Section St, Sullivan, IN 47882 USA",39.08741,-87.4104,516,Sullivan,IN,47882
53,"3407 S US Highway 41, Terre Haute, IN 47802 USA",39.42645,-87.4171,3407,Terre Haute,IN,47802
463,"1831 S 3rd St, Terre Haute, IN 47802 USA",39.44636,-87.4143,1831,Terre Haute,IN,47802
955,"5501 S US Highway 41, Terre Haute, IN 47802 USA",39.40031,-87.4033,5501,Terre Haute,IN,47802
1464,"1400 Poplar St, Terre Haute, IN 47807 USA",39.46323,-87.3947,1400,Terre Haute,IN,47807
1649,"2433 S 3rd St, Terre Haute, IN 47802 USA",39.4403,-87.4143,2433,Terre Haute,IN,47802
1565,"110 E Jefferson St, Tipton, IN 46072 USA",40.28245,-86.041,110,Tipton,IN,46072
1957,"215 E Jefferson St, Tipton, IN 46072 USA",40.28208,-86.0389,215,Tipton,IN,46072
1944,"1575 Hart St, Vincennes, IN 47591 USA",38.67016,-87.5168,1575,Vincennes,IN,47591
197,"917 N Cass St, Wabash, IN 46992 USA",40.81112,-85.8337,917,Wabash,IN,46992
847,"204 Stitt St, Wabash, IN 46992 USA",40.80418,-85.8279,204,Wabash,IN,46992
991,"835 N Cass St, Wabash, IN 46992 USA",40.80888,-85.8312,835,Wabash,IN,46992
1088,"500 Manchester Ave, Wabash, IN 46992 USA",40.81076,-85.8146,500,Wabash,IN,46992
115,"3100 E Center Street Ext, Warsaw, IN 46582 USA",41.24007,-85.8151,3100,Warsaw,IN,46582
1881,"3600 Commerce Dr, Warsaw, IN 46580 USA",41.23098,-85.8035,3600,Warsaw,IN,46580
1064,"930 E Greenville Pike, Winchester, IN 47394 USA",40.16548,-84.9653,930,Winchester,IN,47394
1084,"803 E Washington St, Winchester, IN 47394 USA",40.17242,-84.965,803,Winchester,IN,47394
568,"990 E State Road 64, Winslow, IN 47598 USA",38.33966,-87.2593,990,Winslow,IN,47598
497,"1420 Washington St, Auburn, KS 66402 USA",38.91306,-95.8175,1420,Auburn,KS,66402
1093,"1218 28th St, Belleville, KS 66935 USA",39.81186,-97.6308,1218,Belleville,KS,66935
620,"212 W 5th St, Blue Rapids, KS 66411 USA",39.68261,-96.6625,212,Blue Rapids,KS,66411
50,"1625 S Santa Fe Ave, Chanute, KS 66720 USA",37.66387,-95.453,1625,Chanute,KS,66720
180,"18405 US Highway 50, Cimarron, KS 67835 USA",37.80573,-100.334,18405,Cimarron,KS,67835
671,"13 S Walnut St, Cottonwood Falls, KS 66845 USA",38.36927,-96.5384,13,Cottonwood Falls,KS,66845
761,"805 W Wyatt Earp Blvd, Dodge City, KS 67801 USA",37.75297,-100.025,805,Dodge City,KS,67801
1384,"104 S Elm St, Douglass, KS 67039 USA",37.51922,-97.0076,104,Douglass,KS,67039
1067,"302 Roseport Rd, Elwood, KS 66024 USA",39.74953,-94.873,302,Elwood,KS,66024
553,"1126 E 12th Ave, Emporia, KS 66801 USA",38.41262,-96.1648,1126,Emporia,KS,66801
1166,"1502 Industrial Rd, Emporia, KS 66801 USA",38.41644,-96.2164,1502,Emporia,KS,66801
1024,"618 W State St, Erie, KS 66733 USA",37.57296,-95.2507,618,Erie,KS,66733
1378,"2001 S Main St, Fort Scott, KS 66701 USA",37.81591,-94.7048,2001,Fort Scott,KS,66701
1751,"2204 S Main St, Fort Scott, KS 66701 USA",37.81544,-94.7073,2204,Fort Scott,KS,66701
1292,"513 E 7th St, Galena, KS 66739 USA",37.07519,-94.6343,513,Galena,KS,66739
178,"3413 10th St, Great Bend, KS 67530 USA",38.36137,-98.7858,3413,Great Bend,KS,67530
498,"2400 10th St, Great Bend, KS 67530 USA",38.36188,-98.771,2400,Great Bend,KS,67530
1912,"1928 US Highway 40, Hays, KS 67601 USA",38.89711,-99.3146,1928,Hays,KS,67601
1263,"317 S 4th Ave, Hill City, KS 67642 USA",39.3619,-99.8469,317,Hill City,KS,67642
22,"449 E 15th St, Horton, KS 66439 USA",39.667,-95.5215,449,Horton,KS,66439
1030,"1248 State Highway 99, Howard, KS 67349 USA",37.46846,-96.2506,1248,Howard,KS,67349
156,"216 Oak Ave, Hoxie, KS 67740 USA",39.35713,-100.451,216,Hoxie,KS,67740
1768,"1201 N 9th St, Humboldt, KS 66748 USA",37.82155,-95.4361,1201,Humboldt,KS,66748
698,"1300 E 17th Ave, Hutchinson, KS 67501 USA",38.07344,-97.9062,1300,Hutchinson,KS,67501
817,"510 E 30th Ave, Hutchinson, KS 67502 USA",38.08715,-97.921,510,Hutchinson,KS,67502
1539,"220 E Chestnut St, Junction City, KS 66441 USA",39.02231,-96.827,220,Junction City,KS,66441
1475,"311 S Iliff St, Medicine Lodge, KS 67104 USA",37.27724,-98.5874,311,Medicine Lodge,KS,67104
112,"1528 Main St, Parsons, KS 67357 USA",37.34,-95.2586,1528,Parsons,KS,67357
215,"309 E 9th St, Peabody, KS 66866 USA",38.17492,-97.103,309,Peabody,KS,66866
257,"409 W Franklin St, Pomona, KS 66076 USA",38.60902,-95.458,409,Pomona,KS,66076
137,"2351 S 9th St, Salina, KS 67401 USA",38.79935,-97.6118,2351,Salina,KS,67401
1038,"510 S Broadway Blvd, Salina, KS 67401 USA",38.83208,-97.6256,510,Salina,KS,67401
1203,"520 S Broadway Blvd, Salina, KS 67401 USA",38.83138,-97.6256,520,Salina,KS,67401
501,"600 W Main St, Sedan, KS 67361 USA",37.1275,-96.193,600,Sedan,KS,67361
1766,"101 N Bentley St, Syracuse, KS 67878 USA",37.97865,-101.745,101,Syracuse,KS,67878
1338,"217 E 7th St, Washington, KS 66968 USA",39.81298,-97.0474,217,Washington,KS,66968
1650,"10707 W 21st St N, Wichita, KS 67205 USA",37.72265,-97.4664,10707,Wichita,KS,67205
1969,"2000 Liquitex Ln, Winfield, KS 67156 USA",37.23234,-96.9723,2000,Winfield,KS,67156
1154,"600 N Cross St, Albany, KY 42602 USA",36.69602,-85.1349,600,Albany,KY,42602
1891,"5924 US Route 60, Ashland, KY 41102 USA",38.43675,-82.688,5924,Ashland,KY,41102
58,"975 Bloomfield Rd, Bardstown, KY 40004 USA",37.82455,-85.4381,975,Bardstown,KY,40004
1748,"3200 New Shepherdsville Rd, Bardstown, KY 40004 USA",37.85173,-85.5087,3200,Bardstown,KY,40004
837,"23 Moore Blvd, Barlow, KY 42024 USA",37.04801,-89.0492,23,Barlow,KY,42024
319,"17 Highway 11 South, Beattyville, KY 41311 USA",37.56875,-83.7071,17,Beattyville,KY,41311
73,"5075 Old Mill Rd, Brandenburg, KY 40108 USA",37.93298,-86.0564,5075,Brandenburg,KY,40108
548,"6360 Glasgow Rd, Burkesville, KY 42717 USA",36.81951,-85.46,6360,Burkesville,KY,42717
915,"1200 Columbia Rd, Burkesville, KY 42717 USA",36.80686,-85.3627,1200,Burkesville,KY,42717
1183,"325 Main St, Cadiz, KY 42211 USA",36.86699,-87.815,325,Cadiz,KY,42211
595,"8931 US Highway 68 W, Calvert City, KY 42029 USA",37.00342,-88.5069,8931,Calvert City,KY,42029
899,"2750 Concrete Rd, Carlisle, KY 40311 USA",38.31132,-84.0451,2750,Carlisle,KY,40311
1966,"3165 US Highway 227, Carrollton, KY 41008 USA",38.67588,-85.1511,3165,Carrollton,KY,41008
1949,"15652 State Route 180, Catlettsburg, KY 41129 USA",38.3572,-82.6965,15652,Catlettsburg,KY,41129
855,"520 Main St, Centertown, KY 42328 USA",37.41739,-86.9973,520,Centertown,KY,42328
538,"55 Samuels Rd, Coxs Creek, KY 40013 USA",37.89826,-85.474,55,Coxs Creek,KY,40013
1403,"6402 Lagrange Rd, Crestwood, KY 40014 USA",38.33069,-85.4647,6402,Crestwood,KY,40014
403,"103 E Pleasant St, Cynthiana, KY 41031 USA",38.39019,-84.2966,103,Cynthiana,KY,41031
1070,"590 US Highway 41A S, Dixon, KY 42409 USA",37.40271,-87.7287,590,Dixon,KY,42409
1915,"145 Britmart Rd, Elkton, KY 42220 USA",36.84798,-87.3023,145,Elkton,KY,42220
1169,"24 Sandidge Rd, Eubank, KY 42567 USA",37.26617,-84.6425,24,Eubank,KY,42567
1120,"4815 Morehead Rd, Flemingsburg, KY 41041 USA",38.39248,-83.6887,4815,Flemingsburg,KY,41041
483,"219 State Route 54 E, Fordsville, KY 42343 USA",37.6346,-86.7106,219,Fordsville,KY,42343
1100,"2069 Edmonton Rd, Glasgow, KY 42141 USA",37.00949,-85.8793,2069,Glasgow,KY,42141
256,"11538 Danville Hwy, Gravel Switch, KY 40328 USA",37.59107,-85.0486,11538,Gravel Switch,KY,40328
815,"100 Bellefonte Dr, Grayson, KY 41143 USA",38.34556,-82.9319,100,Grayson,KY,41143
840,"420 S Carol Malone Blvd, Grayson, KY 41143 USA",38.32389,-82.9478,420,Grayson,KY,41143
1105,"601 Cw Stevens Blvd, Grayson, KY 41143 USA",38.34673,-82.9368,601,Grayson,KY,41143
1627,"852 N Carol Malone Blvd, Grayson, KY 41143 USA",38.34246,-82.9418,852,Grayson,KY,41143
263,"870 Campbellsville Rd, Greensburg, KY 42743 USA",37.27242,-85.494,870,Greensburg,KY,42743
1321,"5495 Hodgenville Rd, Greensburg, KY 42743 USA",37.32996,-85.5498,5495,Greensburg,KY,42743
1567,"6851 Ky Route 979, Grethel, KY 41631 USA",37.47864,-82.6571,6851,Grethel,KY,41631
20,"7435 Hanson Rd, Hanson, KY 42413 USA",37.4197,-87.4819,7435,Hanson,KY,42413
567,"2883 E 60 Hwy, Harned, KY 40144 USA",37.75213,-86.4094,2883,Harned,KY,40144
241,"344 S College St, Harrodsburg, KY 40330 USA",37.75919,-84.8464,344,Harrodsburg,KY,40330
1614,"501 Joseph Dr, Harrodsburg, KY 40330 USA",37.74459,-84.8419,501,Harrodsburg,KY,40330
1216,"108 E Main St, Hazard, KY 41701 USA",37.24611,-83.1903,108,Hazard,KY,41701
1091,"70 State Route 408 W, Hickory, KY 42051 USA",36.85575,-88.6695,70,Hickory,KY,42051
1977,"685 N Lincoln Blvd, Hodgenville, KY 42748 USA",37.58246,-85.7368,685,Hodgenville,KY,42748
1113,"1208 Kentucky Ave, Kevil, KY 42053 USA",37.08339,-88.889,1208,Kevil,KY,42053
1127,"3501 Kelley Rd, Kevil, KY 42053 USA",37.06759,-88.8101,3501,Kevil,KY,42053
1612,"11900 S Preston Hwy, Lebanon Junction, KY 40150 USA",37.83536,-85.7289,11900,Lebanon Junction,KY,40150
863,"1527 US Highway 60 W, Ledbetter, KY 42058 USA",37.04862,-88.4829,1527,Ledbetter,KY,42058
72,"339 S Main St, Leitchfield, KY 42754 USA",37.47572,-86.2937,339,Leitchfield,KY,42754
1061,"6530 Anneta Rd, Leitchfield, KY 42754 USA",37.40565,-86.2472,6530,Leitchfield,KY,42754
1195,"15851 S Highway 259, Leitchfield, KY 42754 USA",37.61073,-86.348,15851,Leitchfield,KY,42754
1960,"671 Wolford Ave, Liberty, KY 42539 USA",37.32319,-84.9279,671,Liberty,KY,42539
580,"828 S Main St, London, KY 40741 USA",37.12221,-84.0772,828,London,KY,40741
1422,"600 Industrial Blvd, London, KY 40741 USA",37.14247,-84.1853,600,London,KY,40741
1437,"4871 Highway 52, Loretto, KY 40037 USA",37.635,-85.4004,4871,Loretto,KY,40037
295,"100 Dennison Ln, Louisa, KY 41230 USA",38.11425,-82.6032,100,Louisa,KY,41230
1817,"100 Urton Ln, Louisville, KY 40223 USA",38.24171,-85.5102,100,Louisville,KY,40223
1818,"100 Urton Ln Ste 102, Louisville, KY 40223 USA",38.2416,-85.5105,100,Louisville,KY,40223
59,"8825 Highway # 2830, Maceo, KY 42355 USA",37.85927,-86.9999,8825,Maceo,KY,42355
1322,"672 S Main St, Marion, KY 42064 USA",37.32474,-88.0823,672,Marion,KY,42064
1808,"28 McCord Ln, Milton, KY 40045 USA",38.70242,-85.3723,28,Milton,KY,40045
618,"816 S Main St, Morgantown, KY 42261 USA",37.21769,-86.6952,816,Morgantown,KY,42261
1887,"115 N Hopkinsville Rd, Mortons Gap, KY 42440 USA",37.23553,-87.4767,115,Mortons Gap,KY,42440
662,"117 S Bardstown Rd, Mount Washington, KY 40047 USA",38.04754,-85.5413,117,Mount Washington,KY,40047
908,"11099 Highway 44 E, Mount Washington, KY 40047 USA",38.05189,-85.5357,11099,Mount Washington,KY,40047
1028,"200 Spring Place Dr, Mount Washington, KY 40047 USA",38.05066,-85.5361,200,Mount Washington,KY,40047
1765,"4471 Springhill Dr, Owensboro, KY 42303 USA",37.74401,-87.0427,4471,Owensboro,KY,42303
1112,"11590 Highway 127 S, Owenton, KY 40359 USA",38.41546,-84.8562,11590,Owenton,KY,40359
1177,"311 S Main St, Owenton, KY 40359 USA",38.53279,-84.8347,311,Owenton,KY,40359
675,"6115 Benton Rd, Paducah, KY 42003 USA",37.00435,-88.5308,6115,Paducah,KY,42003
1133,"9640 Millard Hwy, Pikeville, KY 41501 USA",37.37057,-82.4207,9640,Pikeville,KY,41501
1346,"290 N Lake Dr, Prestonsburg, KY 41653 USA",37.67292,-82.7771,290,Prestonsburg,KY,41653
1621,"111 US Highway 41A N, Providence, KY 42450 USA",37.40964,-87.7324,111,Providence,KY,42450
958,"6501 Hwy 416 W, Robards, KY 42452 USA",37.69031,-87.5201,6501,Robards,KY,42452
1377,"37 Franklin Rd, Russellville, KY 42276 USA",36.84268,-86.8718,37,Russellville,KY,42276
1584,"12100 St Hwy 81 South, Sacramento, KY 42372 USA",37.40469,-87.2603,12100,Sacramento,KY,42372
42,"6330 Nortonville Rd, Saint Charles, KY 42453 USA",37.18361,-87.5582,6330,Saint Charles,KY,42453
588,"986 Breckenridge Ln, Saint Matthews, KY 40207 USA",38.2324,-85.6398,986,Saint Matthews,KY,40207
657,"415 Bloomington Loop, Salyersville, KY 41465 USA",37.80988,-83.1596,415,Salyersville,KY,41465
1958,"8135 New Glasgow Rd, Scottsville, KY 42164 USA",36.83214,-86.1091,8135,Scottsville,KY,42164
1535,"9251 US Highway 41A N, Sebree, KY 42455 USA",37.51842,-87.6832,9251,Sebree,KY,42455
1141,"1830 Midland Trl, Shelbyville, KY 40065 USA",38.21208,-85.248,1830,Shelbyville,KY,40065
1578,"4925 N Preston Hwy, Shepherdsville, KY 40165 USA",38.05278,-85.6768,4925,Shepherdsville,KY,40165
1393,"4406 Dixie Hwy, Shively, KY 40216 USA",38.18365,-85.8162,4406,Shively,KY,40216
843,"9515 US Highway 41 S, Slaughters, KY 42456 USA",37.49078,-87.4948,9515,Slaughters,KY,42456
983,"902 E Mount Vernon St, Somerset, KY 42501 USA",37.09651,-84.5916,902,Somerset,KY,42501
571,"44 W Industry Dr, Springfield, KY 40069 USA",37.69691,-85.2281,44,Springfield,KY,40069
1233,"2774 Kings Church Rd, Taylorsville, KY 40071 USA",38.09155,-85.4781,2774,Taylorsville,KY,40071
1178,"7334 Highway # 231, Utica, KY 42376 USA",37.67001,-87.0298,7334,Utica,KY,42376
103,"714 Highland Ave, Vine Grove, KY 40175 USA",37.81835,-85.9671,714,Vine Grove,KY,40175
1691,"799 E Main St, Warsaw, KY 41095 USA",38.78714,-84.8894,799,Warsaw,KY,41095
128,"10133 Main St, Whitesville, KY 42378 USA",37.68396,-86.8699,10133,Whitesville,KY,42378
1350,"7309 Mayfield Rd, Wickliffe, KY 42087 USA",36.93164,-88.9689,7309,Wickliffe,KY,42087
1389,"697 Cutshin Rd, Wooton, KY 41776 USA",37.16123,-83.2984,697,Wooton,KY,41776
1511,"7518 US Highway 227 N, Worthville, KY 41098 USA",38.60496,-85.0734,7518,Worthville,KY,41098
532,"522 Veterans Memorial Dr, Abbeville, LA 70510 USA",29.98196,-92.1284,522,Abbeville,LA,70510
151,"2715 S MacArthur Dr, Alexandria, LA 71301 USA",31.26932,-92.4586,2715,Alexandria,LA,71301
249,"2291 S MacArthur Dr, Alexandria, LA 71301 USA",31.27355,-92.4644,2291,Alexandria,LA,71301
382,"6205 Coliseum Blvd, Alexandria, LA 71303 USA",31.29463,-92.5137,6205,Alexandria,LA,71303
910,"2102 N Mall Dr, Alexandria, LA 71301 USA",31.27779,-92.4545,2102,Alexandria,LA,71301
1050,"30342 Highway 21, Angie, LA 70426 USA",30.96661,-89.8098,30342,Angie,LA,70426
835,"1801 Hazel St, Arcadia, LA 71001 USA",32.5525,-92.9178,1801,Arcadia,LA,71001
647,"2932 Highway 90 W, Avondale, LA 70094 USA",29.91072,-90.2044,2932,Avondale,LA,70094
536,"11740 Crossett Rd, Bastrop, LA 71220 USA",32.83256,-91.8767,11740,Bastrop,LA,71220
1618,"500 Saint Clair Rd, Boyce, LA 71409 USA",31.27136,-92.7263,500,Boyce,LA,71409
523,"2310 N Frontage Rd, Breaux Bridge, LA 70517 USA",30.27353,-91.8993,2310,Breaux Bridge,LA,70517
639,"1405 Rees St, Breaux Bridge, LA 70517 USA",30.28492,-91.9069,1405,Breaux Bridge,LA,70517
1801,"4649 Main Hwy, Breaux Bridge, LA 70517 USA",30.23535,-91.8797,4649,Breaux Bridge,LA,70517
1793,"2450 Highway 80, Choudrant, LA 71227 USA",32.53015,-92.5129,2450,Choudrant,LA,71227
1549,"149 S Main St, Church Point, LA 70525 USA",30.4042,-92.2165,149,Church Point,LA,70525
1615,"615 S Front St, Converse, LA 71419 USA",31.77199,-93.6968,615,Converse,LA,71419
400,"1020 Cut Off Rd, Coushatta, LA 71019 USA",32.02199,-93.3377,1020,Coushatta,LA,71019
659,"950 E Boston St, Covington, LA 70433 USA",30.4772,-90.0866,950,Covington,LA,70433
142,"2121 N Parkerson Ave, Crowley, LA 70526 USA",30.23079,-92.3833,2121,Crowley,LA,70526
564,"11006 Highway 14, Delcambre, LA 70528 USA",29.95091,-91.9755,11006,Delcambre,LA,70528
1668,"911 Broadway St, Delhi, LA 71232 USA",32.44743,-91.4922,911,Delhi,LA,71232
514,"8130 Rushing Rd E, Denham Springs, LA 70726 USA",30.45693,-90.9539,8130,Denham Springs,LA,70726
679,"10230 Cassle Rd, Denham Springs, LA 70726 USA",30.46913,-90.9157,10230,Denham Springs,LA,70726
354,"2100 Highway 190 W, Deridder, LA 70634 USA",30.84766,-93.3141,2100,Deridder,LA,70634
982,"1780 Highway 26, Deridder, LA 70634 USA",30.80952,-93.1928,1780,Deridder,LA,70634
1094,"828 E 1st St, Deridder, LA 70634 USA",30.8461,-93.2698,828,Deridder,LA,70634
1572,"1121 N Pine St, Deridder, LA 70634 USA",30.86567,-93.2858,1121,Deridder,LA,70634
1964,"1960 Ormond Blvd, Destrehan, LA 70047 USA",29.96913,-90.3756,1960,Destrehan,LA,70047
55,"1851 W Laurel Ave, Eunice, LA 70535 USA",30.49452,-92.4351,1851,Eunice,LA,70535
994,"39024 Highway 16, Franklinton, LA 70438 USA",30.84713,-90.1531,39024,Franklinton,LA,70438
1015,"6040 Highway 175, Frierson, LA 71027 USA",32.23563,-93.7018,6040,Frierson,LA,71027
1617,"500 Saint Clair Rd, Gardner, LA 71409 USA",31.27136,-92.7263,500,Gardner,LA,71409
666,"1946 W Highway 30, Gonzales, LA 70737 USA",30.21116,-90.9422,1946,Gonzales,LA,70737
1006,"15020 Highway 44, Gonzales, LA 70737 USA",30.28532,-90.9209,15020,Gonzales,LA,70737
1355,"3827 W Park Ave, Gray, LA 70359 USA",29.68333,-90.783,3827,Gray,LA,70359
286,"250 Lapalco Blvd, Gretna, LA 70056 USA",29.88168,-90.0262,250,Gretna,LA,70056
387,"62 Westbank Expy, Gretna, LA 70053 USA",29.913,-90.0474,62,Gretna,LA,70053
113,"43103 S Airport Rd, Hammond, LA 70403 USA",30.48203,-90.4151,43103,Hammond,LA,70403
202,"1000 SW Railroad Ave, Hammond, LA 70403 USA",30.49504,-90.459,1000,Hammond,LA,70403
1381,"980 Highway 80, Haughton, LA 71037 USA",32.55555,-93.614,980,Haughton,LA,71037
936,"1318 Grand Caillou Rd, Houma, LA 70363 USA",29.57543,-90.6874,1318,Houma,LA,70363
1156,"719 W Railroad Ave, Independence, LA 70443 USA",30.64029,-90.5031,719,Independence,LA,70443
442,"21 Duson Ave, Iota, LA 70543 USA",30.33217,-92.4954,21,Iota,LA,70543
92,"703 North Thompson Ave, Iowa, LA 70647 USA",30.24667,-93.0142,703,Iowa,LA,70647
433,"2540 E Oak St, Jena, LA 71342 USA",31.68282,-92.1286,2540,Jena,LA,71342
243,"810 Pershing Hwy, Jonesboro, LA 71251 USA",32.25443,-92.7225,810,Jonesboro,LA,71251
543,"185 Old Winnfield Rd, Jonesboro, LA 71251 USA",32.22818,-92.7088,185,Jonesboro,LA,71251
687,"2007 Fourth St, Jonesville, LA 71343 USA",31.62813,-91.8342,2007,Jonesville,LA,71343
496,"105 W Veterans Meml Dr, Kaplan, LA 70548 USA",29.99817,-92.2855,105,Kaplan,LA,70548
1708,"401 W Veterans Meml Dr, Kaplan, LA 70548 USA",29.9989,-92.2892,401,Kaplan,LA,70548
707,"512 Avenue G, Kentwood, LA 70444 USA",30.93588,-90.514,512,Kentwood,LA,70444
1231,"14004 Highway 165, Kinder, LA 70648 USA",30.49478,-92.8441,14004,Kinder,LA,70648
175,"200 E Airline Hwy, La Place, LA 70068 USA",30.06478,-90.4788,200,La Place,LA,70068
450,"332 N Highway 26, Lake Arthur, LA 70549 USA",30.08853,-92.6722,332,Lake Arthur,LA,70549
1210,"6285 Highway 90 E, Lake Charles, LA 70615 USA",30.23185,-93.1227,6285,Lake Charles,LA,70615
1356,"6408 Highway 3059, Lake Charles, LA 70615 USA",30.27672,-93.0857,6408,Lake Charles,LA,70615
633,"501 N 6th St, Leesville, LA 71446 USA",31.14709,-93.2646,501,Leesville,LA,71446
455,"1695 Highway 59, Mandeville, LA 70448 USA",30.37315,-90.0543,1695,Mandeville,LA,70448
168,"7040 Highway 1, Mansura, LA 71350 USA",31.10051,-92.0618,7040,Mansura,LA,71350
278,"7686 Highway 1, Mansura, LA 71350 USA",31.08348,-92.0572,7686,Mansura,LA,71350
1212,"6203 Lapalco Blvd, Marrero, LA 70072 USA",29.87448,-90.1129,6203,Marrero,LA,70072
167,"3633 Veterans Blvd., Metairie, LA 70002 USA",30.00442,-90.1633,3633,Metairie,LA,70002
600,"4301 Airline Dr, Metairie, LA 70001 USA",29.9759,-90.1752,4301,Metairie,LA,70001
1277,"3913 Veterans Memorial Blvd, Metairie, LA 70002 USA",30.005,-90.1732,3913,Metairie,LA,70002
82,"1180 Homer Rd, Minden, LA 71055 USA",32.624,-93.2541,1180,Minden,LA,71055
1163,"401 Homer Rd, Minden, LA 71055 USA",32.622,-93.2734,401,Minden,LA,71055
1492,"1019 Homer Rd, Minden, LA 71055 USA",32.62386,-93.2598,1019,Minden,LA,71055
461,"3200 Louisville Ave, Monroe, LA 71201 USA",32.52186,-92.084,3200,Monroe,LA,71201
217,"1300 Southeast Blvd, Morgan City, LA 70380 USA",29.68459,-91.2623,1300,Morgan City,LA,70380
665,"400 Sam Houston Jones Pkwy, Moss Bluff, LA 70611 USA",30.30097,-93.2025,400,Moss Bluff,LA,70611
948,"675 Sam Houston Jones Pkwy, Moss Bluff, LA 70611 USA",30.30032,-93.2074,675,Moss Bluff,LA,70611
1418,"5119 University Pkwy, Natchitoches, LA 71457 USA",31.72901,-93.1536,5119,Natchitoches,LA,71457
500,"401 Elm St, New Roads, LA 70760 USA",30.69812,-91.4356,401,New Roads,LA,70760
660,"1106 Verona St, Newellton, LA 71357 USA",32.06997,-91.2544,1106,Newellton,LA,71357
1552,"3298 Main Street, Olla, LA 71465 USA",31.90118,-92.23,3298,Olla,LA,71465
170,"911 S Union St, Opelousas, LA 70570 USA",30.52515,-92.0816,911,Opelousas,LA,70570
408,"946 Creswell Ln, Opelousas, LA 70570 USA",30.5196,-92.0745,946,Opelousas,LA,70570
578,"3171 Highway 70 S, Pierre Part, LA 70339 USA",29.9654,-91.2051,3171,Pierre Part,LA,70339
1109,"3400 Military Hwy, Pineville, LA 71360 USA",31.36369,-92.4105,3400,Pineville,LA,71360
1304,"3432 Monroe Hwy, Pineville, LA 71360 USA",31.36299,-92.4115,3432,Pineville,LA,71360
1704,"910 W Pine St, Ponchatoula, LA 70454 USA",30.43825,-90.4544,910,Ponchatoula,LA,70454
1204,"20019 LA Highway 16, Port Vincent, LA 70726 USA",30.35572,-90.8516,20019,Port Vincent,LA,70726
1678,"4724 Highway 1, Raceland, LA 70394 USA",29.69868,-90.5583,4724,Raceland,LA,70394
917,"1206 The Blvd, Rayne, LA 70578 USA",30.24861,-92.2691,1206,Rayne,LA,70578
1115,"5283 Mire Hwy, Rayne, LA 70578 USA",30.29455,-92.1943,5283,Rayne,LA,70578
959,"18284 Highway 190, Reeves, LA 70658 USA",30.51972,-93.0462,18284,Reeves,LA,70658
1647,"8722 Highway 6, Robeline, LA 71469 USA",31.7005,-93.2946,8722,Robeline,LA,71469
1467,"801 N Trenton St, Ruston, LA 71270 USA",32.53582,-92.6393,801,Ruston,LA,71270
1207,"209 Bayou Rd, Saint Bernard, LA 70085 USA",29.86827,-89.8884,209,Saint Bernard,LA,70085
1620,"1101 Plank Rd, Saint Joseph, LA 71366 USA",31.92344,-91.2409,1101,Saint Joseph,LA,71366
1349,"102 N Main St, Shreveport, LA 71107 USA",32.5819,-93.8931,102,Shreveport,LA,71107
366,"143 Northshore Blvd, Slidell, LA 70460 USA",30.30591,-89.8283,143,Slidell,LA,70460
848,"1260 Front St, Slidell, LA 70458 USA",30.28547,-89.7789,1260,Slidell,LA,70458
1220,"1600 S Arkansas St, Springhill, LA 71075 USA",32.98803,-93.4609,1600,Springhill,LA,71075
1831,"7327 US Highway 61, St Francisvle, LA 70775 USA",30.79327,-91.382,7327,St Francisvle,LA,70775
615,"1380 E Napoleon St, Sulphur, LA 70663 USA",30.23719,-93.3625,1380,Sulphur,LA,70663
1809,"503 Highway 20, Thibodaux, LA 70301 USA",29.87569,-90.8052,503,Thibodaux,LA,70301
1555,"5505 E Judge Perez Dr, Violet, LA 70092 USA",29.91497,-89.8986,5505,Violet,LA,70092
1643,"1400 Fourth St, Westwego, LA 70094 USA",29.90292,-90.1347,1400,Westwego,LA,70094
850,"3016 E Milton Ave, Youngsville, LA 70592 USA",30.10886,-92.0112,3016,Youngsville,LA,70592
1840,"1195 Falmouth Rd, Centerville, MA 02632 USA",41.65787,-70.3309,1195,Centerville,MA,02632
1706,"550 E Main St, East Brookfield, MA 01515 USA",42.23186,-72.03,550,East Brookfield,MA,01515
200,"485 Waquoit Hwy, East Falmouth, MA 02536 USA",41.58732,-70.5169,485,East Falmouth,MA,02536
1794,"42 Colrain Rd, Greenfield, MA 01301 USA",42.58884,-72.6227,42,Greenfield,MA,01301
460,"74 Iyannough Rd, Hyannis, MA 02601 USA",41.65913,-70.2728,74,Hyannis,MA,02601
636,"4 S Main St, Middleton, MA 01949 USA",42.59473,-71.0147,4,Middleton,MA,01949
907,"435 Shore Rd, Monument Bch, MA 02553 USA",41.71904,-70.6138,435,Monument Bch,MA,02553
906,"435 Shore Rd, Monument Beach, MA 02553 USA",41.71904,-70.6138,435,Monument Beach,MA,02553
1434,"119 Rt 6A, Orleans, MA 02653 USA",41.78663,-69.9926,119,Orleans,MA,02653
1631,"121 Bay Rd, South Hamilton, MA 01982 USA",42.61095,-70.8732,121,South Hamilton,MA,01982
201,"485 Waquoit Hwy, Waquoit, MA 02536 USA",41.58732,-70.5169,485,Waquoit,MA,02536
399,"2586 State Hwy Rte 6, Wellfleet, MA 02667 USA",41.83204,-69.9739,2586,Wellfleet,MA,02667
418,"2132 Old Snow Hill Rd, Pocomoke City, MD 21851 USA",38.07269,-75.5541,2132,Pocomoke City,MD,21851
5,"700 Minot Ave, Auburn, ME 04210 USA",44.08159,-70.2569,700,Auburn,ME,04210
130,"65 Mount Auburn Ave, Auburn, ME 04210 USA",44.122,-70.2349,65,Auburn,ME,04210
560,"110 Mount Auburn Ave, Auburn, ME 04210 USA",44.12095,-70.2383,110,Auburn,ME,04210
913,"850 Minot Ave, Auburn, ME 04210 USA",44.08097,-70.2637,850,Auburn,ME,04210
192,"75 Leeman Hwy, Bath, ME 04530 USA",43.91056,-69.8222,75,Bath,ME,04530
705,"209 Northport Ave, Belfast, ME 04915 USA",44.40514,-68.9913,209,Belfast,ME,04915
1592,"43 Belmont Ave, Belfast, ME 04915 USA",44.42279,-69.0297,43,Belfast,ME,04915
1638,"42 School St, Berwick, ME 03901 USA",43.26799,-70.8611,42,Berwick,ME,03901
914,"564 Alfred St, Biddeford, ME 04005 USA",43.47654,-70.5087,564,Biddeford,ME,04005
943,"384 Elm St, Biddeford, ME 04005 USA",43.48424,-70.4715,384,Biddeford,ME,04005
1302,"437 Wilson St, Brewer, ME 04412 USA",44.78271,-68.7497,437,Brewer,ME,04412
268,"691 Main St, Calais, ME 04619 USA",45.18426,-67.267,691,Calais,ME,04619
884,"289 South St, Calais, ME 04619 USA",45.17778,-67.2747,289,Calais,ME,04619
1735,"35 Bennett Dr, Caribou, ME 04736 USA",46.86314,-68.0044,35,Caribou,ME,04736
271,"117 Main St, East Millinocket, ME 04430 USA",45.62761,-68.5808,117,East Millinocket,ME,04430
1602,"317 Main St, Farmington, ME 04938 USA",44.6638,-70.1496,317,Farmington,ME,04938
1189,"355 Main St, Fort Fairfield, ME 04742 USA",46.77215,-67.8347,355,Fort Fairfield,ME,04742
259,"12 Main St, Gray, ME 04039 USA",43.8866,-70.3287,12,Gray,ME,04039
373,"63 Main Rd N, Hampden, ME 04444 USA",44.74417,-68.8371,63,Hampden,ME,04444
1013,"3 Main St, Kennebunk, ME 04043 USA",43.38467,-70.5427,3,Kennebunk,ME,04043
1461,"144 Dublin St, Machias, ME 04654 USA",44.70476,-67.4634,144,Machias,ME,04654
1600,"92 Main St, Madison, ME 04950 USA",44.79799,-69.8809,92,Madison,ME,04950
1448,"4 N Main St, Mechanic Falls, ME 04256 USA",44.1164,-70.3931,4,Mechanic Falls,ME,04256
634,"34 Main St, North Berwick, ME 03906 USA",43.30464,-70.7344,34,North Berwick,ME,03906
1862,"251 Main St, Norway, ME 04268 USA",44.21281,-70.5381,251,Norway,ME,04268
772,"49 Pine St, Portland, ME 04102 USA",43.65144,-70.2687,49,Portland,ME,04102
842,"801 Washington Ave, Portland, ME 04103 USA",43.6863,-70.2686,801,Portland,ME,04103
1118,"87 Marginal Way, Portland, ME 04101 USA",43.66181,-70.2645,87,Portland,ME,04101
1778,"195 Riverside St, Portland, ME 04103 USA",43.68343,-70.327,195,Portland,ME,04103
290,"800 Main St, Presque Isle, ME 04769 USA",46.69889,-68.0102,800,Presque Isle,ME,04769
1452,"3 Camden St, Rockland, ME 04841 USA",44.11278,-69.1053,3,Rockland,ME,04841
540,"775 Portland Rd, Saco, ME 04072 USA",43.52855,-70.4265,775,Saco,ME,04072
739,"374 Madison Ave, Skowhegan, ME 04976 USA",44.78544,-69.7319,374,Skowhegan,ME,04976
1878,"65 Madison Ave, Skowhegan, ME 04976 USA",44.76727,-69.7199,65,Skowhegan,ME,04976
2,"55 Maine Mall Rd, South Portland, ME 04106 USA",43.64398,-70.3318,55,South Portland,ME,04106
316,"690 Main St, South Portland, ME 04106 USA",43.61926,-70.306,690,South Portland,ME,04106
1102,"474 Westbrook St, South Portland, ME 04106 USA",43.6334,-70.3148,474,South Portland,ME,04106
3,"124 Ossipee Trl E, Standish, ME 04084 USA",43.7312,-70.5415,124,Standish,ME,04084
652,"64 Manchester Dr, Windham, ME 04062 USA",43.83835,-70.4493,64,Windham,ME,04062
757,"1 China Rd, Winslow, ME 04901 USA",44.53775,-69.6285,1,Winslow,ME,04901
428,"410 Main St, Winthrop, ME 04364 USA",44.30764,-69.9581,410,Winthrop,ME,04364
1816,"639 Bath Rd, Wiscasset, ME 04578 USA",43.97299,-69.7119,639,Wiscasset,ME,04578
75,"939 Route 1, Yarmouth, ME 04096 USA",43.8059,-70.1705,939,Yarmouth,ME,04096
1848,"281 Main St, Yarmouth, ME 04096 USA",43.80213,-70.19,281,Yarmouth,ME,04096
1636,"230 York St, York, ME 03909 USA",43.14382,-70.6499,230,York,ME,03909
1630,"1396 S Main St, Adrian, MI 49221 USA",41.87719,-84.0439,1396,Adrian,MI,49221
52,"7337 N Alger Rd, Alma, MI 48801 USA",43.39821,-84.6675,7337,Alma,MI,48801
1752,"250 Adams St, Alma, MI 48801 USA",43.37747,-84.6487,250,Alma,MI,48801
926,"307 E Huron Rd, Au Gres, MI 48703 USA",44.04835,-83.6914,307,Au Gres,MI,48703
1976,"301 N Center St, Bangor, MI 49013 USA",42.31293,-86.1088,301,Bangor,MI,49013
1012,"2410 Michigan Ave W, Battle Creek, MI 49037 USA",42.3506,-85.2489,2410,Battle Creek,MI,49037
748,"901 N Euclid Ave, Bay City, MI 48706 USA",43.61176,-83.9154,901,Bay City,MI,48706
432,"336 Lang Rd, Beaverton, MI 48612 USA",43.88752,-84.4906,336,Beaverton,MI,48612
1159,"1320 Paw Paw Ave, Benton Harbor, MI 49022 USA",42.13902,-86.4446,1320,Benton Harbor,MI,49022
1402,"1800 M 139, Benton Harbor, MI 49022 USA",42.08573,-86.4383,1800,Benton Harbor,MI,49022
388,"8140 Main St, Birch Run, MI 48415 USA",43.24985,-83.7917,8140,Birch Run,MI,48415
1037,"12100 S Beyer Rd, Birch Run, MI 48415 USA",43.24885,-83.7771,12100,Birch Run,MI,48415
444,"117 Water St, Boyne City, MI 49712 USA",45.21388,-85.0139,117,Boyne City,MI,49712
1254,"6345 Dixie Hwy, Bridgeport, MI 48722 USA",43.35372,-83.87,6345,Bridgeport,MI,48722
1564,"8281 Grand River Rd, Brighton, MI 48114 USA",42.55028,-83.7888,8281,Brighton,MI,48114
116,"101 Commerce Dr, Brockway, MI 48097 USA",43.12059,-82.7904,101,Brockway,MI,48097
727,"511 W Wexford Ave, Buckley, MI 49620 USA",44.50388,-85.6873,511,Buckley,MI,49620
930,"805 S Mitchell St, Cadillac, MI 49601 USA",44.24376,-85.3961,805,Cadillac,MI,49601
199,"6553 Main St, Cass City, MI 48726 USA",43.60118,-83.173,6553,Cass City,MI,48726
1408,"1648 N M 88, Central Lake, MI 49622 USA",45.07016,-85.2642,1648,Central Lake,MI,49622
1000,"635 E Industrial Dr, Chelsea, MI 48118 USA",42.32037,-84.032,635,Chelsea,MI,48118
51,"910 E Chicago St, Coldwater, MI 49036 USA",41.9334,-84.9624,910,Coldwater,MI,49036
222,"127 68th Ave S, Coopersville, MI 49404 USA",43.05806,-85.9577,127,Coopersville,MI,49404
526,"8005 Davison Rd, Davison, MI 48423 USA",43.03455,-83.5559,8005,Davison,MI,48423
747,"1010 S State Rd, Davison, MI 48423 USA",43.01964,-83.5184,1010,Davison,MI,48423
401,"10477 S Norris Rd, Delton, MI 49046 USA",42.50107,-85.4548,10477,Delton,MI,49046
502,"67633 M 152, Dowagiac, MI 49047 USA",42.08531,-86.2016,67633,Dowagiac,MI,49047
426,"14293 S Custer Rd, Dundee, MI 48131 USA",41.95157,-83.6431,14293,Dundee,MI,48131
273,"8544 E Lansing Rd, Durand, MI 48429 USA",42.9248,-83.9966,8544,Durand,MI,48429
341,"8880 Monroe Rd, Durand, MI 48429 USA",42.92083,-83.9904,8880,Durand,MI,48429
1924,"117 S Lake St, East Jordan, MI 49727 USA",45.15154,-85.1392,117,East Jordan,MI,49727
1358,"1102 E Main St, Edmore, MI 48829 USA",43.40744,-85.0322,1102,Edmore,MI,48829
207,"69199 M 62, Edwardsburg, MI 49112 USA",41.79387,-86.082,69199,Edwardsburg,MI,49112
1522,"617 Ames St, Elk Rapids, MI 49629 USA",44.89967,-85.396,617,Elk Rapids,MI,49629
193,"2921 Center Ave, Essexville, MI 48732 USA",43.59527,-83.8463,2921,Essexville,MI,48732
964,"731 W 7th St, Evart, MI 49631 USA",43.89991,-85.2693,731,Evart,MI,49631
105,"4715 24th Ave, Fort Gratiot, MI 48059 USA",43.04418,-82.4595,4715,Fort Gratiot,MI,48059
1327,"519 W Main St, Fremont, MI 49412 USA",43.46747,-85.9551,519,Fremont,MI,49412
1443,"6395 Airline Rd, Fruitport, MI 49415 USA",43.13598,-86.1561,6395,Fruitport,MI,49415
143,"508 W Main St, Gaylord, MI 49735 USA",45.0277,-84.6802,508,Gaylord,MI,49735
251,"1352 W Main St, Gaylord, MI 49735 USA",45.02787,-84.6957,1352,Gaylord,MI,49735
365,"1105 N State St, Gladwin, MI 48624 USA",43.9896,-84.4862,1105,Gladwin,MI,48624
1298,"69 W Carleton Rd, Hillsdale, MI 49242 USA",41.92671,-84.6387,69,Hillsdale,MI,49242
1853,"997 W Sharon Ave, Houghton, MI 49931 USA",47.11291,-88.5872,997,Houghton,MI,49931
1589,"9367 W Lake City Rd, Houghton Lake, MI 48629 USA",44.33547,-84.8003,9367,Houghton Lake,MI,48629
1101,"2797 E Grand River Ave, Howell, MI 48843 USA",42.59638,-83.8983,2797,Howell,MI,48843
700,"1923 S Cedar St, Imlay City, MI 48444 USA",43.00916,-83.071,1923,Imlay City,MI,48444
339,"1501 W Adams St, Iron River, MI 49935 USA",46.09196,-88.6489,1501,Iron River,MI,49935
409,"2400 Shirley Dr, Jackson, MI 49202 USA",42.27697,-84.4298,2400,Jackson,MI,49202
625,"1244 E McDevitt Ave, Jackson, MI 49203 USA",42.19739,-84.382,1244,Jackson,MI,49203
1645,"6275 Rives Junction Rd, Jackson, MI 49201 USA",42.32366,-84.4623,6275,Jackson,MI,49201
194,"2775 Port Sheldon St, Jenison, MI 49428 USA",42.88819,-85.8511,2775,Jenison,MI,49428
1388,"710 Olds St, Jonesville, MI 49250 USA",41.96505,-84.672,710,Jonesville,MI,49250
1167,"5330 W Main St, Kalamazoo, MI 49009 USA",42.29677,-85.6544,5330,Kalamazoo,MI,49009
1191,"5658 W Main St, Kalamazoo, MI 49009 USA",42.29647,-85.6597,5658,Kalamazoo,MI,49009
1868,"14128 9 Mile Rd, Kaleva, MI 49645 USA",44.37066,-86.0149,14128,Kaleva,MI,49645
1713,"6074 State St, Kingston, MI 48741 USA",43.4127,-83.183,6074,Kingston,MI,48741
349,"88 N Morey Rd, Lake City, MI 49651 USA",44.41881,-85.2175,88,Lake City,MI,49651
104,"4715 24th Ave, Lakeport, MI 48059 USA",43.04418,-82.4595,4715,Lakeport,MI,48059
79,"3029 E Kalamazoo St, Lansing, MI 48912 USA",42.73008,-84.5147,3029,Lansing,MI,48912
1599,"6528 W Saginaw Hwy, Lansing, MI 48917 USA",42.74341,-84.6461,6528,Lansing,MI,48917
1653,"825 N Marketplace Blvd, Lansing, MI 48917 USA",42.74296,-84.6761,825,Lansing,MI,48917
1709,"6824 W Saginaw Hwy, Lansing, MI 48917 USA",42.74164,-84.649,6824,Lansing,MI,48917
386,"540 S Main St, Lapeer, MI 48446 USA",43.0444,-83.3235,540,Lapeer,MI,48446
1939,"1473 S Lapeer Rd, Lapeer, MI 48446 USA",43.01975,-83.3216,1473,Lapeer,MI,48446
924,"505 Marshall St, Litchfield, MI 49252 USA",42.05006,-84.7678,505,Litchfield,MI,49252
1787,"4418 W US Highway 10, Ludington, MI 49431 USA",43.95661,-86.3899,4418,Ludington,MI,49431
1215,"308 S Nicolet St, Mackinaw City, MI 49701 USA",45.77866,-84.7325,308,Mackinaw City,MI,49701
272,"510 W Main St, Manchester, MI 48158 USA",42.14718,-84.0463,510,Manchester,MI,48158
753,"9050 M-52, Manchester, MI 48158 USA",42.19079,-84.0328,9050,Manchester,MI,48158
619,"1631 US Highway 31 S, Manistee, MI 49660 USA",44.24577,-86.3188,1631,Manistee,MI,49660
1805,"1597 S Main St, Martin, MI 49070 USA",42.53703,-85.6411,1597,Martin,MI,49070
1487,"349 N Pine St, Mc Bain, MI 49657 USA",44.20066,-85.2149,349,Mc Bain,MI,49657
1989,"496 W Main St, Mecosta, MI 49332 USA",43.62271,-85.2313,496,Mecosta,MI,49332
206,"3580 Oakwood Blvd, Melvindale, MI 48122 USA",42.28161,-83.1821,3580,Melvindale,MI,48122
706,"3939 S Lapeer Rd, Metamora, MI 48455 USA",42.94341,-83.3127,3939,Metamora,MI,48455
1366,"3520 Isabella St, Midland, MI 48640 USA",43.61258,-84.2915,3520,Midland,MI,48640
1965,"7019 Eastman Ave, Midland, MI 48642 USA",43.66182,-84.2477,7019,Midland,MI,48642
140,"1553 N Dixie Hwy, Monroe, MI 48162 USA",41.92873,-83.3538,1553,Monroe,MI,48162
1893,"11925 N Saginaw St, Mount Morris, MI 48458 USA",43.12109,-83.695,11925,Mount Morris,MI,48458
1570,"1622 S Mission St, Mount Pleasant, MI 48858 USA",43.58642,-84.7679,1622,Mount Pleasant,MI,48858
1705,"629 S Mission St, Mount Pleasant, MI 48858 USA",43.59838,-84.767,629,Mount Pleasant,MI,48858
1781,"903 N Mission St, Mount Pleasant, MI 48858 USA",43.61227,-84.7685,903,Mount Pleasant,MI,48858
524,"2342 Holton Rd, Muskegon, MI 49445 USA",43.29716,-86.1987,2342,Muskegon,MI,49445
1395,"1721 E Sternberg Rd, Muskegon, MI 49444 USA",43.15368,-86.2028,1721,Muskegon,MI,49444
1077,"11688 Us Hwy 2, Naubinway, MI 49762 USA",47.39571,-94.7798,11688,Naubinway,MI,49762
1426,"7567 State Highway M123, Newberry, MI 49868 USA",46.35279,-85.5098,7567,Newberry,MI,49868
649,"11874 US Highway 23 S, Ossineke, MI 49766 USA",44.91706,-83.4385,11874,Ossineke,MI,49766
1553,"26778 M 43, Paw Paw, MI 49079 USA",42.29658,-85.8133,26778,Paw Paw,MI,49079
541,"520 E Pinconning Rd, Pinconning, MI 48650 USA",43.85329,-84.0248,520,Pinconning,MI,48650
1913,"1227 M 89, Plainwell, MI 49080 USA",42.45185,-85.6642,1227,Plainwell,MI,49080
1981,"1149 M 89, Plainwell, MI 49080 USA",42.45018,-85.6579,1149,Plainwell,MI,49080
350,"303 West Houghton, Prudenville, MI 48651 USA",44.29835,-84.652,303,Prudenville,MI,48651
1151,"8055 Rapid City Rd NW, Rapid City, MI 49676 USA",44.83158,-85.2836,8055,Rapid City,MI,49676
1919,"3524 Main St, Ravenna, MI 49451 USA",43.18933,-85.9357,3524,Ravenna,MI,49451
270,"2482 Tittabawassee Rd, Saginaw, MI 48604 USA",43.4803,-83.9652,2482,Saginaw,MI,48604
874,"3090 Tittabawassee Rd, Saginaw, MI 48604 USA",43.48088,-83.978,3090,Saginaw,MI,48604
1326,"8220 Gratiot Rd, Saginaw, MI 48609 USA",43.41637,-84.0761,8220,Saginaw,MI,48609
610,"2569 N Saint Helen Rd, Saint Helen, MI 48656 USA",44.37127,-84.4109,2569,Saint Helen,MI,48656
965,"100 N Us127 Br, Saint Johns, MI 48879 USA",43.00144,-84.5509,100,Saint Johns,MI,48879
979,"1400 S US Highway 27, Saint Johns, MI 48879 USA",42.98848,-84.5439,1400,Saint Johns,MI,48879
1447,"2206 S Cleveland Ave, Saint Joseph, MI 49085 USA",42.07734,-86.4956,2206,Saint Joseph,MI,49085
309,"6700 State Rd, Saline, MI 48176 USA",42.19146,-83.7393,6700,Saline,MI,48176
724,"620 N Grand St, Schoolcraft, MI 49087 USA",42.12116,-85.6369,620,Schoolcraft,MI,49087
570,"306 N Main St, Sheridan, MI 48884 USA",43.21568,-85.0727,306,Sheridan,MI,48884
920,"441 E Main St, Springport, MI 49284 USA",42.3789,-84.6917,441,Springport,MI,49284
1666,"600 W Chicago Rd, Sturgis, MI 49091 USA",41.7979,-85.4265,600,Sturgis,MI,49091
101,"1447 W Chicago Blvd, Tecumseh, MI 49286 USA",42.00694,-83.9689,1447,Tecumseh,MI,49286
692,"732 E Front St, Traverse City, MI 49686 USA",44.76365,-85.6057,732,Traverse City,MI,49686
1935,"2001 Garfield Rd N, Traverse City, MI 49686 USA",44.66005,-85.544,2001,Traverse City,MI,49686
158,"3425 N Woodruff Rd, Weidman, MI 48893 USA",43.68922,-84.9691,3425,Weidman,MI,48893
1806,"16861 Caberfae Hwy, Wellston, MI 49689 USA",44.2249,-85.9642,16861,Wellston,MI,49689
284,"501 E Houghton Ave, West Branch, MI 48661 USA",44.27668,-84.2265,501,West Branch,MI,48661
80,"59 W Washington Ave, Zeeland, MI 49464 USA",42.81435,-86.0208,59,Zeeland,MI,49464
191,"14963 Edgewood Dr, Baxter, MN 56425 USA",46.36863,-94.2454,14963,Baxter,MN,56425
841,"506 E Broadway, Browns Valley, MN 56219 USA",45.59558,-96.835,506,Browns Valley,MN,56219
1936,"215 Doddridge Ave, Cloquet, MN 55720 USA",46.71338,-92.4604,215,Cloquet,MN,55720
1753,"26377 Industrial Blvd, Cohasset, MN 55721 USA",47.25953,-93.5956,26377,Cohasset,MN,55721
438,"5359 W Broadway Ave, Crystal, MN 55428 USA",45.0503,-93.361,5359,Crystal,MN,55428
691,"4423 Highway 12 SE, Delano, MN 55328 USA",45.04793,-93.7996,4423,Delano,MN,55328
1927,"2698 Us-169, Grand Rapids, MN 55744 USA",47.30335,-93.3791,2698,Grand Rapids,MN,55744
1934,"18 SE 10th St, Grand Rapids, MN 55744 USA",47.22053,-93.5282,18,Grand Rapids,MN,55744
1374,"121 15 St # S, Hawley, MN 56549 USA",46.88079,-96.3167,121,Hawley,MN,56549
1978,"795 Highway 47 S, Isle, MN 56342 USA",46.139,-93.461,795,Isle,MN,56342
1139,"2400 W Industrial Blvd, Long Lake, MN 55356 USA",44.98876,-93.5845,2400,Long Lake,MN,55356
1416,"1890 Madison Ave, Mankato, MN 56001 USA",44.16725,-93.9501,1890,Mankato,MN,56001
856,"801 E College Dr, Marshall, MN 56258 USA",44.45101,-95.7789,801,Marshall,MN,56258
781,"405 3rd Ave SW, Milaca, MN 56353 USA",45.75006,-93.6538,405,Milaca,MN,56353
437,"5359 W Broadway Ave, Minneapolis, MN 55428 USA",45.05033,-93.3611,5359,Minneapolis,MN,55428
288,"611 4th St NW, Montgomery, MN 56069 USA",44.44585,-93.5836,611,Montgomery,MN,56069
1284,"10 Hartman Dr, Moose Lake, MN 55767 USA",46.43925,-92.7677,10,Moose Lake,MN,55767
729,"4225 W Grove St, Pequot Lakes, MN 56472 USA",46.60582,-94.3159,4225,Pequot Lakes,MN,56472
146,"100 County 1 W, Pine River, MN 56474 USA",46.71802,-94.4042,100,Pine River,MN,56474
732,"317 2nd St NW, Pipestone, MN 56164 USA",44.00204,-96.3215,317,Pipestone,MN,56164
331,"28261 Dressler Ct, Randolph, MN 55065 USA",44.5397,-93.0037,28261,Randolph,MN,55065
1476,"4375 O Day Ave NE, Saint Michael, MN 55376 USA",45.21569,-93.5979,4375,Saint Michael,MN,55376
1063,"118 Twin Rivers Ct, Sartell, MN 56377 USA",45.5957,-94.193,118,Sartell,MN,56377
16,"4120 Dean Lakes Blvd, Shakopee, MN 55379 USA",44.77691,-93.4683,4120,Shakopee,MN,55379
993,"5800 12th Ave E, Shakopee, MN 55379 USA",44.78467,-93.4424,5800,Shakopee,MN,55379
1248,"1195 Canterbury Rd S, Shakopee, MN 55379 USA",44.78545,-93.4688,1195,Shakopee,MN,55379
99,"1150 US 10 E, Staples, MN 56479 USA",46.35388,-94.7845,1150,Staples,MN,56479
1051,"230 2nd St S, Waite Park, MN 56387 USA",45.54849,-94.2201,230,Waite Park,MN,56387
184,"2055 1st Ave N, Windom, MN 56101 USA",43.87822,-95.1104,2055,Windom,MN,56101
1562,"1316 McMillan St, Worthington, MN 56187 USA",43.63081,-95.6026,1316,Worthington,MN,56187
1839,"501 Old Highway 19, Alton, MO 65606 USA",36.69708,-91.398,501,Alton,MO,65606
1495,"511 E 4th St, Appleton City, MO 64724 USA",38.19068,-94.0209,511,Appleton City,MO,64724
1743,"409 Eastside Dr, Ashland, MO 65010 USA",38.77809,-92.2511,409,Ashland,MO,65010
1512,"1429 S Elliott Ave, Aurora, MO 65605 USA",36.95878,-93.7193,1429,Aurora,MO,65605
306,"721 S Walnut St, Bernie, MO 63822 USA",36.66005,-89.9699,721,Bernie,MO,63822
165,"1110 S 25th St, Bethany, MO 64424 USA",40.25849,-94.0278,1110,Bethany,MO,64424
166,"1104 S 25th St, Bethany, MO 64424 USA",40.25851,-94.028,1104,Bethany,MO,64424
1909,"609 NE US Highway 60, Billings, MO 65610 USA",37.06942,-93.5494,609,Billings,MO,65610
777,"509 State Highway 25 S, Bloomfield, MO 63825 USA",36.88152,-89.9251,509,Bloomfield,MO,63825
611,"2565 S Springfield Ave, Bolivar, MO 65613 USA",37.59032,-93.4022,2565,Bolivar,MO,65613
1525,"1988 S Springfield Ave, Bolivar, MO 65613 USA",37.59578,-93.4023,1988,Bolivar,MO,65613
1316,"23596 N State Highway 21, Cadet, MO 63630 USA",38.07479,-90.6995,23596,Cadet,MO,63630
1146,"201 McElwain Dr, Cameron, MO 64429 USA",39.75702,-94.2381,201,Cameron,MO,64429
1520,"3373 S. Main Street, Cardwell, MO 63829 USA",36.04035,-90.2937,3373,Cardwell,MO,63829
861,"922 Truman Blvd, Caruthersville, MO 63830 USA",36.18992,-89.6679,922,Caruthersville,MO,63830
557,"600 S Washington St, Chillicothe, MO 64601 USA",39.79358,-93.554,600,Chillicothe,MO,64601
1097,"110 W State Highway 162, Clarkton, MO 63837 USA",36.45554,-89.9709,110,Clarkton,MO,63837
1749,"811 E Main St, Cole Camp, MO 65325 USA",38.46008,-93.2006,811,Cole Camp,MO,65325
96,"1208 N Desloge Dr, Desloge, MO 63601 USA",37.88056,-90.5105,1208,Desloge,MO,63601
1762,"400 N Washington St, Diamond, MO 64840 USA",36.99986,-94.3165,400,Diamond,MO,64840
1089,"345 Eisenhower St, Doolittle, MO 65401 USA",37.94057,-91.8802,345,Doolittle,MO,65401
1865,"300 W 4th St, Eldon, MO 65026 USA",38.34659,-92.5851,300,Eldon,MO,65026
832,"46 S Herren Ave, Ellsinore, MO 63937 USA",36.92524,-90.746,46,Ellsinore,MO,63937
974,"212 E Bass St, Fairview, MO 64842 USA",36.8206,-94.0851,212,Fairview,MO,64842
44,"917 Valley Creek Dr, Farmington, MO 63640 USA",37.79342,-90.4387,917,Farmington,MO,63640
911,"560 W Karsch Blvd, Farmington, MO 63640 USA",37.78843,-90.4297,560,Farmington,MO,63640
1463,"120 E Karsch Blvd, Farmington, MO 63640 USA",37.78613,-90.4191,120,Farmington,MO,63640
1218,"15932 US Highway 160, Forsyth, MO 65653 USA",36.68966,-93.1196,15932,Forsyth,MO,65653
45,"71 S State Route F, Garden City, MO 64747 USA",38.5653,-94.1939,71,Garden City,MO,64747
1616,"98 Old Highway 7, Garden City, MO 64747 USA",38.56487,-94.1918,98,Garden City,MO,64747
1423,"4675 W Highway 47, Hawk Point, MO 63349 USA",38.97405,-91.1282,4675,Hawk Point,MO,63349
439,"201 E Tilden St, Humansville, MO 65674 USA",37.79435,-93.5775,201,Humansville,MO,65674
1819,"5725 Highway 43, Joplin, MO 64804 USA",36.98656,-94.5516,5725,Joplin,MO,64804
1820,"1080 N Brown St, La Plata, MO 63549 USA",40.03212,-92.4878,1080,La Plata,MO,63549
225,"200 Brevco Plz Ste 208, Lake Saint Louis, MO 63367 USA",38.80347,-90.7847,200,Lake Saint Louis,MO,63367
226,"200 Brevco Plz Ste 207, Lake Saint Louis, MO 63367 USA",38.80362,-90.7847,200,Lake Saint Louis,MO,63367
228,"200 Brevco Plz, Lake Saint Louis, MO 63367 USA",38.80362,-90.7847,200,Lake Saint Louis,MO,63367
1543,"8025 Hawk Ridge Trl, Lake Saint Louis, MO 63367 USA",38.76671,-90.7724,8025,Lake Saint Louis,MO,63367
227,"202 Brevco Plz, Lake St Louis, MO 63367 USA",38.80361,-90.7844,202,Lake St Louis,MO,63367
672,"4717 Highway 50, Leslie, MO 63056 USA",38.419,-91.2341,4717,Leslie,MO,63056
1132,"120 W Highway 32, Licking, MO 65542 USA",37.52084,-91.7564,120,Licking,MO,65542
308,"3641 Highway 30, Lonedell, MO 63060 USA",38.30949,-90.8337,3641,Lonedell,MO,63060
277,"3209 Georgia St, Louisiana, MO 63353 USA",39.43488,-91.07,3209,Louisiana,MO,63353
1149,"503 N Douglass St, Malden, MO 63863 USA",36.56344,-89.9712,503,Malden,MO,63863
1798,"102 North St, Marble Hill, MO 63764 USA",37.30265,-89.9709,102,Marble Hill,MO,63764
153,"408 S Highway 60, Marionville, MO 65705 USA",36.99423,-93.6325,408,Marionville,MO,65705
216,"1191 Cherokee Dr, Marshall, MO 65340 USA",39.10734,-93.2143,1191,Marshall,MO,65340
734,"930 N Clay St, Memphis, MO 63555 USA",40.47078,-92.1719,930,Memphis,MO,63555
505,"1402 E Austin Blvd, Nevada, MO 64772 USA",37.83619,-94.3386,1402,Nevada,MO,64772
1830,"801 Us Highway 61, New Madrid, MO 63869 USA",36.43181,-89.6932,801,New Madrid,MO,63869
1750,"5232 S Business Highway 71, Pineville, MO 64856 USA",36.58253,-94.3953,5232,Pineville,MO,64856
1445,"909 W Clay Ave, Plattsburg, MO 64477 USA",39.56348,-94.4592,909,Plattsburg,MO,64477
1009,"810 E High St, Potosi, MO 63664 USA",37.92847,-90.7756,810,Potosi,MO,63664
159,"721 E Jefferson Ave, Richland, MO 65556 USA",37.85881,-92.3871,721,Richland,MO,65556
318,"27050 Mo Highway 133, Richland, MO 65556 USA",37.85698,-92.4043,27050,Richland,MO,65556
1052,"7372 Highway O, Robertsville, MO 63072 USA",38.41477,-90.814,7372,Robertsville,MO,63072
1429,"16273 E State Highway 76, Rocky Comfort, MO 64861 USA",36.71787,-94.2031,16273,Rocky Comfort,MO,64861
1266,"13421 Route C, Russellville, MO 65074 USA",38.50868,-92.446,13421,Russellville,MO,65074
1144,"10 Paul Parks Dr, Saint Clair, MO 63077 USA",38.35586,-90.9802,10,Saint Clair,MO,63077
1892,"10000 West Florissant Ave, Saint Louis, MO 63136 USA",38.7501,-90.2794,10000,Saint Louis,MO,63136
1290,"225 Saint Robert Blvd, Saint Robert, MO 65584 USA",37.82599,-92.1573,225,Saint Robert,MO,65584
653,"1315 High St, Sarcoxie, MO 64862 USA",37.07212,-94.1254,1315,Sarcoxie,MO,64862
823,"100 W Beech St, Shelbina, MO 63468 USA",39.69651,-92.04,100,Shelbina,MO,63468
448,"12951 Highway M, Stark City, MO 64866 USA",36.8774,-94.1914,12951,Stark City,MO,64866
19,"315 N Walnut St, Steele, MO 63877 USA",36.08617,-89.8271,315,Steele,MO,63877
1598,"1745 E 9th St, Trenton, MO 64683 USA",40.07472,-93.6002,1745,Trenton,MO,64683
650,"1807 Highway 63 S, Vienna, MO 65582 USA",38.17579,-91.9479,1807,Vienna,MO,65582
397,"499 E Veterans Memorial Pkwy, Warrenton, MO 63383 USA",38.82016,-91.1444,499,Warrenton,MO,63383
957,"18145 Hwy 45 North, Weston, MO 64098 USA",39.42104,-94.8939,18145,Weston,MO,64098
458,"4172 Highway 42, Bassfield, MS 39421 USA",31.49672,-89.7468,4172,Bassfield,MS,39421
814,"105 Highway 51 N, Batesville, MS 38606 USA",34.31237,-89.9448,105,Batesville,MS,38606
1396,"109 John R Lovelace Dr, Batesville, MS 38606 USA",34.30836,-89.9136,109,Batesville,MS,38606
1335,"100 State Hwy 12 East, Belzoni, MS 39038 USA",33.17296,-90.4974,100,Belzoni,MS,39038
1764,"403 Gaines Hwy # 61, Boyle, MS 38730 USA",33.70752,-90.7189,403,Boyle,MS,38730
172,"1540 W Government St, Brandon, MS 39042 USA",32.2842,-90.023,1540,Brandon,MS,39042
1130,"755 Highway 468, Brandon, MS 39042 USA",32.22484,-90.0306,755,Brandon,MS,39042
1756,"910 W Government St, Brandon, MS 39042 USA",32.27786,-89.9987,910,Brandon,MS,39042
282,"345 Highway 84 W, Brookhaven, MS 39601 USA",31.53469,-90.5,345,Brookhaven,MS,39601
909,"778 Brookway Blvd, Brookhaven, MS 39601 USA",31.5801,-90.4605,778,Brookhaven,MS,39601
1202,"1229 W Peace St, Canton, MS 39046 USA",32.6113,-90.0077,1229,Canton,MS,39046
1439,"1131 W Peace St, Canton, MS 39046 USA",32.61073,-90.0544,1131,Canton,MS,39046
1714,"4288 Highway 35 N, Carthage, MS 39051 USA",32.65469,-89.4928,4288,Carthage,MS,39051
451,"416 S State St, Clarksdale, MS 38614 USA",34.19114,-90.5732,416,Clarksdale,MS,38614
1998,"10155 Highway 51, Coldwater, MS 38618 USA",34.69824,-89.9812,10155,Coldwater,MS,38618
1763,"3171 Highway 13 N, Columbia, MS 39429 USA",31.13482,-89.6987,3171,Columbia,MS,39429
139,"1412 Main St, Columbus, MS 39701 USA",33.49641,-88.4156,1412,Columbus,MS,39701
413,"1928 Lake Lowndes Rd, Columbus, MS 39702 USA",33.44016,-88.3265,1928,Columbus,MS,39702
1425,"1820 Highway 72 E, Corinth, MS 38834 USA",34.91463,-88.5034,1820,Corinth,MS,38834
1845,"1808 Highway 72 E, Corinth, MS 38834 USA",34.91502,-88.5042,1808,Corinth,MS,38834
1018,"4824 Highway 3, Crenshaw, MS 38621 USA",34.50826,-90.1944,4824,Crenshaw,MS,38621
1942,"16399 Highway 16 E, De Kalb, MS 39328 USA",32.77497,-88.6442,16399,De Kalb,MS,39328
1813,"586 West Veterans Boulevard, Derma, MS 38839 USA",33.85594,-89.2956,586,Derma,MS,38839
40,"31201 Highway 12, Durant, MS 39063 USA",33.09885,-89.8913,31201,Durant,MS,39063
612,"502 Jackson St, Edwards, MS 39066 USA",32.33739,-90.5991,502,Edwards,MS,39066
826,"2173 Highway 590, Ellisville, MS 39437 USA",31.56439,-89.3677,2173,Ellisville,MS,39437
174,"1960 Veterans Memorial Blvd, Eupora, MS 39744 USA",33.52592,-89.2594,1960,Eupora,MS,39744
417,"657 River Road, Fayette, MS 39069 USA",31.71467,-91.0714,657,Fayette,MS,39069
119,"797 Lakeland Place, Flowood, MS 39232 USA",32.35447,-90.0193,797,Flowood,MS,39232
478,"2328 Lakeland Dr, Flowood, MS 39232 USA",32.32884,-90.1217,2328,Flowood,MS,39232
1685,"988 Top St, Flowood, MS 39232 USA",32.32797,-90.1217,988,Flowood,MS,39232
1732,"1693 Old Fannin Rd, Flowood, MS 39232 USA",32.34601,-90.0643,1693,Flowood,MS,39232
1938,"103 Plaza Drive Ext, Flowood, MS 39232 USA",32.35604,-90.0159,103,Flowood,MS,39232
1192,"219 N Woodland Dr, Forest, MS 39074 USA",32.36829,-89.478,219,Forest,MS,39074
1222,"2406 Ladnier Rd, Gautier, MS 39553 USA",30.37743,-88.6462,2406,Gautier,MS,39553
1632,"28 Red Bay Rd, Golden, MS 38847 USA",34.4889,-88.1867,28,Golden,MS,38847
1774,"24328 Highway 25 N, Golden, MS 38847 USA",34.35777,-88.3184,24328,Golden,MS,38847
423,"1983 Highway 82 E, Greenville, MS 38703 USA",33.39939,-91.027,1983,Greenville,MS,38703
322,"2002 Highway 82 W, Greenwood, MS 38930 USA",33.52805,-90.218,2002,Greenwood,MS,38930
28,"445 American Way, Grenada, MS 38901 USA",33.83997,-89.8275,445,Grenada,MS,38901
124,"1356 Sunset Dr, Grenada, MS 38901 USA",33.77991,-89.8274,1356,Grenada,MS,38901
765,"100 N Dr Martin Luther King Jr Blvd, Grenada, MS 38901 USA",33.78511,-89.8093,100,Grenada,MS,38901
64,"4084 U S Highway 49, Hattiesburg, MS 39401 USA",31.19475,-89.254,4084,Hattiesburg,MS,39401
593,"100 W Red St, Hattiesburg, MS 39401 USA",31.33916,-89.3021,100,Hattiesburg,MS,39401
763,"5060 Hardy St, Hattiesburg, MS 39402 USA",31.32165,-89.373,5060,Hattiesburg,MS,39402
804,"2610 Lincoln Rd, Hattiesburg, MS 39402 USA",31.30374,-89.3298,2610,Hattiesburg,MS,39402
938,"6427 U S Highway 49, Hattiesburg, MS 39401 USA",31.34497,-89.3313,6427,Hattiesburg,MS,39401
1106,"6082 U S Highway 98, Hattiesburg, MS 39402 USA",31.32113,-89.38,6082,Hattiesburg,MS,39402
1503,"5895 U S Highway 49, Hattiesburg, MS 39402 USA",31.30818,-89.3191,5895,Hattiesburg,MS,39402
1775,"1868 Old Highway 24, Hattiesburg, MS 39402 USA",31.28449,-89.4677,1868,Hattiesburg,MS,39402
1253,"28083 Highway 28, Hazlehurst, MS 39083 USA",31.87567,-90.4005,28083,Hazlehurst,MS,39083
1971,"39 Highway 5, Hickory Flat, MS 38633 USA",34.61826,-89.1847,39,Hickory Flat,MS,38633
701,"710 Desoto Cv, Horn Lake, MS 38637 USA",34.96325,-90.0031,710,Horn Lake,MS,38637
875,"3091 Goodman Rd W, Horn Lake, MS 38637 USA",34.96222,-90.0463,3091,Horn Lake,MS,38637
1068,"3230 Goodman Rd W, Horn Lake, MS 38637 USA",34.96327,-90.05,3230,Horn Lake,MS,38637
1507,"3100 Goodman Rd W, Horn Lake, MS 38637 USA",34.96312,-90.0475,3100,Horn Lake,MS,38637
348,"7010 Highway 614, Hurley, MS 39555 USA",30.65291,-88.4898,7010,Hurley,MS,39555
756,"7382 S Siwell Rd, Jackson, MS 39272 USA",32.18833,-90.2631,7382,Jackson,MS,39272
1504,"3103 Audubon Dr, Laurel, MS 39440 USA",31.7286,-89.1378,3103,Laurel,MS,39440
1954,"806 S 16th Ave, Laurel, MS 39440 USA",31.67875,-89.1473,806,Laurel,MS,39440
1720,"332 E Main St, Liberty, MS 39645 USA",31.15821,-90.8055,332,Liberty,MS,39645
327,"5906 Highway 494, Little Rock, MS 39337 USA",32.52636,-89.0259,5906,Little Rock,MS,39337
1347,"4187 Highway 15, Louin, MS 39338 USA",32.06477,-89.2614,4187,Louin,MS,39338
481,"5575 Highway 397, Louisville, MS 39339 USA",32.9832,-88.9167,5575,Louisville,MS,39339
71,"3198 Old 63 N, Lucedale, MS 39452 USA",31.00039,-88.5382,3198,Lucedale,MS,39452
276,"106 Felicia Campbell Rd, Lucedale, MS 39452 USA",30.9664,-88.6628,106,Lucedale,MS,39452
1045,"6133 Highway 613, Lucedale, MS 39452 USA",30.81491,-88.5197,6133,Lucedale,MS,39452
1670,"25597 Highway 613, Lucedale, MS 39452 USA",30.71367,-88.5135,25597,Lucedale,MS,39452
1057,"1146 Highway 51, Madison, MS 39110 USA",32.46911,-90.1068,1146,Madison,MS,39110
554,"5321 Dale Dr, Marion, MS 39342 USA",32.41643,-88.6548,5321,Marion,MS,39342
1579,"9806 Highway 495, Meridian, MS 39305 USA",32.52318,-88.7655,9806,Meridian,MS,39305
160,"5129 Highway 80, Morton, MS 39117 USA",32.35241,-89.6487,5129,Morton,MS,39117
1697,"16917 Highway 63, Moss Point, MS 39562 USA",30.58691,-88.5624,16917,Moss Point,MS,39562
311,"395 John R Junkin Dr, Natchez, MS 39120 USA",31.54187,-91.4011,395,Natchez,MS,39120
677,"140 Highway 61 S, Natchez, MS 39120 USA",31.51779,-91.387,140,Natchez,MS,39120
1975,"188 Northside Dr, Newton, MS 39345 USA",32.33329,-89.1429,188,Newton,MS,39345
1310,"28434 MS Highway 32, Oakland, MS 38948 USA",34.07623,-89.8942,28434,Oakland,MS,38948
680,"201 N Church St, Okolona, MS 38860 USA",34.00745,-88.756,201,Okolona,MS,38860
1493,"12775 Highway 18 W, Pachuta, MS 39347 USA",32.05582,-88.8995,12775,Pachuta,MS,39347
36,"674 Sunrise Rd, Petal, MS 39465 USA",31.32085,-89.1846,674,Petal,MS,39465
713,"9228 Highway 42, Petal, MS 39465 USA",31.37598,-89.1105,9228,Petal,MS,39465
1951,"1253 Highway 42, Petal, MS 39465 USA",31.35074,-89.196,1253,Petal,MS,39465
8,"915 Holland Ave, Philadelphia, MS 39350 USA",32.7585,-89.1059,915,Philadelphia,MS,39350
252,"292A W Beacon St, Philadelphia, MS 39350 USA",32.77132,-89.1236,292A,Philadelphia,MS,39350
1301,"1534 Highway 16 W, Philadelphia, MS 39350 USA",32.77384,-89.2096,1534,Philadelphia,MS,39350
556,"199 Memorial Blvd, Picayune, MS 39466 USA",30.51724,-89.6802,199,Picayune,MS,39466
1488,"1962 Highway 11 S, Picayune, MS 39466 USA",30.47406,-89.6919,1962,Picayune,MS,39466
1586,"1224 W Union Rd, Picayune, MS 39466 USA",30.57338,-89.592,1224,Picayune,MS,39466
1894,"1501 Jackson Landing Rd, Picayune, MS 39466 USA",30.51434,-89.6969,1501,Picayune,MS,39466
1259,"2248 Simpson Highway 28 W, Pinola, MS 39149 USA",31.88005,-89.9626,2248,Pinola,MS,39149
1260,"552 Hentz Rd, Pope, MS 38658 USA",34.22532,-89.9293,552,Pope,MS,38658
984,"8 H P Ln, Prentiss, MS 39474 USA",31.5985,-89.867,8,Prentiss,MS,39474
43,"825 E Main St, Raymond, MS 39154 USA",32.25493,-90.4084,825,Raymond,MS,39154
132,"1187 Highway 49 S, Richland, MS 39218 USA",32.24192,-90.1653,1187,Richland,MS,39218
1727,"12776 Highway 61 N, Robinsonville, MS 38664 USA",34.83043,-90.2831,12776,Robinsonville,MS,38664
1940,"315 South Front Street, Sandersville, MS 39477 USA",31.78462,-89.0367,315,Sandersville,MS,39477
887,"28010 Highway 16 E, Scooba, MS 39358 USA",32.83031,-88.4641,28010,Scooba,MS,39358
566,"341 Highway 12 W, Starkville, MS 39759 USA",33.45379,-88.8233,341,Starkville,MS,39759
1603,"526 Dr Martin Luther King Jr Dr W, Starkville, MS 39759 USA",33.46489,-88.831,526,Starkville,MS,39759
1715,"125 Erwin Rd, Stonewall, MS 39363 USA",32.13626,-88.7901,125,Stonewall,MS,39363
1261,"1144 Highway 15, Stringer, MS 39481 USA",31.86713,-89.2658,1144,Stringer,MS,39481
1767,"11105 Highway 6 W, Thaxton, MS 38871 USA",34.28827,-89.1832,11105,Thaxton,MS,38871
1337,"15905 Highway 57, Vancleave, MS 39565 USA",30.57424,-88.721,15905,Vancleave,MS,39565
187,"1320 Clay St, Vicksburg, MS 39183 USA",32.34885,-90.8743,1320,Vicksburg,MS,39183
391,"2450 Highway 61 N, Vicksburg, MS 39183 USA",32.37983,-90.8264,2450,Vicksburg,MS,39183
561,"1305 Mission 66, Vicksburg, MS 39180 USA",32.34703,-90.864,1305,Vicksburg,MS,39180
923,"132 Highway 35 South, Walnut Grove, MS 39189 USA",32.73664,-89.537,132,Walnut Grove,MS,39189
1770,"803 Highway 90, Waveland, MS 39576 USA",30.29922,-89.3978,803,Waveland,MS,39576
645,"4594 Highway 84, Waynesboro, MS 39367 USA",31.70317,-88.9083,4594,Waynesboro,MS,39367
1541,"1601 Azalea Dr, Waynesboro, MS 39367 USA",31.69752,-88.6279,1601,Waynesboro,MS,39367
317,"614 Central Ave W, Wiggins, MS 39577 USA",30.8514,-89.1437,614,Wiggins,MS,39577
1331,"1430 Jerry Clower Blvd, Yazoo City, MS 39194 USA",32.86297,-90.3928,1430,Yazoo City,MS,39194
1739,"315 E Commercial Ave, Anaconda, MT 59711 USA",46.12938,-112.949,315,Anaconda,MT,59711
255,"19771 Rick Jones Way, Butte, MT 59750 USA",45.97175,-112.69,19771,Butte,MT,59750
752,"3221 Harrison Ave, Butte, MT 59701 USA",45.97782,-112.509,3221,Butte,MT,59701
1665,"4945 US Highway 287 N, Ennis, MT 59729 USA",45.35415,-111.733,4945,Ennis,MT,59729
35,"619 First Street, Glasgow, MT 59230 USA",48.20046,-106.629,619,Glasgow,MT,59230
1225,"2810 W Towne St, Glendive, MT 59330 USA",47.09093,-104.773,2810,Glendive,MT,59330
935,"40 W Idaho St, Kalispell, MT 59901 USA",48.20138,-114.316,40,Kalispell,MT,59901
1320,"501 W Legion St, Whitehall, MT 59759 USA",45.87059,-112.106,501,Whitehall,MT,59759
1090,"591 E Main St, Candor, NC 27229 USA",35.29557,-79.7337,591,Candor,NC,27229
190,"3005 Centennial Blvd, Claremont, NC 28610 USA",35.72062,-81.1558,3005,Claremont,NC,28610
1769,"7460 Albert Street, Dublin, NC 28332 USA",34.65879,-78.7253,7460,Dublin,NC,28332
265,"34230 US Highway 264, Engelhard, NC 27824 USA",35.51041,-76.0129,34230,Engelhard,NC,27824
735,"31 Poplar Grove Rd, Franklin, NC 28734 USA",35.1149,-83.3896,31,Franklin,NC,28734
1201,"485 Main St, Hudson, NC 28638 USA",35.84953,-81.4958,485,Hudson,NC,28638
1506,"307 Catawba Ave, Old Fort, NC 28762 USA",35.62468,-82.1807,307,Old Fort,NC,28762
1828,"1100 E 10th St, Roanoke Rapids, NC 27870 USA",36.45073,-77.6461,1100,Roanoke Rapids,NC,27870
558,"417 S Main St, Sparta, NC 28675 USA",36.50134,-81.1155,417,Sparta,NC,28675
533,"204 N Norwood St, Wallace, NC 28466 USA",34.73721,-77.9932,204,Wallace,NC,28466
711,"406 Westview Ln, Stanley, ND 58784 USA",48.3061,-102.4,406,Stanley,ND,58784
1170,"801 E Beaton Dr, West Fargo, ND 58078 USA",46.84931,-96.8868,801,West Fargo,ND,58078
1581,"2261 Rustad Ln E, West Fargo, ND 58078 USA",46.84606,-96.8889,2261,West Fargo,ND,58078
351,"1324 W 3rd St, Alliance, NE 69301 USA",42.09726,-102.892,1324,Alliance,NE,69301
1155,"713 Flack Ave, Alliance, NE 69301 USA",42.10194,-102.857,713,Alliance,NE,69301
1208,"212 Chestnut St, Arapahoe, NE 68922 USA",40.3068,-99.8919,212,Arapahoe,NE,68922
833,"1924 S E St, Broken Bow, NE 68822 USA",41.40136,-99.6538,1924,Broken Bow,NE,68822
1869,"1820 10th St, Gering, NE 69341 USA",41.82708,-103.66,1820,Gering,NE,69341
1611,"1133 Burlington St, Holdrege, NE 68949 USA",40.44639,-99.3804,1133,Holdrege,NE,68949
1283,"1627 2nd Ave, Kearney, NE 68847 USA",40.69114,-99.0837,1627,Kearney,NE,68847
179,"500 N Jackson St, Lexington, NE 68850 USA",40.77805,-99.7383,500,Lexington,NE,68850
1317,"2505 Plum Creek Pkwy, Lexington, NE 68850 USA",40.75025,-99.741,2505,Lexington,NE,68850
2000,"1352 N Brown Ave, Minden, NE 68959 USA",40.50754,-98.9513,1352,Minden,NE,68959
204,"102 E Philip Ave, North Platte, NE 69101 USA",41.1256,-100.763,102,North Platte,NE,69101
1391,"521 Rodeo Rd, North Platte, NE 69101 USA",41.14732,-100.766,521,North Platte,NE,69101
1604,"320 W 16th St, Schuyler, NE 68661 USA",41.45325,-97.0631,320,Schuyler,NE,68661
945,"1469 294th, Seward, NE 68434 USA",40.89592,-97.1225,1469,Seward,NE,68434
1635,"1622 Dakota Ave, South Sioux City, NE 68776 USA",42.474,-96.4129,1622,South Sioux City,NE,68776
1821,"1030 W 21st St, South Sioux City, NE 68776 USA",42.46921,-96.426,1030,South Sioux City,NE,68776
682,"435 E 3rd St, Superior, NE 68978 USA",40.01824,-98.0671,435,Superior,NE,68978
1896,"701 21st Cir, Wisner, NE 68791 USA",41.99457,-96.9267,701,Wisner,NE,68791
575,"3417 S Holen Ave, York, NE 68467 USA",40.83041,-97.5949,3417,York,NE,68467
1920,"3000 Enterprise Ave, York, NE 68467 USA",40.89355,-97.5909,3000,York,NE,68467
1360,"19 West St, Ashland, NH 03217 USA",43.69918,-71.6437,19,Ashland,NH,03217
479,"212 King St, Boscawen, NH 03303 USA",43.31581,-71.6209,212,Boscawen,NH,03303
710,"360 Summer St, Bristol, NH 03222 USA",43.59765,-71.7269,360,Bristol,NH,03222
291,"114 Fisherville Rd, Concord, NH 03303 USA",43.25965,-71.5804,114,Concord,NH,03303
299,"7 White Mountain Hwy, Conway, NH 03818 USA",43.97922,-71.1163,7,Conway,NH,03818
1180,"1727 Dover Rd, Epsom, NH 03234 USA",43.22459,-71.3454,1727,Epsom,NH,03234
1597,"84 Sawyer Brook Plz, Grantham, NH 03753 USA",43.50611,-72.1623,84,Grantham,NH,03753
164,"15 Main St, Keene, NH 03431 USA",42.93318,-72.2788,15,Keene,NH,03431
88,"193 Endicott St N, Laconia, NH 03246 USA",43.60592,-71.4639,193,Laconia,NH,03246
507,"535 Union Ave, Laconia, NH 03246 USA",43.54094,-71.4654,535,Laconia,NH,03246
1529,"815 Meadow St, Littleton, NH 03561 USA",44.30057,-71.8042,815,Littleton,NH,03561
1242,"54 Main St, Pittsfield, NH 03263 USA",43.30434,-71.3263,54,Pittsfield,NH,03263
122,"30 Plaza Heights Rd, West Lebanon, NH 03784 USA",43.62517,-72.318,30,West Lebanon,NH,03784
1803,"10 Main St, Winchester, NH 03470 USA",42.76698,-72.3896,10,Winchester,NH,03470
584,"567 County Road 519, Belvidere, NJ 07823 USA",40.83739,-75.0268,567,Belvidere,NJ,07823
690,"20 W Kings Hwy, Mount Ephraim, NJ 08059 USA",39.88101,-75.0867,20,Mount Ephraim,NJ,08059
1309,"1501 W Main St, Artesia, NM 88210 USA",32.8418,-104.416,1501,Artesia,NM,88210
1956,"520 W Aztec Blvd, Aztec, NM 87410 USA",36.82627,-108.007,520,Aztec,NM,87410
510,"1001 E Broadway Ave, Bloomfield, NM 87413 USA",36.71073,-107.965,1001,Bloomfield,NM,87413
1660,"709 W Broadway Ave, Bloomfield, NM 87413 USA",36.71071,-107.987,709,Bloomfield,NM,87413
1639,"12370 54, Carrizozo, NM 88301 USA",33.64174,-105.877,12370,Carrizozo,NM,88301
1380,"921 State Highway 17, Chama, NM 87520 USA",36.89863,-106.582,921,Chama,NM,87520
1963,"537 S County Line Dr, Chaparral, NM 88081 USA",32.03587,-106.377,537,Chaparral,NM,88081
314,"672 State Road 76, Chimayo, NM 87522 USA",36.00515,-105.956,672,Chimayo,NM,87522
205,"2001 N Prince St, Clovis, NM 88101 USA",34.41826,-103.195,2001,Clovis,NM,88101
1150,"601 Texas St, Clovis, NM 88101 USA",34.437,-103.198,601,Clovis,NM,88101
1370,"1424 W 7th St, Clovis, NM 88101 USA",34.40516,-103.223,1424,Clovis,NM,88101
1474,"3101 N Prince St, Clovis, NM 88101 USA",34.42987,-103.196,3101,Clovis,NM,88101
1538,"2005 N Prince St, Clovis, NM 88101 USA",34.41876,-103.196,2005,Clovis,NM,88101
1822,"2121 W 21st St, Clovis, NM 88101 USA",34.41888,-103.231,2121,Clovis,NM,88101
897,"114 E 3rd Street, Deming, NM 88030 USA",32.27517,-107.76,114,Deming,NM,88030
398,"19408 US Highway 84/285, Hernandez, NM 87537 USA",36.0517,-106.113,19408,Hernandez,NM,87537
527,"1330 W Joe Harvey Blvd, Hobbs, NM 88240 USA",32.74073,-103.152,1330,Hobbs,NM,88240
1354,"1305 N Main Ave, Lovington, NM 88260 USA",32.96344,-103.348,1305,Lovington,NM,88260
789,"104 East First Street, Magdalena, NM 87825 USA",34.11891,-107.239,104,Magdalena,NM,87825
1400,"402 West Highway, Mountainair, NM 87036 USA",34.52034,-106.241,402,Mountainair,NM,87036
1558,"1200 S 2nd St, Raton, NM 87740 USA",36.88319,-104.441,1200,Raton,NM,87740
357,"2212 W 2nd St, Roswell, NM 88201 USA",33.39368,-104.556,2212,Roswell,NM,88201
517,"5829 S Main St, Roswell, NM 88203 USA",33.32491,-104.522,5829,Roswell,NM,88203
1744,"5000 N Main St, Roswell, NM 88201 USA",33.45686,-104.524,5000,Roswell,NM,88201
1523,"179 Maxwell Avenue, Springer, NM 87747 USA",36.35853,-104.596,179,Springer,NM,87747
472,"1050 Paseo del Pueblo Sur, Taos, NM 87571 USA",36.38288,-105.588,1050,Taos,NM,87571
69,"111 N A, Tatum, NM 88267 USA",33.25706,-103.318,111,Tatum,NM,88267
198,"28691 Us Hwy 70, Tinnie, NM 88351 USA",33.37256,-105.246,28691,Tinnie,NM,88351
1020,"100 Dollar Pkwy, Tularosa, NM 88352 USA",33.07397,-106.019,100,Tularosa,NM,88352
1517,"1902 NM Highway 602, Vanderwagen, NM 87326 USA",35.23538,-108.765,1902,Vanderwagen,NM,87326
60,"1101 Nm 68 S, Velarde, NM 87582 USA",36.13277,-106.001,1101,Velarde,NM,87582
136,"4218 Ruby Vista Dr, Elko, NV 89801 USA",40.86784,-115.734,4218,Elko,NV,89801
1728,"1081 Hwy 95, Hawthorne, NV 89415 USA",38.53104,-118.625,1081,Hawthorne,NV,89415
565,"640 Humboldt Ave, Wells, NV 89835 USA",41.10637,-114.974,640,Wells,NV,89835
427,"17942 177, Adams Center, NY 13606 USA",43.8665,-76.0137,17942,Adams Center,NY,13606
380,"1991 Western Ave, Albany, NY 12203 USA",42.69636,-73.8824,1991,Albany,NY,12203
1022,"1870 Western Ave, Albany, NY 12203 USA",42.69231,-73.874,1870,Albany,NY,12203
1226,"3076 Miner Farm Rd, Altona, NY 12910 USA",44.88896,-73.6506,3076,Altona,NY,12910
1707,"365 East Main Street, Amsterdam, NY 12010 USA",42.92599,-74.1743,365,Amsterdam,NY,12010
1469,"9718 US Route 9W, Athens, NY 12015 USA",42.2899,-73.8529,9718,Athens,NY,12015
1058,"148 Grant Ave, Auburn, NY 13021 USA",42.94369,-76.5507,148,Auburn,NY,13021
1329,"218 Grant Ave, Auburn, NY 13021 USA",42.94923,-76.5469,218,Auburn,NY,13021
1947,"8427 Miller Hill Rd, Averill Park, NY 12018 USA",42.6376,-73.5418,8427,Averill Park,NY,12018
1119,"95 S Main St, Avoca, NY 14809 USA",42.40126,-77.42,95,Avoca,NY,14809
344,"7078 State Route 415, Bath, NY 14810 USA",42.34421,-77.3384,7078,Bath,NY,14810
1479,"165 Daniel Zenker Dr, Big Flats, NY 14814 USA",42.14609,-76.9328,165,Big Flats,NY,14814
1160,"147 Industrial Park Dr, Binghamton, NY 13904 USA",42.09674,-75.8256,147,Binghamton,NY,13904
790,"5150 North St, Canandaigua, NY 14424 USA",42.90439,-77.2966,5150,Canandaigua,NY,14424
1513,"3388 Seneca Tpke, Canastota, NY 13032 USA",43.06881,-75.7522,3388,Canastota,NY,13032
1741,"1140 Owego Rd, Candor, NY 13743 USA",42.16544,-76.3124,1140,Candor,NY,13743
1265,"11131 State Route 26, Carthage, NY 13619 USA",43.96153,-75.6192,11131,Carthage,NY,13619
287,"3060 East Ave, Central Square, NY 13036 USA",43.28803,-76.1321,3060,Central Square,NY,13036
1800,"12644 State Route 12E, Chaumont, NY 13622 USA",44.0597,-76.1191,12644,Chaumont,NY,13622
990,"5858 State Route 31, Cicero, NY 13039 USA",43.175,-76.1144,5858,Cicero,NY,13039
1062,"5813 Ny-31, Cicero, NY 13039 USA",43.17675,-76.1179,5813,Cicero,NY,13039
886,"5743 Telephone Road Ext, Cincinnatus, NY 13040 USA",42.54271,-75.8967,5743,Cincinnatus,NY,13040
539,"77 Delaware Ave, Cohoes, NY 12047 USA",42.77219,-73.6852,77,Cohoes,NY,12047
1162,"232 Denison Pkwy E, Corning, NY 14830 USA",42.14062,-77.0454,232,Corning,NY,14830
1185,"5 S Buffalo St, Corning, NY 14830 USA",42.15347,-77.0793,5,Corning,NY,14830
302,"3205 Route 22, Dover Plains, NY 12522 USA",41.74325,-73.5836,3205,Dover Plains,NY,12522
1230,"10517 Bennett Rd, Dunkirk, NY 14048 USA",42.4572,-79.3123,10517,Dunkirk,NY,14048
716,"1957 State Highway 80, Edmeston, NY 13335 USA",42.70035,-75.2231,1957,Edmeston,NY,13335
247,"217 Washington Ave, Endicott, NY 13760 USA",42.09926,-76.0476,217,Endicott,NY,13760
1361,"1805 E Main St, Endicott, NY 13760 USA",42.10213,-76.0412,1805,Endicott,NY,13760
1905,"43 E Main St, Falconer, NY 14733 USA",42.12034,-79.1974,43,Falconer,NY,14733
695,"46 N 1st St, Fulton, NY 13069 USA",43.32696,-76.4186,46,Fulton,NY,13069
1245,"252 S 2nd St, Fulton, NY 13069 USA",43.31901,-76.4134,252,Fulton,NY,13069
737,"653 Saratoga Rd, Gansevoort, NY 12831 USA",43.12379,-73.7696,653,Gansevoort,NY,12831
1287,"810 Canandaigua Rd, Geneva, NY 14456 USA",42.85728,-77.012,810,Geneva,NY,14456
173,"84 Bay St, Glens Falls, NY 12801 USA",43.31429,-73.6481,84,Glens Falls,NY,12801
63,"345 E Main St, Gouverneur, NY 13642 USA",44.34001,-75.4563,345,Gouverneur,NY,13642
839,"36558 State Highway 23, Grand Gorge, NY 12434 USA",42.36807,-74.5042,36558,Grand Gorge,NY,12434
992,"30 Veterans Memorial Dr, Green Island, NY 12183 USA",42.7557,-73.6908,30,Green Island,NY,12183
1232,"25 Church St, Hoosick Falls, NY 12090 USA",42.90093,-73.3523,25,Hoosick Falls,NY,12090
1607,"2447 Route 55, Hopewell Junction, NY 12533 USA",41.62925,-73.6955,2447,Hopewell Junction,NY,12533
627,"70 Main St, Hudson Falls, NY 12839 USA",43.29697,-73.5845,70,Hudson Falls,NY,12839
770,"114 Central Ave, Ilion, NY 13357 USA",43.01781,-75.0327,114,Ilion,NY,13357
972,"8 W Main St, Le Roy, NY 14482 USA",42.97819,-77.993,8,Le Roy,NY,14482
1729,"280 State Route 31, Macedon, NY 14502 USA",43.06356,-77.3628,280,Macedon,NY,14502
1864,"3321 State Route 11, Malone, NY 12953 USA",44.84801,-74.319,3321,Malone,NY,12953
46,"9447 River Rd, Marcy, NY 13403 USA",43.13562,-75.2612,9447,Marcy,NY,13403
1790,"3364 Main St, Mexico, NY 13114 USA",43.46055,-76.2377,3364,Mexico,NY,13114
589,"1 W Main St, Mohawk, NY 13407 USA",43.01106,-75.0047,1,Mohawk,NY,13407
488,"2706 Military Rd, Niagara Falls, NY 14304 USA",43.10762,-78.9861,2706,Niagara Falls,NY,14304
797,"265 N Union St, Olean, NY 14760 USA",42.08102,-78.4303,265,Olean,NY,14760
404,"1735 State Highway 205, Oneonta, NY 13820 USA",42.54,-75.0742,1735,Oneonta,NY,13820
1168,"214 W Bridge St, Oswego, NY 13126 USA",43.45366,-76.5266,214,Oswego,NY,13126
296,"226 Liberty St, Penn Yan, NY 14527 USA",42.6602,-77.0565,226,Penn Yan,NY,14527
1117,"76 Main St, Philmont, NY 12565 USA",42.24833,-73.652,76,Philmont,NY,12565
1717,"966 State Route 9, Queensbury, NY 12804 USA",43.33973,-73.6808,966,Queensbury,NY,12804
903,"1610 Black River Blvd N, Rome, NY 13440 USA",43.22918,-75.44,1610,Rome,NY,13440
76,"511 Duanesburg Rd, Rotterdam, NY 12306 USA",42.7866,-73.9977,511,Rotterdam,NY,12306
1430,"571 Maple Ave, Saratoga Springs, NY 12866 USA",43.1131,-73.7711,571,Saratoga Springs,NY,12866
77,"511 Duanesburg Rd, Schenectady, NY 12306 USA",42.78665,-73.9977,511,Schenectady,NY,12306
1342,"1269 Highbridge Rd, Schenectady, NY 12303 USA",42.76901,-73.9147,1269,Schenectady,NY,12303
363,"222 Mohawk Ave, Scotia, NY 12302 USA",42.82735,-73.9656,222,Scotia,NY,12302
1357,"4055 Merrick Rd, Seaford, NY 11783 USA",40.66718,-73.4831,4055,Seaford,NY,11783
1172,"107 Main St, South Glens Falls, NY 12803 USA",43.30049,-73.6354,107,South Glens Falls,NY,12803
976,"8079 S Main St, Springwater, NY 14560 USA",42.63234,-77.597,8079,Springwater,NY,14560
1671,"27531 Wilson Rd, Theresa, NY 13691 USA",44.22355,-75.8219,27531,Theresa,NY,13691
1466,"1046 Kinderhook St, Valatie, NY 12184 USA",42.41533,-73.6817,1046,Valatie,NY,12184
1456,"3737 Vestal Pkwy E, Vestal, NY 13850 USA",42.09654,-75.9809,3737,Vestal,NY,13850
1563,"1200 Vestal Pkwy E, Vestal, NY 13850 USA",42.09143,-76.0297,1200,Vestal,NY,13850
986,"120 Victor Heights Pkwy, Victor, NY 14564 USA",42.99551,-77.4445,120,Victor,NY,14564
1238,"607 Rowley Rd, Victor, NY 14564 USA",43.00953,-77.4435,607,Victor,NY,14564
954,"3805 Main St, Warrensburg, NY 12885 USA",43.49382,-73.7715,3805,Warrensburg,NY,12885
606,"20852 State Route 3, Watertown, NY 13601 USA",43.97371,-75.9567,20852,Watertown,NY,13601
1398,"21306 State Route 12F, Watertown, NY 13601 USA",43.98918,-75.9467,21306,Watertown,NY,13601
1161,"408 E 4th St, Watkins Glen, NY 14891 USA",42.38263,-76.8678,408,Watkins Glen,NY,14891
1017,"4240 Bolivar Rd, Wellsville, NY 14895 USA",42.12625,-77.97,4240,Wellsville,NY,14895
1269,"1100 Old Country Rd, Westbury, NY 11590 USA",40.74416,-73.6026,1100,Westbury,NY,11590
736,"653 Saratoga Rd, Wilton, NY 12831 USA",43.12379,-73.7696,653,Wilton,NY,12831
1306,"5666 Whiskey Hill Rd, Wolcott, NY 14590 USA",43.20893,-76.8134,5666,Wolcott,NY,14590
1519,"22465 State Route 62, Alliance, OH 44601 USA",40.90109,-81.0781,22465,Alliance,OH,44601
1011,"3790 Waterford Pkwy, Amelia, OH 45102 USA",39.05154,-84.2516,3790,Amelia,OH,45102
1271,"700 N Leavitt Rd, Amherst, OH 44001 USA",41.41549,-82.2096,700,Amherst,OH,44001
1776,"485 N Aurora Rd, Aurora, OH 44202 USA",41.33095,-81.3625,485,Aurora,OH,44202
518,"200 E Sandusky Ave, Bellefontaine, OH 43311 USA",40.36209,-83.7573,200,Bellefontaine,OH,43311
1432,"1138 N Main St, Bellefontaine, OH 43311 USA",40.37823,-83.7553,1138,Bellefontaine,OH,43311
720,"630 Southwest St Apt 640, Bellevue, OH 44811 USA",41.2602,-82.8413,630,Bellevue,OH,44811
84,"1215 Washington Blvd, Belpre, OH 45714 USA",39.27416,-81.5846,1215,Belpre,OH,45714
1490,"531 W Plane St, Bethel, OH 45106 USA",38.96294,-84.0852,531,Bethel,OH,45106
699,"10800 Hebron Rd, Buckeye Lake, OH 43008 USA",39.9402,-82.4807,10800,Buckeye Lake,OH,43008
1060,"651 Lincoln Ave, Cadiz, OH 43907 USA",40.28233,-81.0008,651,Cadiz,OH,43907
592,"4621 Tuscarawas St W, Canton, OH 44708 USA",40.79592,-81.4321,4621,Canton,OH,44708
1628,"4981 Dressler Rd NW, Canton, OH 44718 USA",40.85332,-81.4326,4981,Canton,OH,44718
1193,"6410 Wilmington Pike, Centerville, OH 45459 USA",39.64293,-84.1101,6410,Centerville,OH,45459
9,"502 Water St, Chardon, OH 44024 USA",41.58126,-81.2131,502,Chardon,OH,44024
1807,"1688 Western Ave, Chillicothe, OH 45601 USA",39.33674,-83.0275,1688,Chillicothe,OH,45601
1415,"4394 Glen Este Withamsville Rd, Cincinnati, OH 45245 USA",39.0929,-84.2626,4394,Cincinnati,OH,45245
1444,"802 Eastgate South Dr, Cincinnati, OH 45245 USA",39.09586,-84.2691,802,Cincinnati,OH,45245
1010,"23501 US Highway 23 S, Circleville, OH 43113 USA",39.60301,-82.9518,23501,Circleville,OH,43113
1080,"1043 Chamberlain Blvd Apt 1500, Conneaut, OH 44030 USA",41.94529,-80.5852,1043,Conneaut,OH,44030
1866,"704 Mad River St, Forest, OH 45843 USA",40.79454,-83.5162,704,Forest,OH,45843
890,"665 E 2nd St, Franklin, OH 45005 USA",39.56412,-84.29,665,Franklin,OH,45005
1300,"63 Ohio River Plz, Gallipolis, OH 45631 USA",38.82557,-82.168,63,Gallipolis,OH,45631
802,"458 Home St, Georgetown, OH 45121 USA",38.85767,-83.8987,458,Georgetown,OH,45121
807,"752 S Main St, Georgetown, OH 45121 USA",38.85803,-83.9021,752,Georgetown,OH,45121
950,"25 High St, Glouster, OH 45732 USA",39.50065,-82.0849,25,Glouster,OH,45732
321,"3003 Bridgewater Landing Drive, Hamilton, OH 45011 USA",39.39183,-84.5143,3003,Hamilton,OH,45011
1376,"199 S Riverside Dr, Hamilton, OH 45011 USA",39.42939,-84.5371,199,Hamilton,OH,45011
1379,"4131 Hamilton Middletown Rd, Hamilton, OH 45011 USA",39.41444,-84.4779,4131,Hamilton,OH,45011
297,"222 W High St, Hicksville, OH 43526 USA",41.29137,-84.7667,222,Hicksville,OH,43526
499,"1410 N High St, Hillsboro, OH 45133 USA",39.22252,-83.6082,1410,Hillsboro,OH,45133
822,"1420 N High St, Hillsboro, OH 45133 USA",39.22304,-83.6087,1420,Hillsboro,OH,45133
844,"15884 Louisville St, Homeworth, OH 44634 USA",40.83407,-81.1007,15884,Homeworth,OH,44634
1952,"23021 Coshocton Rd, Howard, OH 43028 USA",40.40898,-82.3329,23021,Howard,OH,43028
452,"997 E Main St, Jackson, OH 45640 USA",39.03505,-82.6266,997,Jackson,OH,45640
1179,"113 W Pike St, Jackson Center, OH 45334 USA",40.43947,-84.0408,113,Jackson Center,OH,45334
912,"350 S Main St, Kenton, OH 43326 USA",40.64374,-83.6091,350,Kenton,OH,43326
1114,"230 S Detroit St, Kenton, OH 43326 USA",40.64534,-83.6097,230,Kenton,OH,43326
1332,"1003 E Columbus St, Kenton, OH 43326 USA",40.65287,-83.5898,1003,Kenton,OH,43326
642,"10030 State Route 159, Kingston, OH 45644 USA",39.4651,-82.9179,10030,Kingston,OH,45644
377,"559 W Main St, Lebanon, OH 45036 USA",39.43385,-84.2189,559,Lebanon,OH,45036
1034,"550 E Main St, Lebanon, OH 45036 USA",39.43282,-84.1959,550,Lebanon,OH,45036
776,"2555 Elida Rd, Lima, OH 45805 USA",40.76416,-84.153,2555,Lima,OH,45805
1527,"2723 Elida Rd, Lima, OH 45805 USA",40.76576,-84.1563,2723,Lima,OH,45805
894,"8883 Norwalk Rd, Litchfield, OH 44253 USA",41.1685,-82.0089,8883,Litchfield,OH,44253
378,"1301 W Hunter St, Logan, OH 43138 USA",39.54315,-82.4264,1301,Logan,OH,43138
129,"35738 US Highway 50, Londonderry, OH 45647 USA",39.26618,-82.7898,35738,Londonderry,OH,45647
1406,"810 S Market St, Loudonville, OH 44842 USA",40.62291,-82.2446,810,Loudonville,OH,44842
1791,"613 W Main St, Louisville, OH 44641 USA",40.8373,-81.2657,613,Louisville,OH,44641
663,"6655 N Ridge Rd, Madison, OH 44057 USA",41.80274,-81.0497,6655,Madison,OH,44057
574,"322 E 2nd St, Manchester, OH 45144 USA",38.68753,-83.6053,322,Manchester,OH,45144
1576,"1411 Lexington Ave, Mansfield, OH 44907 USA",40.72022,-82.5439,1411,Mansfield,OH,44907
1797,"458 Springmill St, Mansfield, OH 44903 USA",40.76939,-82.5223,458,Mansfield,OH,44903
1438,"10600 Main St, Mantua, OH 44255 USA",41.28009,-81.2237,10600,Mantua,OH,44255
494,"1309 Mount Vernon Ave, Marion, OH 43302 USA",40.58068,-83.0947,1309,Marion,OH,43302
801,"303 E 5th St, Marysville, OH 43040 USA",40.23605,-83.3642,303,Marysville,OH,43040
1827,"16350 Allenby Drive, Marysville, OH 43040 USA",40.24056,-83.3418,16350,Marysville,OH,43040
25,"8310 Wilkens Blvd, Mason, OH 45040 USA",39.31807,-84.3172,8310,Mason,OH,45040
667,"2512 Kings Center Ct, Mason, OH 45040 USA",39.3564,-84.2626,2512,Mason,OH,45040
1534,"4215 Pearl Rd, Medina, OH 44256 USA",41.15999,-81.8619,4215,Medina,OH,44256
1826,"16350 Allenby Drive, Mesa, OH 43040 USA",40.24056,-83.3418,16350,Mesa,OH,43040
1792,"3125 S Main St, Middletown, OH 45044 USA",39.48282,-84.4192,3125,Middletown,OH,45044
1613,"12405 Lancaster St, Millersport, OH 43046 USA",39.90466,-82.5349,12405,Millersport,OH,43046
521,"240 Sandusky St, Monroeville, OH 44847 USA",41.24961,-82.7033,240,Monroeville,OH,44847
1815,"403 N High St, Mount Orab, OH 45154 USA",39.03316,-83.9196,403,Mount Orab,OH,45154
1281,"1485 Coshocton Ave, Mount Vernon, OH 43050 USA",40.40332,-82.4458,1485,Mount Vernon,OH,43050
31,"232 E Broadway St, New Lexington, OH 43764 USA",39.71955,-82.2067,232,New Lexington,OH,43764
1740,"1400 Park Ave, New Matamoras, OH 45767 USA",39.51665,-81.0737,1400,New Matamoras,OH,45767
154,"136 S Locust St, Oak Harbor, OH 43449 USA",41.50568,-83.1445,136,Oak Harbor,OH,43449
493,"23100 Broadway Ave, Oakwood Village, OH 44146 USA",41.36819,-81.5117,23100,Oakwood Village,OH,44146
1368,"2322 W 4th St, Ontario, OH 44906 USA",40.77436,-82.5985,2322,Ontario,OH,44906
1126,"317 N Main St, Payne, OH 45880 USA",41.08183,-84.7274,317,Payne,OH,45880
952,"139 S Main St, Peebles, OH 45660 USA",38.94346,-83.4116,139,Peebles,OH,45660
1019,"29889 State Route 41, Peebles, OH 45660 USA",38.99134,-83.3779,29889,Peebles,OH,45660
133,"18300 Pemberville Rd, Pemberville, OH 43450 USA",41.41827,-83.4537,18300,Pemberville,OH,43450
1856,"10859 State Route 772, Piketon, OH 45661 USA",39.04471,-83.1448,10859,Piketon,OH,45661
1857,"10855 State Route 772 Side, Piketon, OH 45661 USA",39.0437,-83.1453,10855,Piketon,OH,45661
941,"1305 E Ash St, Piqua, OH 45356 USA",40.14989,-84.2079,1305,Piqua,OH,45356
342,"1124 W Fremont Rd, Port Clinton, OH 43452 USA",41.50515,-82.9559,1124,Port Clinton,OH,43452
685,"602 Elm St, Racine, OH 45771 USA",38.97086,-81.9136,602,Racine,OH,45771
385,"209 State Route 708, Russells Point, OH 43348 USA",40.46898,-83.8911,209,Russells Point,OH,43348
971,"50740 Valley Centre Blvd, Saint Clairsville, OH 43950 USA",40.0846,-80.8962,50740,Saint Clairsville,OH,43950
1375,"1502 Executive Dr, Saint Marys, OH 45885 USA",40.55291,-84.4094,1502,Saint Marys,OH,45885
379,"1872 E State St, Salem, OH 44460 USA",40.90139,-80.8345,1872,Salem,OH,44460
1561,"2940 E State St, Salem, OH 44460 USA",40.90243,-80.8173,2940,Salem,OH,44460
1863,"2842 E State St, Salem, OH 44460 USA",40.90168,-80.8195,2842,Salem,OH,44460
655,"2400 Michigan St, Sidney, OH 45365 USA",40.2905,-84.1926,2400,Sidney,OH,45365
1986,"1400 Michigan St, Sidney, OH 45365 USA",40.28826,-84.1766,1400,Sidney,OH,45365
1880,"45 County Road 407, South Point, OH 45680 USA",38.4206,-82.5032,45,South Point,OH,45680
1480,"2323 Sunset Blvd, Steubenville, OH 43952 USA",40.37104,-80.6451,2323,Steubenville,OH,43952
693,"201 Zeltman Ave NE, Strasburg, OH 44680 USA",40.6074,-81.5296,201,Strasburg,OH,44680
114,"7255 E State Route 37, Sunbury, OH 43074 USA",40.2673,-82.9326,7255,Sunbury,OH,43074
169,"117 State Route 3, Sunbury, OH 43074 USA",40.24514,-82.8666,117,Sunbury,OH,43074
1988,"272 N Sandusky St, Tiffin, OH 44883 USA",41.12622,-83.1777,272,Tiffin,OH,44883
1016,"1750 W Main St, Troy, OH 45373 USA",40.05302,-84.2359,1750,Troy,OH,45373
1481,"1280 S Shannon St, Van Wert, OH 45891 USA",40.8519,-84.6002,1280,Van Wert,OH,45891
683,"4480 Liberty Ave, Vermilion, OH 44089 USA",41.42549,-82.3436,4480,Vermilion,OH,44089
24,"950 High St, Wadsworth, OH 44281 USA",41.04893,-81.7294,950,Wadsworth,OH,44281
552,"214 High St, Wadsworth, OH 44281 USA",41.02858,-81.7303,214,Wadsworth,OH,44281
1428,"1496 N Shoop Ave, Wauseon, OH 43567 USA",41.57295,-84.1336,1496,Wauseon,OH,43567
1582,"340 W Emmitt Ave, Waverly, OH 45690 USA",39.12383,-82.9911,340,Waverly,OH,45690
1575,"7436 Tylersville Rd, West Chester, OH 45069 USA",39.35433,-84.3707,7436,West Chester,OH,45069
1596,"7811 Tylersville Rd, West Chester, OH 45069 USA",39.35242,-84.3643,7811,West Chester,OH,45069
1684,"22950 State Route 73, West Portsmouth, OH 45663 USA",38.76777,-83.0174,22950,West Portsmouth,OH,45663
1491,"8219 Ohio River Rd, Wheelersburg, OH 45694 USA",38.7282,-82.8601,8219,Wheelersburg,OH,45694
326,"345 E Walton St, Willard, OH 44890 USA",41.0431,-82.7208,345,Willard,OH,44890
1526,"106 E Walton St, Willard, OH 44890 USA",41.04237,-82.7243,106,Willard,OH,44890
1687,"101 Main St, Wintersville, OH 43953 USA",40.37081,-80.6858,101,Wintersville,OH,43953
393,"1221 W Main St, Woodville, OH 43469 USA",41.45588,-83.3781,1221,Woodville,OH,43469
453,"746 Monroe St, Zanesville, OH 43701 USA",39.94742,-82.0002,746,Zanesville,OH,43701
998,"755 Zane St, Zanesville, OH 43701 USA",39.94824,-82.0018,755,Zanesville,OH,43701
218,"21761 S Highway 69, Afton, OK 74331 USA",36.70558,-94.9316,21761,Afton,OK,74331
1453,"820 N Main St, Altus, OK 73521 USA",34.64629,-99.3336,820,Altus,OK,73521
231,"300 W Main St, Antlers, OK 74523 USA",34.23129,-95.6248,300,Antlers,OK,74523
896,"518 N Myers Rd, Apache, OK 73006 USA",34.89915,-98.3564,518,Apache,OK,73006
1568,"1701 S Mississippi Ave, Atoka, OK 74525 USA",34.36943,-96.1393,1701,Atoka,OK,74525
484,"2935 E Frank Phillips Blvd, Bartlesville, OK 74006 USA",36.75012,-95.9458,2935,Bartlesville,OK,74006
684,"709 S Park Dr, Broken Bow, OK 74728 USA",34.01926,-94.7391,709,Broken Bow,OK,74728
1348,"906 S Park Dr, Broken Bow, OK 74728 USA",34.01728,-94.7403,906,Broken Bow,OK,74728
1941,"1400 S Park Dr, Broken Bow, OK 74728 USA",34.01247,-94.7401,1400,Broken Bow,OK,74728
870,"125 W Main St, Byng, OK 74820 USA",34.77438,-96.6799,125,Byng,OK,74820
1985,"22903 State Highway 112, Cameron, OK 74932 USA",35.19003,-94.493,22903,Cameron,OK,74932
995,"2328 S 4th St, Chickasha, OK 73018 USA",35.0261,-97.9354,2328,Chickasha,OK,73018
1973,"1823 S 4th St, Chickasha, OK 73018 USA",35.03114,-97.9344,1823,Chickasha,OK,73018
1293,"1210 W Will Rogers Blvd, Claremore, OK 74017 USA",36.31624,-95.6242,1210,Claremore,OK,74017
220,"808 N Lawson Blvd, Clayton, OK 74536 USA",34.59533,-95.3468,808,Clayton,OK,74536
783,"116 N Mickey Mantle Blvd, Commerce, OK 74339 USA",36.93426,-94.8667,116,Commerce,OK,74339
792,"1630 E Main St, Davis, OK 73030 USA",34.50541,-97.1049,1630,Davis,OK,73030
800,"118 E Main St, Davis, OK 73030 USA",34.50372,-97.1211,118,Davis,OK,73030
102,"3045 W Beech Ave, Duncan, OK 73533 USA",34.50752,-97.9853,3045,Duncan,OK,73533
1199,"281529 E 1780 Rd, Duncan, OK 73533 USA",34.43376,-97.9733,281529,Duncan,OK,73533
1334,"2267 N Highway 81, Duncan, OK 73533 USA",34.51861,-97.9684,2267,Duncan,OK,73533
98,"811 N 1st Ave, Durant, OK 74701 USA",33.99836,-96.3741,811,Durant,OK,74701
147,"513 University Pl, Durant, OK 74701 USA",34.0015,-96.4107,513,Durant,OK,74701
1027,"28 E 15th St, Edmond, OK 73013 USA",35.63831,-97.4818,28,Edmond,OK,73013
359,"2400 Sunset Dr, El Reno, OK 73036 USA",35.53738,-97.9817,2400,El Reno,OK,73036
755,"2300 S Country Club Rd, El Reno, OK 73036 USA",35.51228,-97.9731,2300,El Reno,OK,73036
929,"308 W Elm St, El Reno, OK 73036 USA",35.52258,-97.9564,308,El Reno,OK,73036
310,"303 E 1st St, Granite, OK 73547 USA",34.95796,-99.3575,303,Granite,OK,73547
537,"414 N 21st St, Grove, OK 74344 USA",36.60157,-94.7883,414,Grove,OK,74344
323,"704 Highway 59 N, Heavener, OK 74937 USA",34.91189,-94.609,704,Heavener,OK,74937
1243,"601 S Broadway, Hobart, OK 73651 USA",35.02108,-99.0968,601,Hobart,OK,73651
454,"39463 S Old 59, Howe, OK 74940 USA",34.95036,-94.6286,39463,Howe,OK,74940
1695,"124 State Highway 10, Kansas, OK 74347 USA",36.20403,-94.779,124,Kansas,OK,74347
1103,"408 NE Main St, Keota, OK 74941 USA",35.2586,-94.9184,408,Keota,OK,74941
1701,"132 S. Boston Avenue, Ketchum, OK 74349 USA",36.52402,-95.0233,132,Ketchum,OK,74349
336,"301 Highway 70 E, Kingston, OK 73439 USA",33.99854,-96.7226,301,Kingston,OK,73439
1761,"10300 US Highway 77, Lexington, OK 73051 USA",35.09031,-97.3424,10300,Lexington,OK,73051
1147,"304 W Broadway, Mannsville, OK 73447 USA",34.1859,-96.8855,304,Mannsville,OK,73447
62,"513 W Wanda Jackson Blvd, Maud, OK 74854 USA",35.12985,-96.7683,513,Maud,OK,74854
921,"603 S George Nigh Expy, McAlester, OK 74501 USA",34.91629,-95.746,603,McAlester,OK,74501
264,"707 W Shawntel Smith Blvd, Muldrow, OK 74948 USA",35.40044,-94.608,707,Muldrow,OK,74948
513,"225 W Shawnee St, Muskogee, OK 74401 USA",35.76925,-95.362,225,Muskogee,OK,74401
1470,"2037 N 11th St W, Muskogee, OK 74401 USA",35.77022,-95.3763,2037,Muskogee,OK,74401
1236,"512 S Main St, Newcastle, OK 73065 USA",35.24236,-97.5993,512,Newcastle,OK,73065
918,"1177 180th Ave NE, Norman, OK 73026 USA",35.23151,-97.1766,1177,Norman,OK,73026
1850,"7540 North York, Okay, OK 74446 USA",35.84552,-95.3148,7540,Okay,OK,74446
1279,"201 S Delaware Ave, Okmulgee, OK 74447 USA",35.62204,-95.9662,201,Okmulgee,OK,74447
953,"311 W 4th St, Olustee, OK 73560 USA",34.54805,-99.4286,311,Olustee,OK,73560
464,"12144 S Highway 169, Oologah, OK 74053 USA",36.43586,-95.7098,12144,Oologah,OK,74053
100,"11653 E 86th St N, Owasso, OK 74055 USA",36.27917,-95.8441,11653,Owasso,OK,74055
421,"9531 N Owasso Expy, Owasso, OK 74055 USA",36.29214,-95.8336,9531,Owasso,OK,74055
806,"25239 Highway 82, Park Hill, OK 74451 USA",35.80837,-94.9682,25239,Park Hill,OK,74451
474,"2300 N 14th St, Ponca City, OK 74601 USA",36.73184,-97.068,2300,Ponca City,OK,74601
1689,"1209 E Prospect Ave, Ponca City, OK 74601 USA",36.73889,-97.0696,1209,Ponca City,OK,74601
1340,"805 N Broadway St, Poteau, OK 74953 USA",35.06089,-94.6208,805,Poteau,OK,74953
1397,"503 N Broadway St, Poteau, OK 74953 USA",35.05749,-94.6206,503,Poteau,OK,74953
1789,"2017 N Broadway St, Poteau, OK 74953 USA",35.09178,-94.6438,2017,Poteau,OK,74953
1962,"522 N Jim Thorpe Blvd, Prague, OK 74864 USA",35.48232,-96.685,522,Prague,OK,74864
1198,"101 E Main St, Rattan, OK 74562 USA",34.20098,-95.4128,101,Rattan,OK,74562
402,"5908 Highway 58, Ringwood, OK 73768 USA",36.39203,-98.2471,5908,Ringwood,OK,73768
689,"1401 N Rush Ave, Rush Springs, OK 73082 USA",34.79709,-97.9605,1401,Rush Springs,OK,73082
944,"18150 US Highway 81, Ryan, OK 73565 USA",34.02612,-97.9586,18150,Ryan,OK,73565
65,"305 W 2nd St, Sand Springs, OK 74063 USA",36.13874,-96.1151,305,Sand Springs,OK,74063
1846,"3728 S State Highway 97, Sand Springs, OK 74063 USA",36.12997,-96.1163,3728,Sand Springs,OK,74063
1547,"404 N Main St, Seiling, OK 73663 USA",36.14958,-98.9242,404,Seiling,OK,73663
1882,"715 W Broadway St, Spiro, OK 74959 USA",35.2413,-94.6315,715,Spiro,OK,74959
1982,"1107 E Main St, Stigler, OK 74462 USA",35.25236,-95.1134,1107,Stigler,OK,74462
1694,"3624 S Perkins Rd, Stillwater, OK 74074 USA",36.081,-97.0525,3624,Stillwater,OK,74074
1726,"106 Hwy 54 East, Texhoma, OK 73939 USA",36.50503,-101.783,106,Texhoma,OK,73939
932,"7274 W 81st St, Tulsa, OK 74131 USA",36.04624,-96.0759,7274,Tulsa,OK,74131
1545,"7640 West 81st Street, Tulsa, OK 74131 USA",36.04599,-96.078,7640,Tulsa,OK,74131
1577,"2121 N 85th East Ave, Tulsa, OK 74115 USA",36.18745,-95.8794,2121,Tulsa,OK,74115
831,"2111 County Street 2760, Verden, OK 73092 USA",35.0846,-98.0752,2111,Verden,OK,73092
1359,"405 E Missouri St, Walters, OK 73572 USA",34.36259,-98.3042,405,Walters,OK,73572
429,"1021 Main St, Waynoka, OK 73860 USA",36.57908,-98.88,1021,Waynoka,OK,73860
810,"119 US Highway 70A, Wilson, OK 73463 USA",34.17107,-97.4181,119,Wilson,OK,73463
1421,"6470 Ok-98, Wright City, OK 74766 USA",34.0695,-95.0061,6470,Wright City,OK,74766
1047,"1301 Cornwell Dr, Yukon, OK 73099 USA",35.49309,-97.742,1301,Yukon,OK,73099
1235,"301 N G St, Lakeview, OR 97630 USA",42.19209,-120.348,301,Lakeview,OR,97630
1458,"800 Merchant St, Ambridge, PA 15003 USA",40.58934,-80.2291,800,Ambridge,PA,15003
885,"1453 Carlisle Rd, Aspers, PA 17304 USA",39.97309,-77.2433,1453,Aspers,PA,17304
1040,"1199 3rd St, Beaver, PA 15009 USA",40.69191,-80.312,1199,Beaver,PA,15009
1116,"1795 3rd St, Beaver, PA 15009 USA",40.68813,-80.3206,1795,Beaver,PA,15009
1955,"4750 Tuscarawas Rd, Beaver, PA 15009 USA",40.70445,-80.4011,4750,Beaver,PA,15009
864,"1907 Darlington Rd, Beaver Falls, PA 15010 USA",40.75955,-80.3424,1907,Beaver Falls,PA,15010
1933,"3465 Simpson Ferry Rd, Camp Hill, PA 17011 USA",40.22586,-76.9392,3465,Camp Hill,PA,17011
1637,"109 Cavasina Dr, Canonsburg, PA 15317 USA",40.26289,-80.1746,109,Canonsburg,PA,15317
1165,"1202 Harrisburg Pike, Carlisle, PA 17013 USA",40.23374,-77.1406,1202,Carlisle,PA,17013
1723,"220 Simko Blvd, Charleroi, PA 15022 USA",40.13386,-79.9802,220,Charleroi,PA,15022
1190,"207 S State St, Clarks Summit, PA 18411 USA",41.49487,-75.7038,207,Clarks Summit,PA,18411
791,"1080 S Arch St, Connellsville, PA 15425 USA",40.00747,-79.5924,1080,Connellsville,PA,15425
1043,"813 E Dubois Ave, Dubois, PA 15801 USA",41.12482,-78.7383,813,Dubois,PA,15801
1886,"194 Aviation Way, Dubois, PA 15801 USA",41.18601,-78.8918,194,Dubois,PA,15801
1622,"300 Walmart Dr, Ebensburg, PA 15931 USA",40.47553,-78.7501,300,Ebensburg,PA,15931
686,"15 Main St, Eldred, PA 16731 USA",41.95301,-78.3849,15,Eldred,PA,16731
346,"4955 State Route 209, Elizabethville, PA 17023 USA",40.54847,-76.8147,4955,Elizabethville,PA,17023
236,"10109 Lincoln Hwy, Everett, PA 15537 USA",40.02633,-78.4462,10109,Everett,PA,15537
764,"408 High St, Freeport, PA 16229 USA",40.67322,-79.6861,408,Freeport,PA,16229
640,"5099 State Route 30, Greensburg, PA 15601 USA",40.30186,-79.493,5099,Greensburg,PA,15601
1500,"432 Frye Farm Rd, Greensburg, PA 15601 USA",40.28781,-79.4446,432,Greensburg,PA,15601
66,"4328 State Route 147, Herndon, PA 17830 USA",40.68675,-76.8296,4328,Herndon,PA,17830
212,"9299 State Route 30, Irwin, PA 15642 USA",40.32269,-79.6964,9299,Irwin,PA,15642
135,"307 Fairfield Ave # 11, Johnstown, PA 15906 USA",40.34491,-78.9504,307,Johnstown,PA,15906
420,"1431 Manheim Pike, Lancaster, PA 17601 USA",40.07089,-76.3319,1431,Lancaster,PA,17601
1042,"124 Lloyd Ave, Latrobe, PA 15650 USA",40.31372,-79.3894,124,Latrobe,PA,15650
725,"1236 Connellsville Rd, Lemont Furnace, PA 15456 USA",39.91484,-79.6821,1236,Lemont Furnace,PA,15456
1595,"70 W 28th Division Hwy, Lititz, PA 17543 USA",40.22638,-76.3058,70,Lititz,PA,17543
57,"840 Bellefonte Ave, Lock Haven, PA 17745 USA",41.13104,-77.4615,840,Lock Haven,PA,17745
816,"786 McElhattan Dr, Lock Haven, PA 17745 USA",41.14897,-77.3536,786,Lock Haven,PA,17745
1499,"1430 S Main St, Mansfield, PA 16933 USA",41.78027,-77.0712,1430,Mansfield,PA,16933
771,"392 North St, Meadville, PA 16335 USA",41.63991,-80.1476,392,Meadville,PA,16335
1992,"975 Market St, Meadville, PA 16335 USA",41.63654,-80.1538,975,Meadville,PA,16335
1280,"123 Gettysburg Pike, Mechanicsburg, PA 17055 USA",40.18168,-76.9874,123,Mechanicsburg,PA,17055
1658,"4711 Carlisle Pike, Mechanicsburg, PA 17050 USA",40.23797,-76.9637,4711,Mechanicsburg,PA,17050
1659,"39 Paxtonville Rd, Middleburg, PA 17842 USA",40.7839,-77.0436,39,Middleburg,PA,17842
449,"801 S Eisenhower Blvd, Middletown, PA 17057 USA",40.21743,-76.7912,801,Middletown,PA,17057
1773,"30 Kremp Rd, Mohnton, PA 19540 USA",40.24183,-75.9396,30,Mohnton,PA,19540
743,"792 Commerce Ave, New Castle, PA 16101 USA",40.99437,-80.2853,792,New Castle,PA,16101
829,"6 Winter Rd, New Castle, PA 16101 USA",41.01287,-80.3982,6,New Castle,PA,16101
902,"109 N Liberty St, New Castle, PA 16102 USA",40.97364,-80.3748,109,New Castle,PA,16102
963,"2539 W State St, New Castle, PA 16101 USA",41.01168,-80.395,2539,New Castle,PA,16101
878,"303 Duke St, Northumberland, PA 17857 USA",40.88971,-76.8001,303,Northumberland,PA,17857
949,"3348 Pittsburgh Rd, Perryopolis, PA 15473 USA",40.08078,-79.7597,3348,Perryopolis,PA,15473
1270,"244 Main St, Plumville, PA 16246 USA",40.79265,-79.181,244,Plumville,PA,16246
1730,"4833 Morgantown Rd, Point Marion, PA 15474 USA",39.75465,-79.8773,4833,Point Marion,PA,15474
244,"901 S Saint Marys St, Saint Marys, PA 15857 USA",41.40803,-78.56,901,Saint Marys,PA,15857
1008,"1502 Scranton Carbondale Hwy, Scranton, PA 18508 USA",41.47025,-75.6366,1502,Scranton,PA,18508
1083,"221 Grove City Rd, Slippery Rock, PA 16057 USA",41.07078,-80.0525,221,Slippery Rock,PA,16057
613,"2880 Brownsville Rd, South Park, PA 15129 USA",40.28787,-79.997,2880,South Park,PA,15129
728,"270 W Liberty St, Sykesville, PA 15865 USA",41.04519,-78.8252,270,Sykesville,PA,15865
459,"1028 W Spring St, Titusville, PA 16354 USA",41.63315,-79.6943,1028,Titusville,PA,16354
1431,"110 E Central Ave, Titusville, PA 16354 USA",41.62744,-79.6727,110,Titusville,PA,16354
476,"180 W Main St, Uniontown, PA 15401 USA",39.90154,-79.7317,180,Uniontown,PA,15401
1164,"1005 Trinity Cir, Washington, PA 15301 USA",40.18485,-80.2236,1005,Washington,PA,15301
213,"12674 Route 19 S, Waterford, PA 16441 USA",41.93542,-79.9816,12674,Waterford,PA,16441
1943,"13970 State Route 8, Wattsburg, PA 16442 USA",42.01348,-79.8166,13970,Wattsburg,PA,16442
905,"4763 Zane a Miller Dr, Waynesboro, PA 17268 USA",39.77618,-77.6189,4763,Waynesboro,PA,17268
1274,"1850 E 3rd St, Williamsport, PA 17701 USA",41.24879,-76.9657,1850,Williamsport,PA,17701
1174,"300 S Salem Church Rd, York, PA 17408 USA",39.93232,-76.8255,300,York,PA,17408
1392,"1540 Rodney Rd, York, PA 17408 USA",39.97709,-76.763,1540,York,PA,17408
1925,"2055 S Queen St, York, PA 17403 USA",39.93845,-76.6932,2055,York,PA,17403
535,"Pr 2 Km 225.7, Ponce, PR 00730 USA",18.43383,-66.6135,Pr,Ponce,PR,00730
827,"1600 Nooseneck Hill Rd, Coventry, RI 02816 USA",41.67336,-71.5948,1600,Coventry,RI,02816
1319,"436 Knotty Oak Rd, Coventry, RI 02816 USA",41.70812,-71.5579,436,Coventry,RI,02816
1341,"2293 New London Tpke, Coventry, RI 02816 USA",41.6629,-71.5435,2293,Coventry,RI,02816
368,"520 Taunton Ave, East Providence, RI 02914 USA",41.82183,-71.3594,520,East Providence,RI,02914
441,"278 Cowesett Ave, West Warwick, RI 02893 USA",41.68511,-71.5062,278,West Warwick,RI,02893
1899,"704 Main St, West Warwick, RI 02893 USA",41.7225,-71.5334,704,West Warwick,RI,02893
1716,"1614 N Main St, Abbeville, SC 29620 USA",34.1884,-82.3994,1614,Abbeville,SC,29620
1993,"904 W Greenwood St, Abbeville, SC 29620 USA",34.16064,-82.3847,904,Abbeville,SC,29620
123,"496 E Pine Log Rd, Aiken, SC 29803 USA",33.5278,-81.7076,496,Aiken,SC,29803
233,"1011 E Pine Log Rd, Aiken, SC 29803 USA",33.53511,-81.6934,1011,Aiken,SC,29803
301,"3565 Richland Ave W, Aiken, SC 29801 USA",33.56345,-81.7638,3565,Aiken,SC,29801
873,"2580 Whiskey Rd, Aiken, SC 29803 USA",33.50601,-81.7088,2580,Aiken,SC,29803
1044,"2101 Whiskey Rd, Aiken, SC 29803 USA",33.51691,-81.7168,2101,Aiken,SC,29803
1648,"1610 Richland Ave, Aiken, SC 29801 USA",33.56682,-81.7411,1610,Aiken,SC,29801
1902,"1103 Richland Ave E, Aiken, SC 29801 USA",33.55533,-81.7051,1103,Aiken,SC,29801
56,"108 Highway 28 Byp, Anderson, SC 29624 USA",34.47467,-82.6524,108,Anderson,SC,29624
1039,"259 W Church St, Batesburg, SC 29006 USA",33.91179,-81.5374,259,Batesburg,SC,29006
1345,"254 W Columbia Ave, Batesburg, SC 29006 USA",33.90793,-81.5359,254,Batesburg,SC,29006
1333,"1721 Sand Bar Ferry Rd, Beech Island, SC 29842 USA",33.42798,-81.888,1721,Beech Island,SC,29842
462,"2210 Boiling Springs Rd, Boiling Springs, SC 29316 USA",35.02412,-81.9632,2210,Boiling Springs,SC,29316
931,"3121 Boiling Springs Rd, Boiling Springs, SC 29316 USA",35.03973,-81.9757,3121,Boiling Springs,SC,29316
591,"305 Chesterfield Hwy, Cheraw, SC 29520 USA",34.69186,-79.9062,305,Cheraw,SC,29520
1371,"1841 J a Cochran Byp, Chester, SC 29706 USA",34.70969,-81.2191,1841,Chester,SC,29706
1372,"1839 J a Cochran Byp, Chester, SC 29706 USA",34.70969,-81.2191,1839,Chester,SC,29706
1509,"1434 Jr Cohran Bypass, Chester, SC 29706 USA",34.69207,-81.1963,1434,Chester,SC,29706
1755,"1791 J a Cochran Byp, Chester, SC 29706 USA",34.70969,-81.2191,1791,Chester,SC,29706
1914,"1150 West Blvd, Chesterfield, SC 29709 USA",34.73649,-80.1067,1150,Chesterfield,SC,29709
1473,"2002 Martintown Rd, Clarks Hill, SC 29821 USA",33.61382,-82.0271,2002,Clarks Hill,SC,29821
868,"4681 Jefferson Davis Hwy, Clearwater, SC 29842 USA",33.49982,-81.9079,4681,Clearwater,SC,29842
515,"1041 Cannon Bridge Rd, Cordova, SC 29039 USA",33.4463,-80.8854,1041,Cordova,SC,29039
1477,"18180 Heritage Hwy, Denmark, SC 29042 USA",33.32633,-81.1336,18180,Denmark,SC,29042
1257,"733 Augusta Rd, Edgefield, SC 29824 USA",33.77087,-81.9108,733,Edgefield,SC,29824
1548,"2301 Hoffmeyer Rd, Florence, SC 29501 USA",34.19538,-79.8141,2301,Florence,SC,29501
1945,"5211 Highway 321, Gaston, SC 29053 USA",33.83566,-81.0907,5211,Gaston,SC,29053
1175,"1211 N Fraser St, Georgetown, SC 29440 USA",33.39134,-79.2898,1211,Georgetown,SC,29440
1984,"216 Mead Rd, Hardeeville, SC 29927 USA",32.3118,-80.9658,216,Hardeeville,SC,29927
1025,"8318 Old State Rd, Holly Hill, SC 29059 USA",33.32551,-80.4194,8318,Holly Hill,SC,29059
214,"1076 Lake Murray Blvd, Irmo, SC 29063 USA",34.08871,-81.1777,1076,Irmo,SC,29063
745,"7435 Saint Andrews Rd, Irmo, SC 29063 USA",34.08598,-81.1844,7435,Irmo,SC,29063
1460,"145 E Columbia Ave, Leesville, SC 29070 USA",33.91229,-81.5245,145,Leesville,SC,29070
799,"603 Columbia Ave # B, Lexington, SC 29072 USA",33.9896,-81.236,603,Lexington,SC,29072
608,"610 N Highway 52, Moncks Corner, SC 29461 USA",33.18675,-80.001,610,Moncks Corner,SC,29461
709,"2980 Main St, Newberry, SC 29108 USA",34.28214,-81.5916,2980,Newberry,SC,29108
1069,"1804 Wilson Rd, Newberry, SC 29108 USA",34.29218,-81.6037,1804,Newberry,SC,29108
877,"1295 W Martintown Rd, North Augusta, SC 29841 USA",33.54564,-81.9972,1295,North Augusta,SC,29841
1580,"10263 Atomic Rd, North Augusta, SC 29841 USA",33.49425,-81.9518,10263,North Augusta,SC,29841
520,"1661 Neeses Hwy, Orangeburg, SC 29115 USA",33.50492,-80.9549,1661,Orangeburg,SC,29115
712,"3543 Saint Matthews Rd, Orangeburg, SC 29118 USA",33.54931,-80.8298,3543,Orangeburg,SC,29118
11,"212 S Van Lingle Mungo Blvd, Pageland, SC 29728 USA",34.77192,-80.3822,212,Pageland,SC,29728
189,"591 Highway 183, Piedmont, SC 29673 USA",34.76698,-82.471,591,Piedmont,SC,29673
629,"120 W Clark St, Pinewood, SC 29125 USA",33.74076,-80.4635,120,Pinewood,SC,29125
1262,"260 N Dogwood Ave, Ridgeway, SC 29130 USA",34.30903,-80.9674,260,Ridgeway,SC,29130
1241,"6197 Highway 221, Roebuck, SC 29376 USA",34.84093,-81.9682,6197,Roebuck,SC,29376
1591,"2515 Stone Station Rd, Roebuck, SC 29376 USA",34.86955,-81.9578,2515,Roebuck,SC,29376
830,"4010 Anderson Mill Rd, Spartanburg, SC 29301 USA",34.91594,-82.005,4010,Spartanburg,SC,29301
1657,"7600 Warren H Abernathy Hwy, Spartanburg, SC 29301 USA",34.93706,-81.9993,7600,Spartanburg,SC,29301
1823,"114 Best Dr, Spartanburg, SC 29303 USA",35.00844,-82.0261,114,Spartanburg,SC,29303
1142,"226 Broad St, Sumter, SC 29150 USA",33.93084,-80.3506,226,Sumter,SC,29150
1906,"1034 Broad St, Sumter, SC 29150 USA",33.94747,-80.3748,1034,Sumter,SC,29150
754,"204 E Smith St, Timmonsville, SC 29161 USA",34.1323,-79.9379,204,Timmonsville,SC,29161
1152,"113 Columbia Rd, Wagener, SC 29164 USA",33.65454,-81.3605,113,Wagener,SC,29164
39,"1321 Bells Hwy, Walterboro, SC 29488 USA",32.92523,-80.6844,1321,Walterboro,SC,29488
577,"1109 S Jefferies Blvd, Walterboro, SC 29488 USA",32.89239,-80.6795,1109,Walterboro,SC,29488
1521,"2048 Bells Hwy, Walterboro, SC 29488 USA",32.93343,-80.694,2048,Walterboro,SC,29488
1980,"721 S Jefferies Blvd, Walterboro, SC 29488 USA",32.89643,-80.6726,721,Walterboro,SC,29488
150,"1207 Augusta Rd, Warrenville, SC 29851 USA",33.54884,-81.8105,1207,Warrenville,SC,29851
1256,"2725 Sunset Blvd, West Columbia, SC 29169 USA",34.00406,-81.114,2725,West Columbia,SC,29169
1842,"3308 Platt Springs Rd, West Columbia, SC 29170 USA",33.9559,-81.1195,3308,West Columbia,SC,29170
892,"3510 N Highway 11, West Union, SC 29696 USA",36.89892,-81.3307,3510,West Union,SC,29696
1524,"1505 Anderson Dr, Williamston, SC 29697 USA",34.6142,-82.5009,1505,Williamston,SC,29697
157,"250 S Main St, Woodruff, SC 29388 USA",34.73765,-82.0362,250,Woodruff,SC,29388
980,"950 N Main St, Chamberlain, SD 57325 USA",43.8204,-99.3257,950,Chamberlain,SD,57325
609,"210 Mount Rushmore Rd, Custer, SD 57730 USA",43.7647,-103.604,210,Custer,SD,57730
1875,"119 West Bennett Avenue, Martin, SD 57551 USA",43.17156,-101.733,119,Martin,SD,57551
470,"2400 S Mentzer St, Mitchell, SD 57301 USA",43.68522,-98.0121,2400,Mitchell,SD,57301
1873,"4887 Long View Rd, Rapid City, SD 57703 USA",44.05228,-103.139,4887,Rapid City,SD,57703
1498,"1125 E Cherry St, Vermillion, SD 57069 USA",42.78612,-96.914,1125,Vermillion,SD,57069
1560,"204 E Highway 14, Volga, SD 57071 USA",44.32676,-96.9267,204,Volga,SD,57071
1296,"2804 Decatur Pike, Athens, TN 37303 USA",35.46784,-84.6511,2804,Athens,TN,37303
1847,"2632 Decatur Pike, Athens, TN 37303 USA",35.46483,-84.6456,2632,Athens,TN,37303
1910,"5474 Highway 60, Birchwood, TN 37308 USA",35.3686,-84.991,5474,Birchwood,TN,37308
1890,"18350 Highway 125 S, Bolivar, TN 38008 USA",35.24078,-88.9737,18350,Bolivar,TN,38008
1624,"1313 Volunteer Pkwy, Bristol, TN 37620 USA",36.56244,-82.2082,1313,Bristol,TN,37620
898,"605 E Main St, Brownsville, TN 38012 USA",35.59397,-89.256,605,Brownsville,TN,38012
704,"30 Gap Creek Rd, Bulls Gap, TN 37711 USA",36.22176,-83.0285,30,Bulls Gap,TN,37711
1795,"4423 Highway 641 S, Camden, TN 38320 USA",35.99326,-88.1103,4423,Camden,TN,38320
17,"5610 Brainerd Rd, Chattanooga, TN 37411 USA",35.01104,-85.2148,5610,Chattanooga,TN,37411
107,"1515 Central Ave, Chattanooga, TN 37408 USA",35.03132,-85.2969,1515,Chattanooga,TN,37408
144,"2514 Amnicola Hwy, Chattanooga, TN 37406 USA",35.07275,-85.2683,2514,Chattanooga,TN,37406
353,"3401 Amnicola Hwy, Chattanooga, TN 37406 USA",35.08112,-85.2649,3401,Chattanooga,TN,37406
394,"600 Ashland Ter, Chattanooga, TN 37415 USA",35.11735,-85.2792,600,Chattanooga,TN,37415
422,"5659 Brainerd Rd, Chattanooga, TN 37411 USA",35.01189,-85.2154,5659,Chattanooga,TN,37411
530,"6171 Enterprise Park Dr, Chattanooga, TN 37416 USA",35.07097,-85.1823,6171,Chattanooga,TN,37416
531,"4900 Brainerd Rd, Chattanooga, TN 37411 USA",35.01233,-85.228,4900,Chattanooga,TN,37411
585,"3743 Cummings Hwy, Chattanooga, TN 37419 USA",35.01862,-85.3809,3743,Chattanooga,TN,37419
766,"407 Signal Mountain Rd, Chattanooga, TN 37405 USA",35.08889,-85.3312,407,Chattanooga,TN,37405
865,"2300 Jenkins Rd, Chattanooga, TN 37421 USA",35.03453,-85.133,2300,Chattanooga,TN,37421
1029,"2298 E 23rd St, Chattanooga, TN 37407 USA",35.01689,-85.2774,2298,Chattanooga,TN,37407
1053,"7302 Lee Hwy, Chattanooga, TN 37421 USA",35.05223,-85.1488,7302,Chattanooga,TN,37421
1107,"6119 Lee Hwy, Chattanooga, TN 37421 USA",35.02918,-85.1883,6119,Chattanooga,TN,37421
1731,"2200 Bams Dr, Chattanooga, TN 37421 USA",35.03889,-85.1575,2200,Chattanooga,TN,37421
1092,"202 Silver Lake Rd, Church Hill, TN 37642 USA",36.52666,-82.6878,202,Church Hill,TN,37642
1494,"1516 Nashville Hwy, Columbia, TN 38401 USA",35.65054,-87.0105,1516,Columbia,TN,38401
1693,"300 S James M Campbell Blvd, Columbia, TN 38401 USA",35.59083,-87.0468,300,Columbia,TN,38401
443,"1625 Highway 51 S, Covington, TN 38019 USA",35.50868,-89.7125,1625,Covington,TN,38019
670,"960 Highway 51 N, Covington, TN 38019 USA",35.74142,-89.5552,960,Covington,TN,38019
559,"561 Peavine Rd, Crossville, TN 38571 USA",35.9645,-84.9819,561,Crossville,TN,38571
1135,"31 Kearney Dr, Crossville, TN 38555 USA",35.91939,-85.0496,31,Crossville,TN,38555
1217,"2547 N Main St, Crossville, TN 38555 USA",35.98225,-85.04,2547,Crossville,TN,38555
1454,"82 Elmore Rd, Crossville, TN 38555 USA",35.96231,-85.0374,82,Crossville,TN,38555
1921,"1688 N Main St, Crossville, TN 38555 USA",35.97028,-85.0373,1688,Crossville,TN,38555
1288,"10 Dyer Hwy, Dyer, TN 38330 USA",36.09911,-89.1183,10,Dyer,TN,38330
572,"1120 Forrest St, Dyersburg, TN 38024 USA",36.03562,-89.3999,1120,Dyersburg,TN,38024
1240,"345 US Highway 51 Byp W, Dyersburg, TN 38024 USA",36.0556,-89.3815,345,Dyersburg,TN,38024
330,"1106 N Main Ave, Erwin, TN 37650 USA",36.15785,-82.4028,1106,Erwin,TN,37650
1736,"1237 N Main Ave, Erwin, TN 37650 USA",36.15994,-82.3986,1237,Erwin,TN,37650
1771,"835 Highway 411 N, Etowah, TN 37331 USA",35.3406,-84.52,835,Etowah,TN,37331
307,"19583 Highway 79, Gadsden, TN 38337 USA",35.77191,-89.0006,19583,Gadsden,TN,38337
812,"3585 E Andrew Johnson Hwy, Greeneville, TN 37745 USA",36.18656,-82.7622,3585,Greeneville,TN,37745
1153,"370 Morgan Rd, Greeneville, TN 37745 USA",36.19106,-82.7599,370,Greeneville,TN,37745
1131,"5525 S York Hwy, Grimsley, TN 38565 USA",36.25009,-84.9897,5525,Grimsley,TN,38565
127,"1917 Roane State Hwy, Harriman, TN 37748 USA",35.89077,-84.5468,1917,Harriman,TN,37748
1472,"1811 S Roane St, Harriman, TN 37748 USA",35.90725,-84.5912,1811,Harriman,TN,37748
969,"6239 Highway 58, Harrison, TN 37341 USA",35.12345,-85.126,6239,Harrison,TN,37341
623,"5501 Highway 153, Hixson, TN 37343 USA",35.14201,-85.2494,5501,Hixson,TN,37343
1571,"8540 Hixson Pike, Hixson, TN 37343 USA",35.20019,-85.1591,8540,Hixson,TN,37343
1145,"15275 Highway 13 S, Hurricane Mills, TN 37078 USA",35.97117,-87.782,15275,Hurricane Mills,TN,37078
1272,"1459 5th St, Jellico, TN 37762 USA",36.58113,-84.1133,1459,Jellico,TN,37762
1510,"1390 5th St, Jellico, TN 37762 USA",36.58115,-84.1151,1390,Jellico,TN,37762
1961,"935 E Race St, Kingston, TN 37763 USA",35.86716,-84.5032,935,Kingston,TN,37763
120,"11133 Kingston Pike, Knoxville, TN 37934 USA",35.88732,-84.1504,11133,Knoxville,TN,37934
1134,"2064 Castaic Ln, Knoxville, TN 37932 USA",35.9479,-84.159,2064,Knoxville,TN,37932
1833,"7426 Norris Fwy, Knoxville, TN 37938 USA",36.08423,-83.9348,7426,Knoxville,TN,37938
1834,"7418 Norris Fwy, Knoxville, TN 37938 USA",36.08381,-83.9344,7418,Knoxville,TN,37938
688,"1336 S Locust Ave, Lawrenceburg, TN 38464 USA",35.22456,-87.3351,1336,Lawrenceburg,TN,38464
289,"1109 Highway 321 N, Lenoir City, TN 37771 USA",35.82792,-84.2773,1109,Lenoir City,TN,37771
1683,"2397 Highway 43 S, Leoma, TN 38468 USA",35.18635,-87.3406,2397,Leoma,TN,38468
1213,"1198 War Eagle Drive, Lewisburg, TN 37091 USA",35.46639,-86.7885,1198,Lewisburg,TN,37091
171,"1475 W Main St, Livingston, TN 38570 USA",36.37108,-85.3405,1475,Livingston,TN,38570
1273,"1350 W Main St, Livingston, TN 38570 USA",36.37387,-85.3407,1350,Livingston,TN,38570
794,"82 Expressway Dr, Manchester, TN 37355 USA",35.45984,-86.0541,82,Manchester,TN,37355
440,"303 Whitecrest Dr, Maryville, TN 37801 USA",35.75811,-83.9921,303,Maryville,TN,37801
630,"3502 Maynardville Hwy, Maynardville, TN 37807 USA",36.24019,-83.8183,3502,Maynardville,TN,37807
67,"10230 US Highway 70 E, Mc Ewen, TN 37101 USA",36.10489,-87.6222,10230,Mc Ewen,TN,37101
298,"15563 Highland Dr, Mc Kenzie, TN 38201 USA",36.12688,-88.514,15563,Mc Kenzie,TN,38201
1948,"1050 Ellington Dr, Milan, TN 38358 USA",35.91445,-88.7513,1050,Milan,TN,38358
245,"1675 W Main St, Monteagle, TN 37356 USA",35.23878,-85.8508,1675,Monteagle,TN,37356
1928,"530 Main St W, Mount Carmel, TN 37645 USA",36.53768,-82.6704,530,Mount Carmel,TN,37645
1884,"8570 Highway 193, Oakland, TN 38060 USA",35.15309,-89.4921,8570,Oakland,TN,38060
714,"176 White Water Dr, Ocoee, TN 37361 USA",35.13012,-84.7161,176,Ocoee,TN,37361
294,"8229 Mahan Gap Rd, Ooltewah, TN 37363 USA",35.17504,-85.0279,8229,Ooltewah,TN,37363
852,"4515 Highway 77, Paris, TN 38242 USA",36.22263,-88.3081,4515,Paris,TN,38242
1641,"1031 Mineral Wells Ave, Paris, TN 38242 USA",36.28808,-88.3117,1031,Paris,TN,38242
893,"4102 US Highway 45 S, Pinson, TN 38366 USA",35.48748,-88.7156,4102,Pinson,TN,38366
1383,"1420 W College St, Pulaski, TN 38478 USA",35.20312,-87.0576,1420,Pulaski,TN,38478
395,"600 Ashland Ter, Red Bank, TN 37415 USA",35.11735,-85.2792,600,Red Bank,TN,37415
1095,"910 E Main St, Rogersville, TN 37857 USA",36.41265,-82.9934,910,Rogersville,TN,37857
15,"25 1st St E, Stanton, TN 38069 USA",35.4667,-89.4016,25,Stanton,TN,38069
603,"1157 Highway 68, Sweetwater, TN 37874 USA",35.60103,-84.5263,1157,Sweetwater,TN,37874
632,"708 S Main St, Sweetwater, TN 37874 USA",35.58972,-84.4708,708,Sweetwater,TN,37874
1497,"50 Hurricane Loop, Tennessee Ridge, TN 37178 USA",36.33103,-87.7522,50,Tennessee Ridge,TN,37178
681,"5490 Broad St S, Trezevant, TN 38258 USA",36.01056,-88.6229,5490,Trezevant,TN,38258
495,"2210 Nailling Dr, Union City, TN 38261 USA",36.4354,-89.0217,2210,Union City,TN,38261
901,"1015 Highway 411, Vonore, TN 37885 USA",35.59091,-84.2347,1015,Vonore,TN,37885
614,"6540 Tn 76, Williston, TN 38076 USA",35.15239,-89.3694,6540,Williston,TN,38076
973,"1920 E Highway 6, Alvin, TX 77511 USA",29.42221,-95.2267,1920,Alvin,TX,77511
857,"2950 E FM 1151, Amarillo, TX 79118 USA",35.09078,-101.803,2950,Amarillo,TX,79118
1211,"732 Commercial Ave, Anson, TX 79501 USA",32.76039,-99.8973,732,Anson,TX,79501
1441,"5039 FM 521 Rd, Arcola, TX 77583 USA",29.51121,-95.459,5039,Arcola,TX,77583
1138,"829 S Broadway St, Aspermont, TX 79502 USA",33.13662,-100.228,829,Aspermont,TX,79502
988,"4201 Highway 146, Bacliff, TX 77518 USA",29.5031,-94.997,4201,Bacliff,TX,77518
1758,"8102 N Highway 146, Baytown, TX 77523 USA",29.81011,-94.902,8102,Baytown,TX,77523
412,"15386 State Highway 85, Big Wells, TX 78830 USA",28.5729,-99.6137,15386,Big Wells,TX,78830
1186,"560 616, Blessing, TX 77419 USA",28.87137,-96.218,560,Blessing,TX,77419
487,"1100 W Front St, Blossom, TX 75416 USA",33.66096,-95.3977,1100,Blossom,TX,75416
1606,"10553 FM 1301 Rd, Boling, TX 77420 USA",29.26724,-95.9471,10553,Boling,TX,77420
300,"108 U.S. 90, Brackettville, TX 78832 USA",29.30984,-100.419,108,Brackettville,TX,78832
985,"110 E San Bernard St, Brazoria, TX 77422 USA",29.04854,-95.5682,110,Brazoria,TX,77422
237,"810 Sh 147, Broaddus, TX 75929 USA",31.3048,-94.2708,810,Broaddus,TX,75929
1860,"3535 Recreational Road 255 W, Brookeland, TX 75931 USA",31.06282,-94.0379,3535,Brookeland,TX,75931
94,"4825 Front St, Brookshire, TX 77423 USA",29.78567,-95.9653,4825,Brookshire,TX,77423
1922,"7951 Southmost Rd, Brownsville, TX 78521 USA",25.86649,-97.4239,7951,Brownsville,TX,78521
1681,"802 S Main St, Calvert, TX 77837 USA",30.97651,-96.6726,802,Calvert,TX,77837
1610,"1004 N 1st St, Carrizo Springs, TX 78834 USA",28.52779,-99.8548,1004,Carrizo Springs,TX,78834
978,"1129 W Saint Marys St, Centerville, TX 75833 USA",31.258,-95.9916,1129,Centerville,TX,75833
1410,"407 E. St. Marys Street, Centerville, TX 75833 USA",31.25747,-95.9729,407,Centerville,TX,75833
1652,"2105 Avenue F NW, Childress, TX 79201 USA",34.43432,-100.229,2105,Childress,TX,79201
49,"14753 US Highway 287, Chillicothe, TX 79225 USA",34.25636,-99.51,14753,Chillicothe,TX,79225
1435,"22880 Highway 321, Cleveland, TX 77327 USA",30.31831,-94.9941,22880,Cleveland,TX,77327
208,"16995 FM 1314 Rd, Conroe, TX 77302 USA",30.20525,-95.3524,16995,Conroe,TX,77302
224,"2944 Interstate 45 N, Conroe, TX 77303 USA",30.34628,-95.4819,2944,Conroe,TX,77303
858,"1776 E Davis St, Conroe, TX 77301 USA",30.31962,-95.4308,1776,Conroe,TX,77301
1351,"806 Interstate 45 N, Conroe, TX 77301 USA",30.3178,-95.4714,806,Conroe,TX,77301
895,"1211 W Dallas Ave, Cooper, TX 75432 USA",33.3735,-95.6989,1211,Cooper,TX,75432
480,"804 N Main St, Cotulla, TX 78014 USA",28.44572,-99.2359,804,Cotulla,TX,78014
796,"901 S Gaston St, Crane, TX 79731 USA",31.39456,-102.349,901,Crane,TX,79731
656,"300 State Highway 132 N, Devine, TX 78016 USA",29.14227,-98.904,300,Devine,TX,78016
1297,"221 N Temple Dr, Diboll, TX 75941 USA",31.18591,-94.7832,221,Diboll,TX,75941
1286,"201 S Main, Dilley, TX 78017 USA",28.66836,-99.1701,201,Dilley,TX,78017
1777,"466 Dill St, East Bernard, TX 77435 USA",29.52586,-96.0703,466,East Bernard,TX,77435
410,"101 E Broadway St, Eden, TX 76837 USA",31.21585,-99.8423,101,Eden,TX,76837
304,"1821 S Alamo Rd, Edinburg, TX 78542 USA",26.27676,-98.108,1821,Edinburg,TX,78542
1871,"3815 E FM 2812, Edinburg, TX 78542 USA",26.38231,-98.1148,3815,Edinburg,TX,78542
869,"4021 FM 515, Emory, TX 75440 USA",32.87525,-95.6802,4021,Emory,TX,75440
1900,"602 N Saint Marys St, Falfurrias, TX 78355 USA",27.23195,-98.1433,602,Falfurrias,TX,78355
370,"414 E Broadway St, Fritch, TX 79036 USA",35.64361,-101.588,414,Fritch,TX,79036
803,"308 North 3rd Street, Ganado, TX 77962 USA",29.04413,-96.5149,308,Ganado,TX,77962
1390,"10074 Tx-300, Gilmer, TX 75645 USA",32.61745,-94.842,10074,Gilmer,TX,75645
1633,"31340 US Highway 377, Gordonville, TX 76245 USA",33.84053,-96.8389,31340,Gordonville,TX,76245
1295,"3106 S State Highway 161, Grand Prairie, TX 75052 USA",32.69813,-97.0241,3106,Grand Prairie,TX,75052
1679,"1204 East 4th St, Hallettsville, TX 77964 USA",29.445,-96.933,1204,Hallettsville,TX,77964
1849,"1514 N Texana St, Hallettsville, TX 77964 USA",29.45924,-96.9395,1514,Hallettsville,TX,77964
825,"11111 Highway 146, Hardin, TX 77561 USA",30.15769,-94.7399,11111,Hardin,TX,77561
38,"2330 S FM 2869, Hawkins, TX 75765 USA",32.75312,-95.1896,2330,Hawkins,TX,75765
643,"407 N Smith Ave, Hebbronville, TX 78361 USA",27.3104,-98.6791,407,Hebbronville,TX,78361
805,"1210 N Smith Ave, Hebbronville, TX 78361 USA",27.3183,-98.6768,1210,Hebbronville,TX,78361
1066,"300 6, Iraan, TX 79744 USA",30.91405,-101.898,300,Iraan,TX,79744
1313,"1191 E Main St, Itasca, TX 76055 USA",32.16541,-97.14,1191,Itasca,TX,76055
1496,"808 N Walcott St, Jefferson, TX 75657 USA",32.76884,-94.3544,808,Jefferson,TX,75657
1308,"1905 S Highway 181 # U, Karnes City, TX 78118 USA",28.85052,-97.8807,1905,Karnes City,TX,78118
1471,"324 E Cedar Creek Pkwy, Kemp, TX 75143 USA",32.32257,-96.207,324,Kemp,TX,75143
576,"557 N Sunset Strip St, Kenedy, TX 78119 USA",28.83311,-97.8672,557,Kenedy,TX,78119
1585,"101 N Highway 183, Leander, TX 78641 USA",30.4558,-97.792,101,Leander,TX,78641
1917,"1821 Highway 90, Liberty, TX 77575 USA",30.05691,-94.798,1821,Liberty,TX,77575
74,"704 N Highway 95, Little River Academy, TX 76554 USA",30.98752,-97.3412,704,Little River Academy,TX,76554
471,"111 Emergency Dr, Livingston, TX 77351 USA",30.71102,-94.933,111,Livingston,TX,77351
473,"1826 US Highway 190 W, Livingston, TX 77351 USA",30.71895,-94.961,1826,Livingston,TX,77351
41,"400 N Commerce St, Lovelady, TX 75851 USA",31.13018,-95.4456,400,Lovelady,TX,75851
784,"4507 E 4th St, Lubbock, TX 79403 USA",33.5933,-101.774,4507,Lubbock,TX,79403
176,"8422 Business 77, Lyford, TX 78569 USA",26.38366,-97.7914,8422,Lyford,TX,78569
1930,"31109 FM 2978 Rd, Magnolia, TX 77354 USA",30.20209,-95.5836,31109,Magnolia,TX,77354
163,"2120 W FM 1626, Manchaca, TX 78652 USA",30.13459,-97.8539,2120,Manchaca,TX,78652
744,"140 Carlile Cir, Marshall, TX 75672 USA",32.49778,-94.353,140,Marshall,TX,75672
758,"104 W Pinecrest Dr, Marshall, TX 75670 USA",32.5262,-94.3685,104,Marshall,TX,75670
253,"414 Broadway St, Maud, TX 75567 USA",33.33308,-94.3459,414,Maud,TX,75567
646,"1419 W Noel St, Memphis, TX 79245 USA",34.72462,-100.548,1419,Memphis,TX,79245
1096,"2005 FM 491, Mercedes, TX 78570 USA",26.1751,-97.911,2005,Mercedes,TX,78570
1014,"1808 W Highway 84, Mexia, TX 76667 USA",31.6791,-96.5182,1808,Mexia,TX,76667
596,"6301 W Industrial Ave, Midland, TX 79706 USA",31.95294,-102.155,6301,Midland,TX,79706
904,"5500 N County Road 1150, Midland, TX 79705 USA",32.07174,-102.034,5500,Midland,TX,79705
1796,"8701 W County Road 127, Midland, TX 79706 USA",31.92143,-102.188,8701,Midland,TX,79706
547,"6220 N La Homa Rd, Mission, TX 78574 USA",26.29173,-98.3519,6220,Mission,TX,78574
1996,"103 S Main St, Morton, TX 79346 USA",33.72498,-102.759,103,Morton,TX,79346
1074,"303 S Railroad Ave, Mount Enterprise, TX 75681 USA",31.91468,-94.681,303,Mount Enterprise,TX,75681
1073,"303 S Railroad Ave, Mt Enterprise, TX 75681 USA",31.91468,-94.681,303,Mt Enterprise,TX,75681
1246,"1040 E. Division St, Muenster, TX 76252 USA",33.64834,-97.3656,1040,Muenster,TX,76252
1680,"400 Wl Doc Dodson W, Naples, TX 75568 USA",33.20593,-94.676,400,Naples,TX,75568
1344,"204 Loop 337, New Braunfels, TX 78130 USA",29.7027,-98.0963,204,New Braunfels,TX,78130
1,"23685 Walton Ave, New Caney, TX 77357 USA",30.15307,-95.2186,23685,New Caney,TX,77357
1692,"20633 FM 1485 Rd, New Caney, TX 77357 USA",30.15547,-95.2168,20633,New Caney,TX,77357
1759,"152 Gin Rd, New Summerfield, TX 75780 USA",31.9827,-95.0937,152,New Summerfield,TX,75780
457,"140 S. Love Street, Oakwood, TX 75855 USA",31.58419,-95.8497,140,Oakwood,TX,75855
751,"800 Voss Ave, Odem, TX 78370 USA",27.9476,-97.5844,800,Odem,TX,78370
13,"3431 Scr West, Odessa, TX 79766 USA",31.80325,-102.375,3431,Odessa,TX,79766
118,"3900 Kermit Hwy, Odessa, TX 79764 USA",31.87384,-102.415,3900,Odessa,TX,79764
1158,"7001 Andrews Hwy, Odessa, TX 79765 USA",31.91122,-102.395,7001,Odessa,TX,79765
1076,"14420 Us Hwy 190 W, Onak, TX 77360 USA",30.81329,-95.1156,14420,Onak,TX,77360
1075,"14420 Us Hwy 190 W, Onalaska, TX 77360 USA",30.81329,-95.1156,14420,Onalaska,TX,77360
702,"1540 Strickland Dr, Orange, TX 77630 USA",30.10371,-93.7711,1540,Orange,TX,77630
482,"550 S Interstate 35, Pearsall, TX 78061 USA",28.89134,-99.1016,550,Pearsall,TX,78061
10,"101 US Highway 96 N, Pineland, TX 75968 USA",31.2496,-93.9857,101,Pineland,TX,75968
1619,"175 US Highway 96 N, Pineland, TX 75968 USA",31.24653,-93.9854,175,Pineland,TX,75968
616,"23607 Highway 59, Porter, TX 77365 USA",30.10545,-95.2352,23607,Porter,TX,77365
1508,"25121 FM 1314 Rd, Porter, TX 77365 USA",30.10282,-95.23,25121,Porter,TX,77365
555,"11048 FM 751, Quinlan, TX 75474 USA",32.85713,-96.0652,11048,Quinlan,TX,75474
211,"809 S Alamo St, Refugio, TX 78377 USA",28.29662,-97.2765,809,Refugio,TX,78377
369,"1536 FM 359 Rd, Richmond, TX 77406 USA",29.61674,-95.7428,1536,Richmond,TX,77406
879,"6407 S Peek Rd, Richmond, TX 77407 USA",29.70077,-95.7599,6407,Richmond,TX,77407
1110,"4833 Waterview Meadow Dr, Richmond, TX 77407 USA",29.66216,-95.724,4833,Richmond,TX,77407
111,"Star Plaza S Us 83 East, Rio Grand City, TX 78582 USA",26.37683,-98.8133,Star,Rio Grand City,TX,78582
356,"1519 West Highway 83, Rio Grande City, TX 78582 USA",26.37398,-98.8777,1519,Rio Grande City,TX,78582
1673,"3519 W US Highway 83, Rio Grande City, TX 78582 USA",26.38056,-98.8946,3519,Rio Grande City,TX,78582
594,"700 Commerce St, Robert Lee, TX 76945 USA",31.89289,-100.484,700,Robert Lee,TX,76945
262,"701 E Avenue J, Robstown, TX 78380 USA",27.79902,-97.6586,701,Robstown,TX,78380
1991,"644 W Avenue J, Robstown, TX 78380 USA",27.79964,-97.6795,644,Robstown,TX,78380
1176,"1623 1st St, Rosenberg, TX 77471 USA",29.55119,-95.8082,1623,Rosenberg,TX,77471
392,"24249 W 281, San Benito, TX 78586 USA",26.02744,-97.6342,24249,San Benito,TX,78586
1851,"295 E US Highway 77, San Benito, TX 78586 USA",26.13736,-97.6243,295,San Benito,TX,78586
519,"100 E FM 495, San Juan, TX 78589 USA",26.20727,-98.152,100,San Juan,TX,78589
889,"4116 FM 621, San Marcos, TX 78666 USA",29.82299,-97.8935,4116,San Marcos,TX,78666
549,"908 S High St, San Saba, TX 76877 USA",31.18921,-98.7188,908,San Saba,TX,76877
1838,"5603 County Road 286, Sargent, TX 77414 USA",28.82173,-95.6536,5603,Sargent,TX,77414
597,"123 Geronimo Trl, Seguin, TX 78155 USA",29.64948,-97.9441,123,Seguin,TX,78155
989,"715 S Main St, Seminole, TX 79360 USA",32.70998,-102.644,715,Seminole,TX,79360
61,"1015 N College Ave, Snyder, TX 79549 USA",32.74873,-100.919,1015,Snyder,TX,79549
1065,"25308 Interstate 45, Spring, TX 77386 USA",30.12912,-95.4428,25308,Spring,TX,77386
83,"322 W Hill St, Spur, TX 79370 USA",33.48214,-100.856,322,Spur,TX,79370
668,"913 E Hamilton St, Stamford, TX 79553 USA",32.94359,-99.7892,913,Stamford,TX,79553
851,"702 N Swenson St, Stamford, TX 79553 USA",32.95286,-99.8026,702,Stamford,TX,79553
1082,"10 S Maple St, Stratford, TX 79084 USA",36.33227,-102.072,10,Stratford,TX,79084
1688,"304 US Highway 84, Sudan, TX 79371 USA",34.10504,-102.574,304,Sudan,TX,79371
1661,"900 W Expressway 83, Sullivan City, TX 78595 USA",26.27785,-98.5625,900,Sullivan City,TX,78595
185,"1705 Lockwood St, Tahoka, TX 79373 USA",33.16597,-101.799,1705,Tahoka,TX,79373
1031,"18684 Alameda, Tornillo, TX 79853 USA",31.4454,-106.088,18684,Tornillo,TX,79853
148,"1818 W Broadway St, Van Horn, TX 79855 USA",31.03813,-104.856,1818,Van Horn,TX,79855
95,"5102 N Navarro St, Victoria, TX 77904 USA",28.84199,-97.0001,5102,Victoria,TX,77904
381,"2912 Houston Hwy, Victoria, TX 77901 USA",28.8129,-96.9736,2912,Victoria,TX,77901
674,"5229 N Navarro St, Victoria, TX 77904 USA",28.84463,-97.0004,5229,Victoria,TX,77904
726,"8202 N Navarro St, Victoria, TX 77904 USA",28.87068,-96.997,8202,Victoria,TX,77904
862,"3101 Sam Houston Dr, Victoria, TX 77904 USA",28.83862,-96.9928,3101,Victoria,TX,77904
1669,"1510 E Rio Grande St, Victoria, TX 77901 USA",28.8069,-96.9888,1510,Victoria,TX,77901
1843,"580 N Main St, Vidor, TX 77662 USA",30.13027,-94.0148,580,Vidor,TX,77662
29,"503 2 Ave, White Deer, TX 79097 USA",35.43229,-101.178,503,White Deer,TX,79097
927,"200 FM 1563, Wolfe City, TX 75496 USA",33.37067,-96.0688,200,Wolfe City,TX,75496
673,"1104 16, Zapata, TX 78076 USA",26.91762,-99.2546,1104,Zapata,TX,78076
492,"199 E Main St, Zavalla, TX 75980 USA",31.1588,-94.4249,199,Zavalla,TX,75980
456,"442 E 300 S, Kanab, UT 84741 USA",37.04254,-112.519,442,Kanab,UT,84741
1433,"421 S 100 E, Kanab, UT 84741 USA",37.041,-112.526,421,Kanab,UT,84741
1205,"391 E 300 N, Morgan, UT 84050 USA",41.04514,-111.677,391,Morgan,UT,84050
550,"16085 Porterfield Hwy, Abingdon, VA 24210 USA",36.71927,-82.009,16085,Abingdon,VA,24210
430,"112 The Vitamin Shoppe Way, Ashland, VA 23005 USA",37.78668,-77.462,112,Ashland,VA,23005
1275,"6020 Us 29, Blairs, VA 24527 USA",36.69273,-79.3667,6020,Blairs,VA,24527
1059,"6886 Gate City Hwy, Bristol, VA 24202 USA",36.61124,-82.236,6886,Bristol,VA,24202
141,"484 Piney Pond Rd, Brodnax, VA 23920 USA",36.706,-78.0327,484,Brodnax,VA,23920
1872,"402 2nd St SW, Burkeville, VA 23922 USA",37.18711,-78.195,402,Burkeville,VA,23922
859,"18962 Route 58, Castlewood, VA 24224 USA",36.67059,-78.3934,18962,Castlewood,VA,24224
546,"401 George Washington Hwy, Charlotte Court House, VA 23923 USA",37.05692,-78.6305,401,Charlotte Court House,VA,23923
942,"2320 W Hundred Rd, Chester, VA 23831 USA",37.35513,-77.4085,2320,Chester,VA,23831
1554,"12421 Jefferson Davis Hwy, Chester, VA 23831 USA",37.35581,-77.4129,12421,Chester,VA,23831
933,"2330 Roanoke St, Christiansburg, VA 24073 USA",37.13638,-80.3641,2330,Christiansburg,VA,24073
81,"2009 Buckley Hall Rd, Cobbs Creek, VA 23035 USA",37.49607,-76.4116,2009,Cobbs Creek,VA,23035
312,"901 McKinney Blvd, Colonial Beach, VA 22443 USA",38.25465,-76.9743,901,Colonial Beach,VA,22443
1121,"1604 Boulevard, Colonial Heights, VA 23834 USA",37.25487,-77.4118,1604,Colonial Heights,VA,23834
1324,"1702 Boulevard, Colonial Heights, VA 23834 USA",37.25558,-77.4116,1702,Colonial Heights,VA,23834
522,"12197 Richmond Hwy, Concord, VA 24538 USA",37.35074,-78.9872,12197,Concord,VA,24538
97,"2639 N Main St, Danville, VA 24540 USA",36.62246,-79.3844,2639,Danville,VA,24540
292,"4168 Franklin Tpke, Danville, VA 24540 USA",36.67673,-79.4194,4168,Danville,VA,24540
1188,"107 Executive Ct, Danville, VA 24541 USA",36.59178,-79.4304,107,Danville,VA,24541
828,"16723 General Puller Hwy, Deltaville, VA 23043 USA",37.5538,-76.3486,16723,Deltaville,VA,23043
721,"903 Market Dr, Emporia, VA 23847 USA",36.70145,-77.5445,903,Emporia,VA,23847
528,"7369 Peppers Ferry Blvd, Fairlawn, VA 24141 USA",37.15062,-80.5825,7369,Fairlawn,VA,24141
203,"14867 Forest Rd, Forest, VA 24551 USA",37.36608,-79.296,14867,Forest,VA,24551
1810,"17559 Forest Rd, Forest, VA 24551 USA",37.37156,-79.2515,17559,Forest,VA,24551
181,"4091 James Madison Hwy, Fork Union, VA 23055 USA",37.75586,-78.2704,4091,Fork Union,VA,23055
85,"1643 Armory Dr, Franklin, VA 23851 USA",36.66626,-76.9564,1643,Franklin,VA,23851
1888,"330 Wadlow Gap Rd, Gate City, VA 24251 USA",36.59807,-82.5191,330,Gate City,VA,24251
161,"2335 E Market St, Harrisonburg, VA 22801 USA",38.42112,-78.8384,2335,Harrisonburg,VA,22801
1824,"2121 E Market St, Harrisonburg, VA 22801 USA",38.42467,-78.8398,2121,Harrisonburg,VA,22801
1897,"2200 Rock Port Dr, Harrisonburg, VA 22801 USA",38.40505,-78.8678,2200,Harrisonburg,VA,22801
232,"1033 Elm St, Hopewell, VA 23860 USA",37.29255,-77.2972,1033,Hopewell,VA,23860
1229,"3501 Oaklawn Blvd, Hopewell, VA 23860 USA",37.27578,-77.3118,3501,Hopewell,VA,23860
1832,"9328 Sam Snead Hwy, Hot Springs, VA 24445 USA",38.01295,-79.8103,9328,Hot Springs,VA,24445
742,"45 Ricky Van Shelton Dr, Hurt, VA 24563 USA",37.10323,-79.285,45,Hurt,VA,24563
1282,"1120 E Atlantic St, La Crosse, VA 23950 USA",36.70761,-78.1073,1120,La Crosse,VA,23950
746,"21 Highland Dr, Lebanon, VA 24266 USA",36.90218,-82.0691,21,Lebanon,VA,24266
1932,"4815 Broad Street Rd, Louisa, VA 23093 USA",37.84386,-77.9986,4815,Louisa,VA,23093
1841,"4176 S Amherst Hwy, Madison Heights, VA 24572 USA",37.46328,-79.119,4176,Madison Heights,VA,24572
1997,"4689 S Amherst Hwy, Madison Heights, VA 24572 USA",37.44456,-79.1192,4689,Madison Heights,VA,24572
162,"901 Murray Olds Dr, Midlothian, VA 23114 USA",37.50275,-77.6169,901,Midlothian,VA,23114
1677,"10811 Paulbrook Blvd, Midlothian, VA 23112 USA",37.44136,-77.5961,10811,Midlothian,VA,23112
1937,"13236 Rittenhouse Dr, Midlothian, VA 23112 USA",37.41617,-77.6405,13236,Midlothian,VA,23112
239,"4640 Stewartsville Rd, Moneta, VA 24121 USA",37.24005,-79.6171,4640,Moneta,VA,24121
33,"2708 Buford Rd, North Chesterfield, VA 23235 USA",37.53508,-77.5619,2708,North Chesterfield,VA,23235
782,"11531 Midlothian Tpke, North Chesterfield, VA 23235 USA",37.50482,-77.611,11531,North Chesterfield,VA,23235
928,"8220 Midlothian Tpke, North Chesterfield, VA 23235 USA",37.49792,-77.5486,8220,North Chesterfield,VA,23235
466,"1207 Kentucky Ave SE, Norton, VA 24273 USA",36.94135,-82.5959,1207,Norton,VA,24273
1625,"11775 S Crater Rd, Petersburg, VA 23805 USA",37.1509,-77.3567,11775,Petersburg,VA,23805
435,"12556 Orby Cantrell Hwy, Pound, VA 24279 USA",37.15599,-82.6288,12556,Pound,VA,24279
1081,"232 Quarry Rd, Pounding Mill, VA 24637 USA",37.07561,-81.7067,232,Pounding Mill,VA,24637
1187,"6730 Jefferson Davis Hwy, Richmond, VA 23237 USA",37.43286,-77.4402,6730,Richmond,VA,23237
1237,"5220 Starkey Rd, Roanoke, VA 24018 USA",37.21232,-79.9857,5220,Roanoke,VA,24018
1990,"3306 Westmoreland Dr, Roanoke, VA 24018 USA",37.23305,-80.0073,3306,Roanoke,VA,24018
467,"607 Redbud Hwy, Rosedale, VA 24280 USA",36.966,-81.9381,607,Rosedale,VA,24280
1926,"9005 Wards Rd, Rustburg, VA 24588 USA",37.25432,-79.1855,9005,Rustburg,VA,24588
718,"2723 W Main St, Salem, VA 24153 USA",37.28203,-80.1071,2723,Salem,VA,24153
820,"1732 W Main St, Salem, VA 24153 USA",37.28843,-80.0866,1732,Salem,VA,24153
1699,"301 Electric Rd, Salem, VA 24153 USA",37.29461,-80.0279,301,Salem,VA,24153
1844,"7003 Us 11, Shawsville, VA 24162 USA",37.17032,-80.2483,7003,Shawsville,VA,24162
109,"4035 Halifax Rd, South Boston, VA 24592 USA",36.73987,-78.9211,4035,South Boston,VA,24592
250,"1016 Bill Tuck Hwy, South Boston, VA 24592 USA",36.68702,-78.8985,1016,South Boston,VA,24592
1719,"1313 Wilborn Ave, South Boston, VA 24592 USA",36.70458,-78.9082,1313,South Boston,VA,24592
1484,"12201 S Crater Rd, South Prince George, VA 23805 USA",37.14452,-77.358,12201,South Prince George,VA,23805
23,"1310 Barterbrook Rd, Staunton, VA 24401 USA",38.12787,-79.0626,1310,Staunton,VA,24401
1811,"310 Betsy Bell Rd, Staunton, VA 24401 USA",38.1327,-79.0618,310,Staunton,VA,24401
1048,"12461 Blue Star Hwy, Stony Creek, VA 23882 USA",36.94708,-77.3932,12461,Stony Creek,VA,23882
275,"21633 Jeb Stuart Highway, Stuart, VA 24171 USA",36.63537,-80.2062,21633,Stuart,VA,24171
1026,"552 Main St, Tazewell, VA 24651 USA",37.11474,-81.5262,552,Tazewell,VA,24651
1252,"315 Richmond Rd, Williamsburg, VA 23185 USA",37.27337,-76.7116,315,Williamsburg,VA,23185
283,"7255 Booker T Washington Hwy, Wirtz, VA 24184 USA",37.10617,-79.8157,7255,Wirtz,VA,24184
1676,"101 Railroad Ave NE, Wise, VA 24293 USA",36.97634,-82.577,101,Wise,VA,24293
1367,"451 W Reservoir Rd, Woodstock, VA 22664 USA",38.87184,-78.5304,451,Woodstock,VA,22664
246,"117 Ready Mix Rd, Wytheville, VA 24382 USA",36.93599,-80.9949,117,Wytheville,VA,24382
996,"2816 George Washington Mem Hwy, Yorktown, VA 23693 USA",37.25327,-76.4989,2816,Yorktown,VA,23693
489,"11497 James Madison Hwy, Zion Crossroads, VA 22942 USA",37.97329,-78.2162,11497,Zion Crossroads,VA,22942
1239,"524 N Main St, Barre, VT 05641 USA",44.20744,-72.5135,524,Barre,VT,05641
997,"452 Main St, Barton, VT 05822 USA",44.75198,-72.1808,452,Barton,VT,05822
1157,"215 Lower Mountain View Dr, Colchester, VT 05446 USA",44.50675,-73.176,215,Colchester,VT,05446
1814,"781 College Pkwy, Colchester, VT 05446 USA",44.49783,-73.1586,781,Colchester,VT,05446
1468,"212 S Main St, Rutland, VT 05701 USA",43.59351,-72.9691,212,Rutland,VT,05701
1556,"86 Woodstock Ave, Rutland, VT 05701 USA",43.61314,-72.9652,86,Rutland,VT,05701
324,"183 Main St, Windsor, VT 05089 USA",43.47591,-72.3876,183,Windsor,VT,05089
1566,"734 5th Ave, Antigo, WI 54409 USA",45.14081,-89.154,734,Antigo,WI,54409
1855,"2104 Neva Rd, Antigo, WI 54409 USA",45.16015,-89.1486,2104,Antigo,WI,54409
1148,"5555 W Wisconsin Ave, Appleton, WI 54913 USA",44.2723,-88.4916,5555,Appleton,WI,54913
762,"991 State Road 13, Arkdale, WI 54613 USA",44.0273,-89.8878,991,Arkdale,WI,54613
1214,"1700 Lake Shore Dr E, Ashland, WI 54806 USA",46.6009,-90.863,1700,Ashland,WI,54806
511,"120 Corporate Dr, Beaver Dam, WI 53916 USA",43.47156,-88.8142,120,Beaver Dam,WI,53916
1799,"111 Frances Ln, Beaver Dam, WI 53916 USA",43.48734,-88.8087,111,Beaver Dam,WI,53916
1879,"806 Elm St, Boscobel, WI 53805 USA",43.13585,-90.7111,806,Boscobel,WI,53805
1049,"209 Madison Ave, Cascade, WI 53011 USA",43.65658,-88.0097,209,Cascade,WI,53011
106,"410 N State Highway 22, Cecil, WI 54111 USA",44.80608,-88.4574,410,Cecil,WI,54111
1858,"1949 Commerce Pkwy, Chippewa Falls, WI 54729 USA",44.96424,-91.3653,1949,Chippewa Falls,WI,54729
1318,"305 S Main St, Clintonville, WI 54929 USA",44.60656,-88.7642,305,Clintonville,WI,54929
581,"102 Hodd Dr, Colby, WI 54421 USA",44.92994,-90.3146,102,Colby,WI,54421
6,"200 Commercial Dr, Columbus, WI 53925 USA",43.34398,-89.0323,200,Columbus,WI,53925
1450,"1964 Dickinson Rd, De Pere, WI 54115 USA",44.43763,-88.0324,1964,De Pere,WI,54115
563,"910 W Pine St, Eagle River, WI 54521 USA",45.91283,-89.2402,910,Eagle River,WI,54521
1294,"300 E Wall St, Eagle River, WI 54521 USA",45.91508,-89.2491,300,Eagle River,WI,54521
86,"55 W Pioneer Rd, Fond du Lac, WI 54935 USA",43.75559,-88.451,55,Fond du Lac,WI,54935
1931,"1100 E Main St, Gilman, WI 54433 USA",45.16634,-90.7982,1100,Gilman,WI,54433
134,"211 W Main St, Glenbeulah, WI 53023 USA",43.79675,-88.0501,211,Glenbeulah,WI,53023
849,"10685 W Layton Ave, Greenfield, WI 53228 USA",42.95845,-88.0458,10685,Greenfield,WI,53228
1903,"201 E Ann St, Kaukauna, WI 54130 USA",44.25984,-88.2733,201,Kaukauna,WI,54130
269,"405 W Main St, La Farge, WI 54639 USA",43.57418,-90.6404,405,La Farge,WI,54639
966,"8519 S Loop Rd, Larsen, WI 54947 USA",44.20016,-88.6767,8519,Larsen,WI,54947
1722,"606 E Elm Dr, Loyal, WI 54446 USA",44.74178,-90.485,606,Loyal,WI,54446
477,"4201 Harbor Town Ln, Manitowoc, WI 54220 USA",44.07546,-87.7016,4201,Manitowoc,WI,54220
1528,"3500 Old Peshtigo Rd, Marinette, WI 54143 USA",45.08069,-87.6624,3500,Marinette,WI,54143
1546,"1120 N Main St, Marion, WI 54950 USA",44.67966,-88.8897,1120,Marion,WI,54950
281,"1502 S Central Ave, Marshfield, WI 54449 USA",44.65465,-90.1827,1502,Marshfield,WI,54449
793,"1012 N Central Ave, Marshfield, WI 54449 USA",44.67676,-90.1678,1012,Marshfield,WI,54449
798,"1501 N Central Ave, Marshfield, WI 54449 USA",44.68071,-90.1634,1501,Marshfield,WI,54449
1542,"539 S Central Ave, Marshfield, WI 54449 USA",44.66267,-90.1762,539,Marshfield,WI,54449
1757,"1000 N Central Ave, Marshfield, WI 54449 USA",44.67631,-90.1677,1000,Marshfield,WI,54449
14,"1091 Horicon St, Mayville, WI 53050 USA",43.49351,-88.5577,1091,Mayville,WI,53050
183,"1425 W Mequon Rd, Mequon, WI 53092 USA",43.22077,-87.9265,1425,Mequon,WI,53092
703,"901 N Center Ave, Merrill, WI 54452 USA",45.18811,-89.6826,901,Merrill,WI,54452
416,"709 W Hokah St, Minong, WI 54859 USA",46.09933,-91.8312,709,Minong,WI,54859
767,"13809 State Highway 32 64, Mountain, WI 54149 USA",45.17762,-88.47,13809,Mountain,WI,54149
1291,"360 Bay View Rd, Mukwonago, WI 53149 USA",42.85168,-88.33,360,Mukwonago,WI,53149
389,"W160S6471 Commerce Dr, Muskego, WI 53150 USA",42.92673,-88.1175,W160S6471,Muskego,WI,53150
624,"685 Watermark Ct, Neenah, WI 54956 USA",44.23703,-88.4728,685,Neenah,WI,54956
1573,"1530 S Commercial St, Neenah, WI 54956 USA",44.15542,-88.4613,1530,Neenah,WI,54956
1734,"303 E Division St, Neillsville, WI 54456 USA",44.55298,-90.5929,303,Neillsville,WI,54456
1122,"100 Market St, Nekoosa, WI 54457 USA",44.31577,-89.8897,100,Nekoosa,WI,54457
599,"1145 Main St, Onalaska, WI 54650 USA",43.88455,-91.2205,1145,Onalaska,WI,54650
939,"50654 Radcliff St, Osseo, WI 54758 USA",44.57855,-91.2088,50654,Osseo,WI,54758
1829,"2321 Post Rd, Plover, WI 54467 USA",44.46295,-89.5446,2321,Plover,WI,54467
1970,"1850 Plover Rd, Plover, WI 54467 USA",44.45633,-89.5277,1850,Plover,WI,54467
715,"1137 E Grand Ave, Rothschild, WI 54474 USA",44.90001,-89.6091,1137,Rothschild,WI,54474
525,"2910 S Business Dr, Sheboygan, WI 53081 USA",43.72377,-87.7363,2910,Sheboygan,WI,53081
1352,"2612 Washington Ave, Sheboygan, WI 53081 USA",43.71991,-87.741,2612,Sheboygan,WI,53081
182,"1425 W Mequon Rd, Thiensville, WI 53092 USA",43.22077,-87.9265,1425,Thiensville,WI,53092
1181,"200 E Liberty Dr, Thorp, WI 54771 USA",44.94887,-90.7996,200,Thorp,WI,54771
1459,"1122 N 4th St, Tomahawk, WI 54487 USA",45.48561,-89.7287,1122,Tomahawk,WI,54487
1629,"955 W Fulton St, Waupaca, WI 54981 USA",44.35602,-89.1072,955,Waupaca,WI,54981
1700,"2625 N 20th Ave, Wausau, WI 54401 USA",44.99563,-89.6599,2625,Wausau,WI,54401
293,"3200 8th St S, Wisconsin Rapids, WI 54494 USA",44.36541,-89.8181,3200,Wisconsin Rapids,WI,54494
1315,"2130 8th St S, Wisconsin Rapids, WI 54494 USA",44.37542,-89.8178,2130,Wisconsin Rapids,WI,54494
1785,"3110 8th St S, Wisconsin Rapids, WI 54494 USA",44.36668,-89.8174,3110,Wisconsin Rapids,WI,54494
544,"2256 Alta Dr, Alderson, WV 24910 USA",37.72969,-80.631,2256,Alderson,WV,24910
1760,"4380 Ballard Red Sulphur Pkwy, Ballard, WV 24918 USA",37.45208,-80.7792,4380,Ballard,WV,24918
415,"1912 Harper Rd, Beckley, WV 25801 USA",37.79071,-81.2107,1912,Beckley,WV,25801
1227,"1320 N Eisenhower Dr, Beckley, WV 25801 USA",37.80264,-81.1806,1320,Beckley,WV,25801
1098,"3188 E Cumberland Rd, Bluefield, WV 24701 USA",37.25582,-81.1992,3188,Bluefield,WV,24701
1323,"Route 52 Airport Square #A, Bluefield, WV 24701 USA",37.28305,-81.2505,Route,Bluefield,WV,24701
1234,"3 Northridge Dr, Buckhannon, WV 26201 USA",39.00347,-80.2335,3,Buckhannon,WV,26201
1702,"44 S Kanawha St, Buckhannon, WV 26201 USA",38.99189,-80.2299,44,Buckhannon,WV,26201
1825,"11881 Winchester Ave, Bunker Hill, WV 25413 USA",39.3735,-77.9828,11881,Bunker Hill,WV,25413
1804,"15055 Maccorkle Ave, Cabin Creek, WV 25035 USA",38.19566,-81.4886,15055,Cabin Creek,WV,25035
242,"811 W Pike St, Clarksburg, WV 26301 USA",39.28219,-80.3507,811,Clarksburg,WV,26301
345,"7145 Webster Road, Cowen, WV 26206 USA",38.40721,-80.5594,7145,Cowen,WV,26206
436,"7319 Route 20 South Rd, French Creek, WV 26218 USA",38.88566,-80.2973,7319,French Creek,WV,26218
551,"795 Ritter Dr, Glen Morgan, WV 25813 USA",37.74979,-81.138,795,Glen Morgan,WV,25813
221,"1000 Liberty Park Dr, Hurricane, WV 25526 USA",38.45641,-81.926,1000,Hurricane,WV,25526
1788,"25 Arbys Way, Hurricane, WV 25526 USA",38.4426,-82.02,25,Hurricane,WV,25526
1544,"405 E Main St, Kingwood, WV 26537 USA",39.47011,-79.6736,405,Kingwood,WV,26537
824,"Hwy 219 N. & Colman Drive, Lewisburg, WV 24901 USA",37.81168,-80.4196,Hwy,Lewisburg,WV,24901
1325,"1010 Foxcroft Ave, Martinsburg, WV 25401 USA",39.44483,-77.9866,1010,Martinsburg,WV,25401
279,"1003 W Baltimore St, McMechen, WV 26040 USA",39.98719,-80.733,1003,McMechen,WV,26040
1974,"9341 Point Pleasant Rd, Millwood, WV 25262 USA",38.88203,-81.8618,9341,Millwood,WV,25262
358,"3787 Earl L Core Rd, Morgantown, WV 26508 USA",39.60728,-79.8924,3787,Morgantown,WV,26508
1276,"1000 University Towne Centredr, Morgantown, WV 26501 USA",39.65527,-80.0047,1000,Morgantown,WV,26501
1369,"1002 University Towne Centerdr, Morgantown, WV 26501 USA",39.65501,-80.0052,1002,Morgantown,WV,26501
1446,"5900 Nancy D Dr, Morgantown, WV 26501 USA",39.65524,-80.0158,5900,Morgantown,WV,26501
1698,"2201 Cheat Rd, Morgantown, WV 26508 USA",39.67414,-79.8528,2201,Morgantown,WV,26508
919,"5975 Robert C Byrd Dr, Mount Hope, WV 25880 USA",37.86196,-81.1969,5975,Mount Hope,WV,25880
1895,"6850 Beech Run Road, Nimitz, WV 25978 USA",37.6501,-80.9677,6850,Nimitz,WV,25978
1623,"101 Tara Ln, Parkersburg, WV 26101 USA",39.21743,-81.5438,101,Parkersburg,WV,26101
1654,"2309 Pike St, Parkersburg, WV 26101 USA",39.23249,-81.5412,2309,Parkersburg,WV,26101
1852,"3800 Emerson Ave, Parkersburg, WV 26104 USA",39.28892,-81.5307,3800,Parkersburg,WV,26104
1754,"195 Greasy Ridge Rd, Princeton, WV 24739 USA",37.36194,-81.0459,195,Princeton,WV,24739
1904,"307 Main St W, Ripley, WV 25271 USA",38.82142,-81.7215,307,Ripley,WV,25271
503,"8444 Seneca Trl S, Ronceverte, WV 24970 USA",37.76503,-80.4646,8444,Ronceverte,WV,24970
661,"15831 Staunton Turnpike, Smithville, WV 26137 USA",39.07609,-81.097,15831,Smithville,WV,26137
694,"612 Maccorkle Ave SW, South Charleston, WV 25303 USA",38.36705,-81.6855,612,South Charleston,WV,25303
1987,"2201 Grand Central Ave, Vienna, WV 26105 USA",39.32128,-81.5529,2201,Vienna,WV,26105
48,"598 US Highway 33 E, Weston, WV 26452 USA",39.0462,-80.4632,598,Weston,WV,26452
1299,"1200 E Lincoln St, Gillette, WY 82716 USA",44.2944,-105.489,1200,Gillette,WY,82716
1285,"1050 W Flaming Gorge Way, Green River, WY 82935 USA",41.53661,-109.478,1050,Green River,WY,82935
